{"attribution":"UT.no\/DNT, OpenStreetMap contributors (ODbL)","features":[{"geometry":{"coordinates":[9.8866499999999995,59.912407000000002],"type":"Point"},"id":"cave-osm-node-10148457654","properties":{"name":"Hule","osm_ref":"node-10148457654","source":"OpenStreetMap"},"type":"Feature"},{"geometry":{"coordinates":[11.895375,67.436780999999996],"type":"Point"},"id":"cave-osm-node-10283141041","properties":{"name":"Helvete","osm_ref":"node-10283141041","source":"OpenStreetMap"},"type":"Feature"},{"geometry":{"coordinates":[5.8826229999999997,58.495083999999999],"type":"Point"},"id":"cave-osm-node-10665592996","properties":{"name":"Ole Høylandshålå","osm_ref":"node-10665592996","source":"OpenStreetMap"},"type":"Feature"},{"geometry":{"coordinates":[5.8617910000000002,58.487712000000002],"type":"Point"},"id":"cave-osm-node-10811763035","properties":{"name":"Litla OleHøylandshålå","osm_ref":"node-10811763035","source":"OpenStreetMap"},"type":"Feature"},{"geometry":{"coordinates":[8.4109510000000007,59.386983999999998],"type":"Point"},"id":"cave-osm-node-10882910750","properties":{"name":"Futholet","osm_ref":"node-10882910750","source":"OpenStreetMap"},"type":"Feature"},{"geometry":{"coordinates":[10.752495,59.680981000000003],"type":"Point"},"id":"cave-osm-node-10965646853","properties":{"description":"Next to the gravel road","name":"Hule","osm_ref":"node-10965646853","source":"OpenStreetMap"},"type":"Feature"},{"geometry":{"coordinates":[10.925602,59.863982],"type":"Point"},"id":"cave-osm-node-11044689860","properties":{"name":"Hule","osm_ref":"node-11044689860","source":"OpenStreetMap"},"type":"Feature"},{"geometry":{"coordinates":[8.5962010000000006,63.589908000000001],"type":"Point"},"id":"cave-osm-node-11046785322","properties":{"name":"Hestneshola","osm_ref":"node-11046785322","source":"OpenStreetMap"},"type":"Feature"},{"geometry":{"coordinates":[12.052858000000001,66.502447000000004],"type":"Point"},"id":"cave-osm-node-11093806579","properties":{"name":"Kirkhelleren","osm_ref":"node-11093806579","source":"OpenStreetMap"},"type":"Feature"},{"geometry":{"coordinates":[5.4005029999999996,62.258254000000001],"type":"Point"},"id":"cave-osm-node-11094150188","properties":{"name":"Dollsteinhola","osm_ref":"node-11094150188","source":"OpenStreetMap"},"type":"Feature"},{"geometry":{"coordinates":[10.873604,59.907187],"type":"Point"},"id":"cave-osm-node-11094518861","properties":{"name":"Hule","osm_ref":"node-11094518861","source":"OpenStreetMap"},"type":"Feature"},{"geometry":{"coordinates":[9.7070810000000005,61.748662000000003],"type":"Point"},"id":"cave-osm-node-11144384533","properties":{"name":"Hule","osm_ref":"node-11144384533","source":"OpenStreetMap"},"type":"Feature"},{"geometry":{"coordinates":[10.235336999999999,59.162509],"type":"Point"},"id":"cave-osm-node-11165632296","properties":{"name":"Rottenikkens hule","osm_ref":"node-11165632296","source":"OpenStreetMap"},"type":"Feature"},{"geometry":{"coordinates":[8.5193180000000002,58.509518],"type":"Point"},"id":"cave-osm-node-11196390739","properties":{"name":"Hule","osm_ref":"node-11196390739","source":"OpenStreetMap"},"type":"Feature"},{"geometry":{"coordinates":[8.0789139999999993,59.183008000000001],"type":"Point"},"id":"cave-osm-node-11258629337","properties":{"name":"Munkhola","osm_ref":"node-11258629337","source":"OpenStreetMap"},"type":"Feature"},{"geometry":{"coordinates":[5.1875159999999996,61.296413000000001],"type":"Point"},"id":"cave-osm-node-11387623893","properties":{"name":"Hule","osm_ref":"node-11387623893","source":"OpenStreetMap"},"type":"Feature"},{"geometry":{"coordinates":[23.204827999999999,69.952027000000001],"type":"Point"},"id":"cave-osm-node-11471948269","properties":{"name":"trollhula","osm_ref":"node-11471948269","source":"OpenStreetMap"},"type":"Feature"},{"geometry":{"coordinates":[20.583760000000002,69.379125999999999],"type":"Point"},"id":"cave-osm-node-11662885803","properties":{"name":"Baalsrudhula","osm_ref":"node-11662885803","source":"OpenStreetMap"},"type":"Feature"},{"geometry":{"coordinates":[13.491857,68.158787000000004],"type":"Point"},"id":"cave-osm-node-11673318208","properties":{"name":"Hule","osm_ref":"node-11673318208","source":"OpenStreetMap"},"type":"Feature"},{"geometry":{"coordinates":[5.4074249999999999,62.251837000000002],"type":"Point"},"id":"cave-osm-node-11718272678","properties":{"name":"Lisjegjøtten","osm_ref":"node-11718272678","source":"OpenStreetMap"},"type":"Feature"},{"geometry":{"coordinates":[5.4081479999999997,62.251899000000002],"type":"Point"},"id":"cave-osm-node-11718272679","properties":{"name":"Storegjøtten","osm_ref":"node-11718272679","source":"OpenStreetMap"},"type":"Feature"},{"geometry":{"coordinates":[5.4053789999999999,62.253098999999999],"type":"Point"},"id":"cave-osm-node-11718272719","properties":{"name":"Sandgjøtten","osm_ref":"node-11718272719","source":"OpenStreetMap"},"type":"Feature"},{"geometry":{"coordinates":[4.9832169999999998,60.239283999999998],"type":"Point"},"id":"cave-osm-node-11831676882","properties":{"name":"Bekhilderen","osm_ref":"node-11831676882","source":"OpenStreetMap"},"type":"Feature"},{"geometry":{"coordinates":[8.2689660000000007,63.507303999999998],"type":"Point"},"id":"cave-osm-node-11898530725","properties":{"name":"Hule","osm_ref":"node-11898530725","source":"OpenStreetMap"},"type":"Feature"},{"geometry":{"coordinates":[8.0278109999999998,63.319121000000003],"type":"Point"},"id":"cave-osm-node-11905246475","properties":{"name":"Johannes Blank røverhola","osm_ref":"node-11905246475","source":"OpenStreetMap"},"type":"Feature"},{"geometry":{"coordinates":[10.864248999999999,59.895587999999996],"type":"Point"},"id":"cave-osm-node-11922112000","properties":{"name":"Hule","osm_ref":"node-11922112000","source":"OpenStreetMap"},"type":"Feature"},{"geometry":{"coordinates":[5.7910339999999998,58.546895999999997],"type":"Point"},"id":"cave-osm-node-11926243967","properties":{"name":"Hule","osm_ref":"node-11926243967","source":"OpenStreetMap"},"type":"Feature"},{"geometry":{"coordinates":[17.167052999999999,69.411580000000001],"type":"Point"},"id":"cave-osm-node-11999097370","properties":{"name":"Hule","osm_ref":"node-11999097370","source":"OpenStreetMap"},"type":"Feature"},{"geometry":{"coordinates":[10.349409,63.420462000000001],"type":"Point"},"id":"cave-osm-node-1200863507","properties":{"description":"Small cave","name":"Hule","osm_ref":"node-1200863507","source":"OpenStreetMap"},"type":"Feature"},{"geometry":{"coordinates":[10.736333,64.516740999999996],"type":"Point"},"id":"cave-osm-node-12013020040","properties":{"name":"Håkkahelleren","osm_ref":"node-12013020040","source":"OpenStreetMap"},"type":"Feature"},{"geometry":{"coordinates":[5.243233,60.312345999999998],"type":"Point"},"id":"cave-osm-node-12054341633","properties":{"name":"Hule","osm_ref":"node-12054341633","source":"OpenStreetMap"},"type":"Feature"},{"geometry":{"coordinates":[5.2454479999999997,60.312683],"type":"Point"},"id":"cave-osm-node-12054341637","properties":{"name":"Hule","osm_ref":"node-12054341637","source":"OpenStreetMap"},"type":"Feature"},{"geometry":{"coordinates":[7.2081989999999996,62.105826],"type":"Point"},"id":"cave-osm-node-12093136884","properties":{"name":"Hule","osm_ref":"node-12093136884","source":"OpenStreetMap"},"type":"Feature"},{"geometry":{"coordinates":[7.6917030000000004,62.563547999999997],"type":"Point"},"id":"cave-osm-node-12153014140","properties":{"description":"Locked by a gate.","name":"Hule","osm_ref":"node-12153014140","source":"OpenStreetMap"},"type":"Feature"},{"geometry":{"coordinates":[5.6148350000000002,59.081491999999997],"type":"Point"},"id":"cave-osm-node-12299463653","properties":{"name":"Svartahålå","osm_ref":"node-12299463653","source":"OpenStreetMap"},"type":"Feature"},{"geometry":{"coordinates":[15.497766,67.259333999999996],"type":"Point"},"id":"cave-osm-node-12356219170","properties":{"name":"Kristihola","osm_ref":"node-12356219170","source":"OpenStreetMap"},"type":"Feature"},{"geometry":{"coordinates":[5.8686590000000001,60.023338000000003],"type":"Point"},"id":"cave-osm-node-1250501486","properties":{"name":"Hedlebergshidleren","osm_ref":"node-1250501486","source":"OpenStreetMap"},"type":"Feature"},{"geometry":{"coordinates":[10.828287,59.174512],"type":"Point"},"id":"cave-osm-node-12505187777","properties":{"name":"Hule","osm_ref":"node-12505187777","source":"OpenStreetMap"},"type":"Feature"},{"geometry":{"coordinates":[10.827323,59.174964000000003],"type":"Point"},"id":"cave-osm-node-12507463973","properties":{"name":"Hule","osm_ref":"node-12507463973","source":"OpenStreetMap"},"type":"Feature"},{"geometry":{"coordinates":[10.827188,59.175528],"type":"Point"},"id":"cave-osm-node-12507463974","properties":{"name":"Hule","osm_ref":"node-12507463974","source":"OpenStreetMap"},"type":"Feature"},{"geometry":{"coordinates":[10.842572000000001,59.171872],"type":"Point"},"id":"cave-osm-node-12507544148","properties":{"description":"Adgang: privat","name":"Hule","osm_ref":"node-12507544148","source":"OpenStreetMap"},"type":"Feature"},{"geometry":{"coordinates":[6.8003600000000004,58.264237999999999],"type":"Point"},"id":"cave-osm-node-12896585901","properties":{"name":"Hule","osm_ref":"node-12896585901","source":"OpenStreetMap"},"type":"Feature"},{"geometry":{"coordinates":[6.2126789999999996,58.832591000000001],"type":"Point"},"id":"cave-osm-node-12899129741","properties":{"name":"Bjødnahiet","osm_ref":"node-12899129741","source":"OpenStreetMap"},"type":"Feature"},{"geometry":{"coordinates":[6.3458930000000002,62.308562999999999],"type":"Point"},"id":"cave-osm-node-12927928775","properties":{"name":"Holet","osm_ref":"node-12927928775","source":"OpenStreetMap"},"type":"Feature"},{"geometry":{"coordinates":[11.560383,64.739438000000007],"type":"Point"},"id":"cave-osm-node-12952720645","properties":{"name":"Hule","osm_ref":"node-12952720645","source":"OpenStreetMap"},"type":"Feature"},{"geometry":{"coordinates":[8.0260370000000005,58.081702],"type":"Point"},"id":"cave-osm-node-12965905412","properties":{"name":"Hule","osm_ref":"node-12965905412","source":"OpenStreetMap"},"type":"Feature"},{"geometry":{"coordinates":[8.003558,58.067605],"type":"Point"},"id":"cave-osm-node-12965977752","properties":{"name":"Kjetil Rasks ur","osm_ref":"node-12965977752","source":"OpenStreetMap"},"type":"Feature"},{"geometry":{"coordinates":[7.8672180000000003,58.598320000000001],"type":"Point"},"id":"cave-osm-node-12970187817","properties":{"name":"Hule","osm_ref":"node-12970187817","source":"OpenStreetMap"},"type":"Feature"},{"geometry":{"coordinates":[7.8690740000000003,58.596093000000003],"type":"Point"},"id":"cave-osm-node-12971326750","properties":{"name":"Hule","osm_ref":"node-12971326750","source":"OpenStreetMap"},"type":"Feature"},{"geometry":{"coordinates":[8.9850329999999996,59.365575999999997],"type":"Point"},"id":"cave-osm-node-13013388028","properties":{"name":"Svarttjønn hola","osm_ref":"node-13013388028","source":"OpenStreetMap"},"type":"Feature"},{"geometry":{"coordinates":[6.7166009999999998,61.882809999999999],"type":"Point"},"id":"cave-osm-node-13074996410","properties":{"name":"Hule","osm_ref":"node-13074996410","source":"OpenStreetMap"},"type":"Feature"},{"geometry":{"coordinates":[14.122005,66.784712999999996],"type":"Point"},"id":"cave-osm-node-13093008191","properties":{"name":"Hule","osm_ref":"node-13093008191","source":"OpenStreetMap"},"type":"Feature"},{"geometry":{"coordinates":[14.132374,66.780962000000002],"type":"Point"},"id":"cave-osm-node-13093008192","properties":{"name":"Hule","osm_ref":"node-13093008192","source":"OpenStreetMap"},"type":"Feature"},{"geometry":{"coordinates":[17.412883999999998,69.522409999999994],"type":"Point"},"id":"cave-osm-node-13177196926","properties":{"name":"Russehola","osm_ref":"node-13177196926","source":"OpenStreetMap"},"type":"Feature"},{"geometry":{"coordinates":[10.384795,59.849639000000003],"type":"Point"},"id":"cave-osm-node-13202260375","properties":{"name":"Bjørnehiet","osm_ref":"node-13202260375","source":"OpenStreetMap"},"type":"Feature"},{"geometry":{"coordinates":[10.374561999999999,59.851194],"type":"Point"},"id":"cave-osm-node-13202279392","properties":{"name":"Krystallhula","osm_ref":"node-13202279392","source":"OpenStreetMap"},"type":"Feature"},{"geometry":{"coordinates":[10.805059,61.114806999999999],"type":"Point"},"id":"cave-osm-node-13413122302","properties":{"name":"Tjuvolahula","osm_ref":"node-13413122302","source":"OpenStreetMap"},"type":"Feature"},{"geometry":{"coordinates":[9.3091000000000008,58.834218],"type":"Point"},"id":"cave-osm-node-1342730920","properties":{"name":"Hule","osm_ref":"node-1342730920","source":"OpenStreetMap"},"type":"Feature"},{"geometry":{"coordinates":[18.107164999999998,68.533365000000003],"type":"Point"},"id":"cave-osm-node-13502372883","properties":{"name":"Hule","osm_ref":"node-13502372883","source":"OpenStreetMap"},"type":"Feature"},{"geometry":{"coordinates":[10.731443000000001,59.713363000000001],"type":"Point"},"id":"cave-osm-node-1360541434","properties":{"name":"Gruven","osm_ref":"node-1360541434","source":"OpenStreetMap"},"type":"Feature"},{"geometry":{"coordinates":[7.2678050000000001,62.888792000000002],"type":"Point"},"id":"cave-osm-node-1380788875","properties":{"name":"Trollkyrkja","osm_ref":"node-1380788875","source":"OpenStreetMap"},"type":"Feature"},{"geometry":{"coordinates":[5.747719,58.975321999999998],"type":"Point"},"id":"cave-osm-node-13845134599","properties":{"description":"Smaller cave. Grimey. Not worth any visit.","name":"Grashålå","osm_ref":"node-13845134599","source":"OpenStreetMap"},"type":"Feature"},{"geometry":{"coordinates":[10.729191999999999,59.898285000000001],"type":"Point"},"id":"cave-osm-node-13884398103","properties":{"name":"Hule","osm_ref":"node-13884398103","source":"OpenStreetMap"},"type":"Feature"},{"geometry":{"coordinates":[10.729502999999999,59.898367999999998],"type":"Point"},"id":"cave-osm-node-13884398106","properties":{"name":"Hule","osm_ref":"node-13884398106","source":"OpenStreetMap"},"type":"Feature"},{"geometry":{"coordinates":[10.426938,62.549266000000003],"type":"Point"},"id":"cave-osm-node-1388675771","properties":{"name":"Gabe Gottes","osm_ref":"node-1388675771","source":"OpenStreetMap"},"type":"Feature"},{"geometry":{"coordinates":[10.423491,62.555281000000001],"type":"Point"},"id":"cave-osm-node-1388675772","properties":{"name":"Nedre Setervangsgruve","osm_ref":"node-1388675772","source":"OpenStreetMap"},"type":"Feature"},{"geometry":{"coordinates":[10.420973,62.554873999999998],"type":"Point"},"id":"cave-osm-node-1388675874","properties":{"name":"Hule","osm_ref":"node-1388675874","source":"OpenStreetMap"},"type":"Feature"},{"geometry":{"coordinates":[10.422724000000001,62.555129000000001],"type":"Point"},"id":"cave-osm-node-1388675876","properties":{"name":"Hule","osm_ref":"node-1388675876","source":"OpenStreetMap"},"type":"Feature"},{"geometry":{"coordinates":[10.421296,62.555038000000003],"type":"Point"},"id":"cave-osm-node-1388675888","properties":{"name":"Øvre Setervangsgruve","osm_ref":"node-1388675888","source":"OpenStreetMap"},"type":"Feature"},{"geometry":{"coordinates":[7.1550669999999998,62.744979999999998],"type":"Point"},"id":"cave-osm-node-13995119341","properties":{"name":"Hule","osm_ref":"node-13995119341","source":"OpenStreetMap"},"type":"Feature"},{"geometry":{"coordinates":[5.6629230000000002,61.812409000000002],"type":"Point"},"id":"cave-osm-node-13995119840","properties":{"description":"Adgang: privat","name":"Hule","osm_ref":"node-13995119840","source":"OpenStreetMap"},"type":"Feature"},{"geometry":{"coordinates":[5.6626050000000001,61.812116000000003],"type":"Point"},"id":"cave-osm-node-13995119841","properties":{"description":"Adgang: privat","name":"Hule","osm_ref":"node-13995119841","source":"OpenStreetMap"},"type":"Feature"},{"geometry":{"coordinates":[6.1712910000000001,62.474947],"type":"Point"},"id":"cave-osm-node-14067087457","properties":{"name":"Hule","osm_ref":"node-14067087457","source":"OpenStreetMap"},"type":"Feature"},{"geometry":{"coordinates":[12.089487,65.396998999999994],"type":"Point"},"id":"cave-osm-node-1411991350","properties":{"name":"Torghatthullet","osm_ref":"node-1411991350","source":"OpenStreetMap"},"type":"Feature"},{"geometry":{"coordinates":[7.2679669999999996,62.889071000000001],"type":"Point"},"id":"cave-osm-node-1435802249","properties":{"name":"Trollkyrkja","osm_ref":"node-1435802249","source":"OpenStreetMap"},"type":"Feature"},{"geometry":{"coordinates":[7.2674659999999998,62.889409000000001],"type":"Point"},"id":"cave-osm-node-1435802321","properties":{"name":"Hule","osm_ref":"node-1435802321","source":"OpenStreetMap"},"type":"Feature"},{"geometry":{"coordinates":[9.3357279999999996,58.831159],"type":"Point"},"id":"cave-osm-node-1443842758","properties":{"name":"Lågåsmyrhelleren","osm_ref":"node-1443842758","source":"OpenStreetMap"},"type":"Feature"},{"geometry":{"coordinates":[10.335459999999999,59.979278999999998],"type":"Point"},"id":"cave-osm-node-1500344108","properties":{"name":"Hule","osm_ref":"node-1500344108","source":"OpenStreetMap"},"type":"Feature"},{"geometry":{"coordinates":[11.024834,59.921463000000003],"type":"Point"},"id":"cave-osm-node-1730361486","properties":{"name":"Milorghula","osm_ref":"node-1730361486","source":"OpenStreetMap"},"type":"Feature"},{"geometry":{"coordinates":[10.857879000000001,59.901577000000003],"type":"Point"},"id":"cave-osm-node-1737831575","properties":{"name":"Kjerringhula","osm_ref":"node-1737831575","source":"OpenStreetMap"},"type":"Feature"},{"geometry":{"coordinates":[9.7616019999999999,61.595038000000002],"type":"Point"},"id":"cave-osm-node-1758977854","properties":{"name":"Tom Sawyers hule","osm_ref":"node-1758977854","source":"OpenStreetMap"},"type":"Feature"},{"geometry":{"coordinates":[8.5362559999999998,63.374076000000002],"type":"Point"},"id":"cave-osm-node-1777300194","properties":{"name":"Jutulholet","osm_ref":"node-1777300194","source":"OpenStreetMap"},"type":"Feature"},{"geometry":{"coordinates":[10.354077999999999,63.421799],"type":"Point"},"id":"cave-osm-node-1813228062","properties":{"description":"Small cave","name":"Hule","osm_ref":"node-1813228062","source":"OpenStreetMap"},"type":"Feature"},{"geometry":{"coordinates":[12.413969,65.764476000000002],"type":"Point"},"id":"cave-osm-node-1815599137","properties":{"name":"Torjeråskjerka","osm_ref":"node-1815599137","source":"OpenStreetMap"},"type":"Feature"},{"geometry":{"coordinates":[6.5284550000000001,62.644277000000002],"type":"Point"},"id":"cave-osm-node-1817401011","properties":{"name":"Franskhellaren","osm_ref":"node-1817401011","source":"OpenStreetMap"},"type":"Feature"},{"geometry":{"coordinates":[9.4092319999999994,58.869472000000002],"type":"Point"},"id":"cave-osm-node-1825830088","properties":{"name":"Hule","osm_ref":"node-1825830088","source":"OpenStreetMap"},"type":"Feature"},{"geometry":{"coordinates":[9.4093400000000003,58.869551000000001],"type":"Point"},"id":"cave-osm-node-1825830098","properties":{"name":"Hule","osm_ref":"node-1825830098","source":"OpenStreetMap"},"type":"Feature"},{"geometry":{"coordinates":[6.621912,58.162371999999998],"type":"Point"},"id":"cave-osm-node-1835092077","properties":{"name":"Hule","osm_ref":"node-1835092077","source":"OpenStreetMap"},"type":"Feature"},{"geometry":{"coordinates":[13.219283000000001,66.806650000000005],"type":"Point"},"id":"cave-osm-node-1847620330","properties":{"name":"Bolgbørra","osm_ref":"node-1847620330","source":"OpenStreetMap"},"type":"Feature"},{"geometry":{"coordinates":[6.6585049999999999,58.940511000000001],"type":"Point"},"id":"cave-osm-node-1964079428","properties":{"name":"Mohidler","osm_ref":"node-1964079428","source":"OpenStreetMap"},"type":"Feature"},{"geometry":{"coordinates":[10.414507,60.121496],"type":"Point"},"id":"cave-osm-node-2090406984","properties":{"name":"Helleramshula","osm_ref":"node-2090406984","source":"OpenStreetMap"},"type":"Feature"},{"geometry":{"coordinates":[14.412107000000001,67.270049999999998],"type":"Point"},"id":"cave-osm-node-2208432120","properties":{"name":"Hule","osm_ref":"node-2208432120","source":"OpenStreetMap"},"type":"Feature"},{"geometry":{"coordinates":[10.498637,60.134233999999999],"type":"Point"},"id":"cave-osm-node-2291810229","properties":{"name":"Fleske-Lars' sommerhule","osm_ref":"node-2291810229","source":"OpenStreetMap"},"type":"Feature"},{"geometry":{"coordinates":[10.691103999999999,63.323149999999998],"type":"Point"},"id":"cave-osm-node-2301003574","properties":{"description":"Med bålplass","name":"Finnpålstuggu","osm_ref":"node-2301003574","source":"OpenStreetMap"},"type":"Feature"},{"geometry":{"coordinates":[9.2994310000000002,58.830846999999999],"type":"Point"},"id":"cave-osm-node-2319418350","properties":{"name":"Hule","osm_ref":"node-2319418350","source":"OpenStreetMap"},"type":"Feature"},{"geometry":{"coordinates":[10.901497000000001,59.981779000000003],"type":"Point"},"id":"cave-osm-node-2385575371","properties":{"name":"Røverhulene","osm_ref":"node-2385575371","source":"OpenStreetMap"},"type":"Feature"},{"geometry":{"coordinates":[10.796058,59.977558000000002],"type":"Point"},"id":"cave-osm-node-2385575372","properties":{"name":"Tolvmannshula","osm_ref":"node-2385575372","source":"OpenStreetMap"},"type":"Feature"},{"geometry":{"coordinates":[10.806388,59.980601999999998],"type":"Point"},"id":"cave-osm-node-2385575373","properties":{"name":"Wernerhula","osm_ref":"node-2385575373","source":"OpenStreetMap"},"type":"Feature"},{"geometry":{"coordinates":[10.806754,59.961972000000003],"type":"Point"},"id":"cave-osm-node-2385575481","properties":{"name":"Hule","osm_ref":"node-2385575481","source":"OpenStreetMap"},"type":"Feature"},{"geometry":{"coordinates":[11.012224,60.061765999999999],"type":"Point"},"id":"cave-osm-node-2547404708","properties":{"name":"Ulvedalshula","osm_ref":"node-2547404708","source":"OpenStreetMap"},"type":"Feature"},{"geometry":{"coordinates":[11.721221,59.045363999999999],"type":"Point"},"id":"cave-osm-node-2597742077","properties":{"name":"Tomte-Elias hule","osm_ref":"node-2597742077","source":"OpenStreetMap"},"type":"Feature"},{"geometry":{"coordinates":[14.72911,66.280056000000002],"type":"Point"},"id":"cave-osm-node-2667827330","properties":{"name":"Pluragrotta","osm_ref":"node-2667827330","source":"OpenStreetMap"},"type":"Feature"},{"geometry":{"coordinates":[14.734201000000001,66.272630000000007],"type":"Point"},"id":"cave-osm-node-2667827332","properties":{"name":"Steinugleflåget","osm_ref":"node-2667827332","source":"OpenStreetMap"},"type":"Feature"},{"geometry":{"coordinates":[6.1044559999999999,62.519033999999998],"type":"Point"},"id":"cave-osm-node-276579864","properties":{"name":"Skjonghellaren","osm_ref":"node-276579864","source":"OpenStreetMap"},"type":"Feature"},{"geometry":{"coordinates":[12.092275000000001,65.398216000000005],"type":"Point"},"id":"cave-osm-node-286847997","properties":{"name":"Hule","osm_ref":"node-286847997","source":"OpenStreetMap"},"type":"Feature"},{"geometry":{"coordinates":[9.3089410000000008,58.834274000000001],"type":"Point"},"id":"cave-osm-node-2908349293","properties":{"name":"Hule","osm_ref":"node-2908349293","source":"OpenStreetMap"},"type":"Feature"},{"geometry":{"coordinates":[9.3087599999999995,58.834291999999998],"type":"Point"},"id":"cave-osm-node-2908350003","properties":{"name":"Hule","osm_ref":"node-2908350003","source":"OpenStreetMap"},"type":"Feature"},{"geometry":{"coordinates":[6.6591399999999998,58.176676999999998],"type":"Point"},"id":"cave-osm-node-2967592142","properties":{"name":"Gjest Bårdssons hole","osm_ref":"node-2967592142","source":"OpenStreetMap"},"type":"Feature"},{"geometry":{"coordinates":[10.837263999999999,60.028789000000003],"type":"Point"},"id":"cave-osm-node-2974479485","properties":{"name":"Catos gryte","osm_ref":"node-2974479485","source":"OpenStreetMap"},"type":"Feature"},{"geometry":{"coordinates":[6.1509830000000001,62.618865999999997],"type":"Point"},"id":"cave-osm-node-3022134342","properties":{"name":"Rønstadhellaren","osm_ref":"node-3022134342","source":"OpenStreetMap"},"type":"Feature"},{"geometry":{"coordinates":[8.7504170000000006,60.970264],"type":"Point"},"id":"cave-osm-node-3037146093","properties":{"name":"Hulabakkhula","osm_ref":"node-3037146093","source":"OpenStreetMap"},"type":"Feature"},{"geometry":{"coordinates":[9.9786549999999998,60.329206999999997],"type":"Point"},"id":"cave-osm-node-3058670582","properties":{"name":"Tjuvenborghula","osm_ref":"node-3058670582","source":"OpenStreetMap"},"type":"Feature"},{"geometry":{"coordinates":[10.352698999999999,63.430613000000001],"type":"Point"},"id":"cave-osm-node-3077812234","properties":{"name":"Hule","osm_ref":"node-3077812234","source":"OpenStreetMap"},"type":"Feature"},{"geometry":{"coordinates":[10.978533000000001,59.264209999999999],"type":"Point"},"id":"cave-osm-node-308230811","properties":{"name":"Hattehulene","osm_ref":"node-308230811","source":"OpenStreetMap"},"type":"Feature"},{"geometry":{"coordinates":[10.866035999999999,59.969344999999997],"type":"Point"},"id":"cave-osm-node-3106126304","properties":{"name":"Hule","osm_ref":"node-3106126304","source":"OpenStreetMap"},"type":"Feature"},{"geometry":{"coordinates":[15.186261,66.939459999999997],"type":"Point"},"id":"cave-osm-node-3127731880","properties":{"name":"Hule","osm_ref":"node-3127731880","source":"OpenStreetMap"},"type":"Feature"},{"geometry":{"coordinates":[10.901638,59.981664000000002],"type":"Point"},"id":"cave-osm-node-3187095585","properties":{"name":"Røverhulene","osm_ref":"node-3187095585","source":"OpenStreetMap"},"type":"Feature"},{"geometry":{"coordinates":[10.403197,59.608275999999996],"type":"Point"},"id":"cave-osm-node-324491464","properties":{"name":"Tyskerhula","osm_ref":"node-324491464","source":"OpenStreetMap"},"type":"Feature"},{"geometry":{"coordinates":[8.1175990000000002,58.239812999999998],"type":"Point"},"id":"cave-osm-node-3372977527","properties":{"name":"Ole Høylands hule","osm_ref":"node-3372977527","source":"OpenStreetMap"},"type":"Feature"},{"geometry":{"coordinates":[7.7046890000000001,58.051310999999998],"type":"Point"},"id":"cave-osm-node-3379724311","properties":{"name":"Hule","osm_ref":"node-3379724311","source":"OpenStreetMap"},"type":"Feature"},{"geometry":{"coordinates":[7.705152,58.050297999999998],"type":"Point"},"id":"cave-osm-node-3379724312","properties":{"name":"Hule","osm_ref":"node-3379724312","source":"OpenStreetMap"},"type":"Feature"},{"geometry":{"coordinates":[7.7033240000000003,58.050694],"type":"Point"},"id":"cave-osm-node-3379724313","properties":{"name":"Hule","osm_ref":"node-3379724313","source":"OpenStreetMap"},"type":"Feature"},{"geometry":{"coordinates":[7.7026479999999999,58.050975000000001],"type":"Point"},"id":"cave-osm-node-3379724361","properties":{"name":"Hule","osm_ref":"node-3379724361","source":"OpenStreetMap"},"type":"Feature"},{"geometry":{"coordinates":[7.7025639999999997,58.050674999999998],"type":"Point"},"id":"cave-osm-node-3380514403","properties":{"name":"Hule","osm_ref":"node-3380514403","source":"OpenStreetMap"},"type":"Feature"},{"geometry":{"coordinates":[5.101375,60.344763],"type":"Point"},"id":"cave-osm-node-3468557500","properties":{"name":"Hule","osm_ref":"node-3468557500","source":"OpenStreetMap"},"type":"Feature"},{"geometry":{"coordinates":[5.335483,60.349556999999997],"type":"Point"},"id":"cave-osm-node-3520145461","properties":{"name":"Hule","osm_ref":"node-3520145461","source":"OpenStreetMap"},"type":"Feature"},{"geometry":{"coordinates":[7.2810379999999997,59.574064],"type":"Point"},"id":"cave-osm-node-356340668","properties":{"name":"Breive Pumpstasjon","osm_ref":"node-356340668","source":"OpenStreetMap"},"type":"Feature"},{"geometry":{"coordinates":[5.3606220000000002,60.215789999999998],"type":"Point"},"id":"cave-osm-node-3625699913","properties":{"name":"Lysøygrotta","osm_ref":"node-3625699913","source":"OpenStreetMap"},"type":"Feature"},{"geometry":{"coordinates":[10.710289,63.433104],"type":"Point"},"id":"cave-osm-node-3676732654","properties":{"name":"Hule","osm_ref":"node-3676732654","source":"OpenStreetMap"},"type":"Feature"},{"geometry":{"coordinates":[10.710547,63.433287999999997],"type":"Point"},"id":"cave-osm-node-3676732674","properties":{"name":"Hule","osm_ref":"node-3676732674","source":"OpenStreetMap"},"type":"Feature"},{"geometry":{"coordinates":[14.253928999999999,66.421467000000007],"type":"Point"},"id":"cave-osm-node-3685871749","properties":{"name":"Setergrotta","osm_ref":"node-3685871749","source":"OpenStreetMap"},"type":"Feature"},{"geometry":{"coordinates":[14.261919000000001,66.415492999999998],"type":"Point"},"id":"cave-osm-node-3685871909","properties":{"name":"Grønligrotta","osm_ref":"node-3685871909","source":"OpenStreetMap"},"type":"Feature"},{"geometry":{"coordinates":[10.405013,59.272688000000002],"type":"Point"},"id":"cave-osm-node-3692730354","properties":{"name":"Bunker","osm_ref":"node-3692730354","source":"OpenStreetMap"},"type":"Feature"},{"geometry":{"coordinates":[6.8742789999999996,58.214491000000002],"type":"Point"},"id":"cave-osm-node-3721594079","properties":{"name":"Poddelopthola Nord","osm_ref":"node-3721594079","source":"OpenStreetMap"},"type":"Feature"},{"geometry":{"coordinates":[10.031585,59.771203999999997],"type":"Point"},"id":"cave-osm-node-3742320448","properties":{"name":"Svarttjernsgrotta","osm_ref":"node-3742320448","source":"OpenStreetMap"},"type":"Feature"},{"geometry":{"coordinates":[10.464333,59.938927999999997],"type":"Point"},"id":"cave-osm-node-3830654791","properties":{"name":"Busopphola","osm_ref":"node-3830654791","source":"OpenStreetMap"},"type":"Feature"},{"geometry":{"coordinates":[15.427550999999999,66.819941],"type":"Point"},"id":"cave-osm-node-3917687382","properties":{"name":"Hule","osm_ref":"node-3917687382","source":"OpenStreetMap"},"type":"Feature"},{"geometry":{"coordinates":[14.644633000000001,66.878686000000002],"type":"Point"},"id":"cave-osm-node-3958131410","properties":{"name":"Rønnågrotten","osm_ref":"node-3958131410","source":"OpenStreetMap"},"type":"Feature"},{"geometry":{"coordinates":[15.573608999999999,78.181726999999995],"type":"Point"},"id":"cave-osm-node-4151946777","properties":{"name":"Hule","osm_ref":"node-4151946777","source":"OpenStreetMap"},"type":"Feature"},{"geometry":{"coordinates":[15.470078000000001,78.173248000000001],"type":"Point"},"id":"cave-osm-node-4152009620","properties":{"name":"Isgrotta på Longyearbreen","osm_ref":"node-4152009620","source":"OpenStreetMap"},"type":"Feature"},{"geometry":{"coordinates":[13.418934,68.090586999999999],"type":"Point"},"id":"cave-osm-node-4278610009","properties":{"name":"Storbathellaren","osm_ref":"node-4278610009","source":"OpenStreetMap"},"type":"Feature"},{"geometry":{"coordinates":[10.342890000000001,59.997703999999999],"type":"Point"},"id":"cave-osm-node-4325364853","properties":{"name":"Finnegrotta","osm_ref":"node-4325364853","source":"OpenStreetMap"},"type":"Feature"},{"geometry":{"coordinates":[8.2604399999999991,58.483029999999999],"type":"Point"},"id":"cave-osm-node-4325893960","properties":{"name":"Råmundshelleren","osm_ref":"node-4325893960","source":"OpenStreetMap"},"type":"Feature"},{"geometry":{"coordinates":[9.9788499999999996,64.063006000000001],"type":"Point"},"id":"cave-osm-node-4367876034","properties":{"name":"Iverhallen","osm_ref":"node-4367876034","source":"OpenStreetMap"},"type":"Feature"},{"geometry":{"coordinates":[9.9798200000000001,64.072727],"type":"Point"},"id":"cave-osm-node-4367876035","properties":{"name":"Nyphogget","osm_ref":"node-4367876035","source":"OpenStreetMap"},"type":"Feature"},{"geometry":{"coordinates":[18.406457,69.734459999999999],"type":"Point"},"id":"cave-osm-node-4459461700","properties":{"name":"Heller","osm_ref":"node-4459461700","source":"OpenStreetMap"},"type":"Feature"},{"geometry":{"coordinates":[10.054923,64.080032000000003],"type":"Point"},"id":"cave-osm-node-4551295881","properties":{"name":"Harbakhula","osm_ref":"node-4551295881","source":"OpenStreetMap"},"type":"Feature"},{"geometry":{"coordinates":[10.747674999999999,59.465167000000001],"type":"Point"},"id":"cave-osm-node-4677845463","properties":{"name":"Våpenhula","osm_ref":"node-4677845463","source":"OpenStreetMap"},"type":"Feature"},{"geometry":{"coordinates":[5.4861199999999997,60.539495000000002],"type":"Point"},"id":"cave-osm-node-4844517901","properties":{"name":"Hule","osm_ref":"node-4844517901","source":"OpenStreetMap"},"type":"Feature"},{"geometry":{"coordinates":[5.4860740000000003,60.539316999999997],"type":"Point"},"id":"cave-osm-node-4844517908","properties":{"name":"Hule","osm_ref":"node-4844517908","source":"OpenStreetMap"},"type":"Feature"},{"geometry":{"coordinates":[5.4888110000000001,60.537958000000003],"type":"Point"},"id":"cave-osm-node-4844518083","properties":{"name":"Hule","osm_ref":"node-4844518083","source":"OpenStreetMap"},"type":"Feature"},{"geometry":{"coordinates":[5.2603340000000003,60.493161999999998],"type":"Point"},"id":"cave-osm-node-4904016145","properties":{"name":"Sigurd Slembe hola","osm_ref":"node-4904016145","source":"OpenStreetMap"},"type":"Feature"},{"geometry":{"coordinates":[7.803166,61.045856000000001],"type":"Point"},"id":"cave-osm-node-4935955596","properties":{"name":"Smihelleren","osm_ref":"node-4935955596","source":"OpenStreetMap"},"type":"Feature"},{"geometry":{"coordinates":[9.5484770000000001,59.202339000000002],"type":"Point"},"id":"cave-osm-node-497482392","properties":{"name":"Hetia Gruva","osm_ref":"node-497482392","source":"OpenStreetMap"},"type":"Feature"},{"geometry":{"coordinates":[9.5168180000000007,59.261386999999999],"type":"Point"},"id":"cave-osm-node-499697685","properties":{"name":"Bruberggruva","osm_ref":"node-499697685","source":"OpenStreetMap"},"type":"Feature"},{"geometry":{"coordinates":[14.71529,67.592820000000003],"type":"Point"},"id":"cave-osm-node-5074948012","properties":{"name":"Hule","osm_ref":"node-5074948012","source":"OpenStreetMap"},"type":"Feature"},{"geometry":{"coordinates":[10.457867,63.454644000000002],"type":"Point"},"id":"cave-osm-node-5117581685","properties":{"name":"Hule","osm_ref":"node-5117581685","source":"OpenStreetMap"},"type":"Feature"},{"geometry":{"coordinates":[9.5338639999999995,59.242072999999998],"type":"Point"},"id":"cave-osm-node-5157980162","properties":{"description":"Adgang: stengt","name":"Breigangen","osm_ref":"node-5157980162","source":"OpenStreetMap"},"type":"Feature"},{"geometry":{"coordinates":[9.5319450000000003,59.252555999999998],"type":"Point"},"id":"cave-osm-node-5157984390","properties":{"name":"Glasergruva","osm_ref":"node-5157984390","source":"OpenStreetMap"},"type":"Feature"},{"geometry":{"coordinates":[6.9110500000000004,58.065311000000001],"type":"Point"},"id":"cave-osm-node-5273873367","properties":{"name":"Trollkirka på Skarvøy","osm_ref":"node-5273873367","source":"OpenStreetMap"},"type":"Feature"},{"geometry":{"coordinates":[6.9937529999999999,58.006610999999999],"type":"Point"},"id":"cave-osm-node-5291911755","properties":{"name":"Kapteinhola","osm_ref":"node-5291911755","source":"OpenStreetMap"},"type":"Feature"},{"geometry":{"coordinates":[5.6124470000000004,58.929433000000003],"type":"Point"},"id":"cave-osm-node-5292115220","properties":{"name":"Hule","osm_ref":"node-5292115220","source":"OpenStreetMap"},"type":"Feature"},{"geometry":{"coordinates":[10.406617000000001,61.163958999999998],"type":"Point"},"id":"cave-osm-node-5313637616","properties":{"name":"Hule","osm_ref":"node-5313637616","source":"OpenStreetMap"},"type":"Feature"},{"geometry":{"coordinates":[10.418386999999999,61.153812000000002],"type":"Point"},"id":"cave-osm-node-5313637617","properties":{"name":"Hule","osm_ref":"node-5313637617","source":"OpenStreetMap"},"type":"Feature"},{"geometry":{"coordinates":[6.2770489999999999,62.533946999999998],"type":"Point"},"id":"cave-osm-node-5382153500","properties":{"name":"Hamnsundhellaren","osm_ref":"node-5382153500","source":"OpenStreetMap"},"type":"Feature"},{"geometry":{"coordinates":[8.9602360000000001,63.046328000000003],"type":"Point"},"id":"cave-osm-node-5538402747","properties":{"name":"Limåskjerka","osm_ref":"node-5538402747","source":"OpenStreetMap"},"type":"Feature"},{"geometry":{"coordinates":[12.800058,66.535847000000004],"type":"Point"},"id":"cave-osm-node-5563646303","properties":{"name":"Hestmonholet","osm_ref":"node-5563646303","source":"OpenStreetMap"},"type":"Feature"},{"geometry":{"coordinates":[12.818723,67.841239000000002],"type":"Point"},"id":"cave-osm-node-5627431834","properties":{"name":"Refsvikhula","osm_ref":"node-5627431834","source":"OpenStreetMap"},"type":"Feature"},{"geometry":{"coordinates":[5.5966649999999998,58.987293999999999],"type":"Point"},"id":"cave-osm-node-569632404","properties":{"name":"Svarthola\/Vistehålå","osm_ref":"node-569632404","source":"OpenStreetMap"},"type":"Feature"},{"geometry":{"coordinates":[4.9910100000000002,60.561684],"type":"Point"},"id":"cave-osm-node-5700376635","properties":{"name":"Hule","osm_ref":"node-5700376635","source":"OpenStreetMap"},"type":"Feature"},{"geometry":{"coordinates":[9.6719799999999996,59.594931000000003],"type":"Point"},"id":"cave-osm-node-5737152987","properties":{"name":"Hule","osm_ref":"node-5737152987","source":"OpenStreetMap"},"type":"Feature"},{"geometry":{"coordinates":[9.6717700000000004,59.595529999999997],"type":"Point"},"id":"cave-osm-node-5737152992","properties":{"name":"Hule","osm_ref":"node-5737152992","source":"OpenStreetMap"},"type":"Feature"},{"geometry":{"coordinates":[9.6713749999999994,59.595759000000001],"type":"Point"},"id":"cave-osm-node-5737152993","properties":{"name":"Hule","osm_ref":"node-5737152993","source":"OpenStreetMap"},"type":"Feature"},{"geometry":{"coordinates":[8.5502699999999994,63.359442000000001],"type":"Point"},"id":"cave-osm-node-5813380337","properties":{"name":"Kvitflekken","osm_ref":"node-5813380337","source":"OpenStreetMap"},"type":"Feature"},{"geometry":{"coordinates":[15.573782,78.181511999999998],"type":"Point"},"id":"cave-osm-node-5823114703","properties":{"name":"Hule","osm_ref":"node-5823114703","source":"OpenStreetMap"},"type":"Feature"},{"geometry":{"coordinates":[7.8126680000000004,58.688507000000001],"type":"Point"},"id":"cave-osm-node-5873904585","properties":{"description":"30m deep natural cave","name":"Tjovhola","osm_ref":"node-5873904585","source":"OpenStreetMap"},"type":"Feature"},{"geometry":{"coordinates":[9.9368499999999997,64.062554000000006],"type":"Point"},"id":"cave-osm-node-5895157973","properties":{"name":"Kjølna","osm_ref":"node-5895157973","source":"OpenStreetMap"},"type":"Feature"},{"geometry":{"coordinates":[9.9698539999999998,64.075055000000006],"type":"Point"},"id":"cave-osm-node-5895610104","properties":{"name":"Hønheia","osm_ref":"node-5895610104","source":"OpenStreetMap"},"type":"Feature"},{"geometry":{"coordinates":[10.043870999999999,64.075198],"type":"Point"},"id":"cave-osm-node-5895610105","properties":{"name":"Snørrehallen","osm_ref":"node-5895610105","source":"OpenStreetMap"},"type":"Feature"},{"geometry":{"coordinates":[10.886903999999999,59.853476000000001],"type":"Point"},"id":"cave-osm-node-597476577","properties":{"name":"Milorghula","osm_ref":"node-597476577","source":"OpenStreetMap"},"type":"Feature"},{"geometry":{"coordinates":[5.3224099999999996,60.404637000000001],"type":"Point"},"id":"cave-osm-node-6284400232","properties":{"name":"Mareminnehollet","osm_ref":"node-6284400232","source":"OpenStreetMap"},"type":"Feature"},{"geometry":{"coordinates":[6.1720249999999997,62.475123000000004],"type":"Point"},"id":"cave-osm-node-6404152068","properties":{"name":"Hule","osm_ref":"node-6404152068","source":"OpenStreetMap"},"type":"Feature"},{"geometry":{"coordinates":[31.017434999999999,70.282538000000002],"type":"Point"},"id":"cave-osm-node-6411355763","properties":{"name":"Hule","osm_ref":"node-6411355763","source":"OpenStreetMap"},"type":"Feature"},{"geometry":{"coordinates":[6.0020280000000001,58.474587999999997],"type":"Point"},"id":"cave-osm-node-6535768557","properties":{"name":"Hule","osm_ref":"node-6535768557","source":"OpenStreetMap"},"type":"Feature"},{"geometry":{"coordinates":[6.002148,58.474477999999998],"type":"Point"},"id":"cave-osm-node-6535768559","properties":{"name":"Hule","osm_ref":"node-6535768559","source":"OpenStreetMap"},"type":"Feature"},{"geometry":{"coordinates":[8.7665959999999998,58.463830999999999],"type":"Point"},"id":"cave-osm-node-6540763389","properties":{"name":"Hule","osm_ref":"node-6540763389","source":"OpenStreetMap"},"type":"Feature"},{"geometry":{"coordinates":[12.331414000000001,65.058409999999995],"type":"Point"},"id":"cave-osm-node-6641164191","properties":{"name":"Jenshola","osm_ref":"node-6641164191","source":"OpenStreetMap"},"type":"Feature"},{"geometry":{"coordinates":[6.4291400000000003,58.678266999999998],"type":"Point"},"id":"cave-osm-node-6708243675","properties":{"name":"Hule","osm_ref":"node-6708243675","source":"OpenStreetMap"},"type":"Feature"},{"geometry":{"coordinates":[6.4329609999999997,58.679265999999998],"type":"Point"},"id":"cave-osm-node-6708248590","properties":{"name":"Hule","osm_ref":"node-6708248590","source":"OpenStreetMap"},"type":"Feature"},{"geometry":{"coordinates":[6.4320760000000003,58.679181],"type":"Point"},"id":"cave-osm-node-6708248591","properties":{"name":"Hule","osm_ref":"node-6708248591","source":"OpenStreetMap"},"type":"Feature"},{"geometry":{"coordinates":[7.1444470000000004,62.218687000000003],"type":"Point"},"id":"cave-osm-node-7143126313","properties":{"name":"Hule","osm_ref":"node-7143126313","source":"OpenStreetMap"},"type":"Feature"},{"geometry":{"coordinates":[10.414255000000001,59.200215999999998],"type":"Point"},"id":"cave-osm-node-7203656925","properties":{"name":"Hule","osm_ref":"node-7203656925","source":"OpenStreetMap"},"type":"Feature"},{"geometry":{"coordinates":[6.2892489999999999,59.015697000000003],"type":"Point"},"id":"cave-osm-node-7255876976","properties":{"name":"Smiehålå","osm_ref":"node-7255876976","source":"OpenStreetMap"},"type":"Feature"},{"geometry":{"coordinates":[10.259331,60.074554999999997],"type":"Point"},"id":"cave-osm-node-7323613815","properties":{"name":"Hule","osm_ref":"node-7323613815","source":"OpenStreetMap"},"type":"Feature"},{"geometry":{"coordinates":[7.646039,63.079411],"type":"Point"},"id":"cave-osm-node-733218419","properties":{"name":"Bremsneshula","osm_ref":"node-733218419","source":"OpenStreetMap"},"type":"Feature"},{"geometry":{"coordinates":[10.870483999999999,59.208449000000002],"type":"Point"},"id":"cave-osm-node-737547605","properties":{"name":"MILORG Våpenlager fra 2.verdenskrig","osm_ref":"node-737547605","source":"OpenStreetMap"},"type":"Feature"},{"geometry":{"coordinates":[11.227772,59.121138000000002],"type":"Point"},"id":"cave-osm-node-7425130722","properties":{"name":"Bjørnehulen","osm_ref":"node-7425130722","source":"OpenStreetMap"},"type":"Feature"},{"geometry":{"coordinates":[6.8172379999999997,60.647520999999998],"type":"Point"},"id":"cave-osm-node-7427432733","properties":{"name":"Bjødnahiet","osm_ref":"node-7427432733","source":"OpenStreetMap"},"type":"Feature"},{"geometry":{"coordinates":[6.874301,58.214419999999997],"type":"Point"},"id":"cave-osm-node-743075897","properties":{"name":"Poddelopthola Sør","osm_ref":"node-743075897","source":"OpenStreetMap"},"type":"Feature"},{"geometry":{"coordinates":[10.343794000000001,63.390962000000002],"type":"Point"},"id":"cave-osm-node-7608266350","properties":{"name":"Hule","osm_ref":"node-7608266350","source":"OpenStreetMap"},"type":"Feature"},{"geometry":{"coordinates":[10.343776999999999,63.391157999999997],"type":"Point"},"id":"cave-osm-node-7608266351","properties":{"name":"Hule","osm_ref":"node-7608266351","source":"OpenStreetMap"},"type":"Feature"},{"geometry":{"coordinates":[7.2547839999999999,61.304130000000001],"type":"Point"},"id":"cave-osm-node-765254821","properties":{"name":"Kaldehola","osm_ref":"node-765254821","source":"OpenStreetMap"},"type":"Feature"},{"geometry":{"coordinates":[12.267995000000001,65.494388000000001],"type":"Point"},"id":"cave-osm-node-7652824675","properties":{"name":"Hule","osm_ref":"node-7652824675","source":"OpenStreetMap"},"type":"Feature"},{"geometry":{"coordinates":[17.846283,68.841443999999996],"type":"Point"},"id":"cave-osm-node-7725984814","properties":{"name":"Hule","osm_ref":"node-7725984814","source":"OpenStreetMap"},"type":"Feature"},{"geometry":{"coordinates":[5.5135969999999999,59.772379999999998],"type":"Point"},"id":"cave-osm-node-7843985775","properties":{"name":"Gålo i Gullberg","osm_ref":"node-7843985775","source":"OpenStreetMap"},"type":"Feature"},{"geometry":{"coordinates":[14.741989999999999,66.256523000000001],"type":"Point"},"id":"cave-osm-node-7894820510","properties":{"name":"Hule","osm_ref":"node-7894820510","source":"OpenStreetMap"},"type":"Feature"},{"geometry":{"coordinates":[14.738458,66.270066],"type":"Point"},"id":"cave-osm-node-7898962074","properties":{"name":"Hule","osm_ref":"node-7898962074","source":"OpenStreetMap"},"type":"Feature"},{"geometry":{"coordinates":[13.027198,66.513807999999997],"type":"Point"},"id":"cave-osm-node-815039374","properties":{"name":"Hule","osm_ref":"node-815039374","source":"OpenStreetMap"},"type":"Feature"},{"geometry":{"coordinates":[5.4830819999999996,60.184212000000002],"type":"Point"},"id":"cave-osm-node-8184860902","properties":{"name":"Hule","osm_ref":"node-8184860902","source":"OpenStreetMap"},"type":"Feature"},{"geometry":{"coordinates":[9.7529409999999999,63.84055],"type":"Point"},"id":"cave-osm-node-8306129910","properties":{"name":"Hule","osm_ref":"node-8306129910","source":"OpenStreetMap"},"type":"Feature"},{"geometry":{"coordinates":[11.105936,59.159616],"type":"Point"},"id":"cave-osm-node-837837484","properties":{"name":"Hule","osm_ref":"node-837837484","source":"OpenStreetMap"},"type":"Feature"},{"geometry":{"coordinates":[5.4828419999999998,60.184302000000002],"type":"Point"},"id":"cave-osm-node-8462495180","properties":{"name":"Hule","osm_ref":"node-8462495180","source":"OpenStreetMap"},"type":"Feature"},{"geometry":{"coordinates":[10.335993999999999,63.392459000000002],"type":"Point"},"id":"cave-osm-node-8548471348","properties":{"name":"Hule","osm_ref":"node-8548471348","source":"OpenStreetMap"},"type":"Feature"},{"geometry":{"coordinates":[9.3309890000000006,58.978169000000001],"type":"Point"},"id":"cave-osm-node-8669455717","properties":{"name":"Dragens hule","osm_ref":"node-8669455717","source":"OpenStreetMap"},"type":"Feature"},{"geometry":{"coordinates":[10.262919999999999,63.276443],"type":"Point"},"id":"cave-osm-node-892290894","properties":{"name":"Jarlshola","osm_ref":"node-892290894","source":"OpenStreetMap"},"type":"Feature"},{"geometry":{"coordinates":[9.6450340000000008,61.362732999999999],"type":"Point"},"id":"cave-osm-node-8932727053","properties":{"name":"Veslegruva","osm_ref":"node-8932727053","source":"OpenStreetMap"},"type":"Feature"},{"geometry":{"coordinates":[15.499547,67.260456000000005],"type":"Point"},"id":"cave-osm-node-8937116295","properties":{"name":"Okshola","osm_ref":"node-8937116295","source":"OpenStreetMap"},"type":"Feature"},{"geometry":{"coordinates":[6.6102259999999999,58.208810999999997],"type":"Point"},"id":"cave-osm-node-9062679454","properties":{"name":"Hule","osm_ref":"node-9062679454","source":"OpenStreetMap"},"type":"Feature"},{"geometry":{"coordinates":[7.6191990000000001,60.690665000000003],"type":"Point"},"id":"cave-osm-node-919673943","properties":{"name":"Kittilsbu","osm_ref":"node-919673943","source":"OpenStreetMap"},"type":"Feature"},{"geometry":{"coordinates":[14.7342,66.248947000000001],"type":"Point"},"id":"cave-osm-node-9308404396","properties":{"name":"Jordbrugrotta","osm_ref":"node-9308404396","source":"OpenStreetMap"},"type":"Feature"},{"geometry":{"coordinates":[5.8069899999999999,59.779594000000003],"type":"Point"},"id":"cave-osm-node-9308404397","properties":{"name":"Radiohola","osm_ref":"node-9308404397","source":"OpenStreetMap"},"type":"Feature"},{"geometry":{"coordinates":[8.8038500000000006,62.976255999999999],"type":"Point"},"id":"cave-osm-node-9352342588","properties":{"name":"Jøtulomnen","osm_ref":"node-9352342588","source":"OpenStreetMap"},"type":"Feature"},{"geometry":{"coordinates":[5.3310050000000002,60.348474000000003],"type":"Point"},"id":"cave-osm-node-9386440530","properties":{"name":"Hule","osm_ref":"node-9386440530","source":"OpenStreetMap"},"type":"Feature"},{"geometry":{"coordinates":[14.411324,67.271443000000005],"type":"Point"},"id":"cave-osm-node-9403074337","properties":{"name":"Hule","osm_ref":"node-9403074337","source":"OpenStreetMap"},"type":"Feature"},{"geometry":{"coordinates":[8.316573,58.268214],"type":"Point"},"id":"cave-osm-node-9458292126","properties":{"name":"Ole Høilands hule","osm_ref":"node-9458292126","source":"OpenStreetMap"},"type":"Feature"},{"geometry":{"coordinates":[10.479521999999999,59.935899999999997],"type":"Point"},"id":"cave-osm-node-9631569206","properties":{"name":"Hule","osm_ref":"node-9631569206","source":"OpenStreetMap"},"type":"Feature"},{"geometry":{"coordinates":[6.6214599999999999,58.162142000000003],"type":"Point"},"id":"cave-osm-node-967129537","properties":{"name":"Hule","osm_ref":"node-967129537","source":"OpenStreetMap"},"type":"Feature"},{"geometry":{"coordinates":[17.776831000000001,68.541747999999998],"type":"Point"},"id":"cave-osm-node-9750441665","properties":{"name":"Hule","osm_ref":"node-9750441665","source":"OpenStreetMap"},"type":"Feature"},{"geometry":{"coordinates":[17.778251999999998,68.582279999999997],"type":"Point"},"id":"cave-osm-node-9750447565","properties":{"name":"Hule","osm_ref":"node-9750447565","source":"OpenStreetMap"},"type":"Feature"},{"geometry":{"coordinates":[13.018383999999999,67.904933],"type":"Point"},"id":"cave-osm-node-9866797204","properties":{"name":"Hule","osm_ref":"node-9866797204","source":"OpenStreetMap"},"type":"Feature"},{"geometry":{"coordinates":[16.640782999999999,68.489255999999997],"type":"Point"},"id":"cave-osm-node-9867641797","properties":{"name":"Trollkirka","osm_ref":"node-9867641797","source":"OpenStreetMap"},"type":"Feature"},{"geometry":{"coordinates":[10.208871,59.042355999999998],"type":"Point"},"id":"cave-osm-node-9917437615","properties":{"name":"Såtåshula","osm_ref":"node-9917437615","source":"OpenStreetMap"},"type":"Feature"},{"geometry":{"coordinates":[10.380107000000001,62.370868000000002],"type":"Point"},"id":"cave-osm-node-9932269950","properties":{"name":"Hule","osm_ref":"node-9932269950","source":"OpenStreetMap"},"type":"Feature"},{"geometry":{"coordinates":[14.432081999999999,67.271978000000004],"type":"Point"},"id":"cave-osm-way-658953127","properties":{"name":"Hule","osm_ref":"way-658953127","source":"OpenStreetMap"},"type":"Feature"},{"geometry":{"coordinates":[14.430899,67.271643999999995],"type":"Point"},"id":"cave-osm-way-658953128","properties":{"name":"Hule","osm_ref":"way-658953128","source":"OpenStreetMap"},"type":"Feature"},{"geometry":{"coordinates":[14.417705,67.271343000000002],"type":"Point"},"id":"cave-osm-way-658953129","properties":{"name":"Hule","osm_ref":"way-658953129","source":"OpenStreetMap"},"type":"Feature"},{"geometry":{"coordinates":[14.420178999999999,67.271715999999998],"type":"Point"},"id":"cave-osm-way-658953132","properties":{"name":"Hule","osm_ref":"way-658953132","source":"OpenStreetMap"},"type":"Feature"},{"geometry":{"coordinates":[14.42756,67.274860000000004],"type":"Point"},"id":"cave-osm-way-658953134","properties":{"name":"Hule","osm_ref":"way-658953134","source":"OpenStreetMap"},"type":"Feature"},{"geometry":{"coordinates":[14.433452000000001,67.271929999999998],"type":"Point"},"id":"cave-osm-way-663762678","properties":{"name":"Hule","osm_ref":"way-663762678","source":"OpenStreetMap"},"type":"Feature"},{"geometry":{"coordinates":[9.3322800000000008,59.526415],"type":"Point"},"id":"cave-ut-141579","properties":{"description":"Tveitanhola, også kalt Glakollhola (dette er det formelle navnet i Kartverket), ligger ved Glakollen på Hjuksebø. Du tar av opp til Skogenfeltet, kjører over jernbanelinja og parkerer ved en velteplass ca. 200 meter etter brua. Er også grei...","elevation":339,"name":"Tveitanhola","source":"UT.no\/DNT"},"type":"Feature"},{"geometry":{"coordinates":[10.690640999999999,63.324388999999996],"type":"Point"},"id":"cave-ut-141613","properties":{"description":"Finn-Pål-stuggu er en naturlig huleformasjon i fjellet syd for Jervfjellet. Hula er ganske lang og det er ståhøyde enkelte steder, slik at den fungerer ypperlig både som kjøkken og soveplass. Gulvet er absolutt ikke flatt. Derfor er det byg...","elevation":416,"name":"Finn-Pål-Stuggu","source":"UT.no\/DNT"},"type":"Feature"},{"geometry":{"coordinates":[7.8029539999999997,63.128801000000003],"type":"Point"},"id":"cave-ut-141769","properties":{"description":"Turmål ved turstien \"I Annas Fotspor\"","elevation":36,"name":"Fanthola","source":"UT.no\/DNT"},"type":"Feature"},{"geometry":{"coordinates":[10.451542,64.343697000000006],"type":"Point"},"id":"cave-ut-141827","properties":{"description":"Estenvikhallin er en grotte i to etasjer og er spennende både for store og små. Hulen er populær i buldremiljøet.","elevation":34,"name":"Estenvikhallin","source":"UT.no\/DNT"},"type":"Feature"},{"geometry":{"coordinates":[11.450092,60.817951999999998],"type":"Point"},"id":"cave-ut-142287113","properties":{"description":"Hule der det sies at det i gamle dager ble lagret kjøtt av felt vilt, antagelig mest elg. I hula er det stabil kald temperatur og den er ikke lett å finne hvis du ikke vet hvor den er. Ta en tur inn i hula om du tør.","elevation":272,"name":"Kjøttkjellern","source":"UT.no\/DNT"},"type":"Feature"},{"geometry":{"coordinates":[7.0411609999999998,60.595166999999996],"type":"Point"},"id":"cave-ut-142428136","properties":{"description":"Rett innom Haugen på flaten før brua ligg Solskinstjørni samt nokre koldehåler. Solskinstørnet er ei gåte, her kjem det vatn i god versperiodar men ikkje i regnver. Meir kan ein lesa inne på Grind.no. Koldeholena vart nytta som lagringsplas...","elevation":64,"name":"Solskinstjørni - Koldeholer -Norddalen i Osa","source":"UT.no\/DNT"},"type":"Feature"},{"geometry":{"coordinates":[4.985214,60.237589],"type":"Point"},"id":"cave-ut-142655624","properties":{"description":"Stor hule helt nede ved sjøkanten. Den er så stor at man får følelse av å være i en grotte. Denne turen må planlegges nøye før du går den. Hulen er bare tilgjenglig ved fjære sjø. Følg med på tidevannstabellen. Sørg for å være ute av hulen ...","elevation":16,"name":"Bekhilderen","source":"UT.no\/DNT"},"type":"Feature"},{"geometry":{"coordinates":[7.0640549999999998,60.620206000000003],"type":"Point"},"id":"cave-ut-143215453","properties":{"description":"Stor heller med arkeologiske spor fra førreformatorisk tid. Austmannahedleren ligg i eit drag om lag 45 meter aust for elva Nordøla, på austsida av ein NNA-SSV gåande rygg. Denne ryggen er rimeleg loddrett på austsida og dannar her ein hell...","elevation":538,"name":"Austmannahedleren - Ossete","source":"UT.no\/DNT"},"type":"Feature"},{"geometry":{"coordinates":[8.9081949999999992,60.702435000000001],"type":"Point"},"id":"cave-ut-143265","properties":{"description":"Navnet kommer fra en hule som ligger under veggen og i følge sagnet skal det fra gammelt av ha vært en lokal tyv som gjemte seg der med tyvgodset sitt.","elevation":437,"name":"Tjuvkjelleren-Farsetberget","source":"UT.no\/DNT"},"type":"Feature"},{"geometry":{"coordinates":[7.2738079999999998,59.798313999999998],"type":"Point"},"id":"cave-ut-143452939","properties":{"description":"Hermodshola har fått navn etter et sagn fra middelalderen. To karer hadde planlagt å rane en numedøl som de visste bar på sølv. Numedølen som hette Hermod skulle over fjellet langs Ålmannvegen. De to karene la seg på lur ved Krekledyrskaret...","elevation":1128,"name":"Hermodshola","source":"UT.no\/DNT"},"type":"Feature"},{"geometry":{"coordinates":[10.71707,59.967880000000001],"type":"Point"},"id":"cave-ut-145248602","properties":{"description":"Gaustad gruve var en av Sognsvannsgruvene og var en jerngruve på østsiden av Vettakollen mot Sognsvann, nordøst for Båntjern. Den var drivverdig i perioder, første periode var fra 1538-39 til rundt 1580, eier i denne perioden var kansler Mo...","elevation":223,"name":"Gaustad gruve","source":"UT.no\/DNT"},"type":"Feature"},{"geometry":{"coordinates":[9.508972,62.724941000000001],"type":"Point"},"id":"cave-ut-145290251","properties":{"description":"Trollkyrkja er ei lita hule i fjellet som er vel verdt et besøk. Her kan det være gøy for både store og små å klatre innerst i grotta, og utsikten fra åpningen er nydelig. Hula ligger i 1 000 meters høgde opp fra bekkenfra Nonshø-tjønna, ca...","elevation":996,"name":"Trollkyrkja","source":"UT.no\/DNT"},"type":"Feature"},{"geometry":{"coordinates":[10.410168000000001,63.188118000000003],"type":"Point"},"id":"cave-ut-145338680","properties":{"description":"Gudrunhula består av flere menneskeskapte huler i en liten knaus i Flåmarka, og er et spennende turmål for store og små. Det ligger en spennende historie bak disse hulene, les den lengre ned. Hula har tre innganger, to av dem henger sammen ...","elevation":461,"name":"Gudrunhula","source":"UT.no\/DNT"},"type":"Feature"},{"geometry":{"coordinates":[30.563338999999999,70.539896999999996],"type":"Point"},"id":"cave-ut-145338684","properties":{"description":"Langs med Syltevika naturreservat ligger en grotte som er verdt et besøk!","elevation":10,"name":"Hulen Ovn","source":"UT.no\/DNT"},"type":"Feature"},{"geometry":{"coordinates":[9.4759170000000008,59.219731000000003],"type":"Point"},"id":"cave-ut-145344264","properties":{"description":"Mikaelshulen, eller St. Mikaelskyrkje, er en fjellhule i den bratte fjellveggen på Norsjøs østside. Nord for Løveid sluser langs Telemarkskanalen ligger Mikaelshula - en fjellhule ca. 30 meter over vannflaten. Ved inngangen er hula 5-6 mete...","elevation":67,"name":"Mikaelshula","source":"UT.no\/DNT"},"type":"Feature"},{"geometry":{"coordinates":[9.2066800000000004,59.592599999999997],"type":"Point"},"id":"cave-ut-145356158","properties":{"elevation":341,"name":"Hollagruva","source":"UT.no\/DNT"},"type":"Feature"},{"geometry":{"coordinates":[10.447863,59.450563000000002],"type":"Point"},"id":"cave-ut-145494912","properties":{"description":"Røverhula ligger rett opp for Jesusbukta på Løvøya. Her bodde det 12 røvere. De hadde tatt tjenestejenta fra Falkensten til fange, men de ble oppdaget og alle ble drept. Hula er ikke spesielt stor, og inngangen er så smal at man må gå sidel...","elevation":56,"name":"Røverhula","source":"UT.no\/DNT"},"type":"Feature"},{"geometry":{"coordinates":[8.7499190000000002,59.835076999999998],"type":"Point"},"id":"cave-ut-145499618","properties":{"description":"Notodden og Hjartdal Turlag hadde i mange år skiltet og merket sti til Hulderhola, men dette ble tatt ned av sikkerhetshensyn da geolog advarte om EKSTREM RASFARE fra fjellsiden Hulderhola befinner seg i. ALL FERDSEL TIL HULDERHOLA SKJER DE...","elevation":1241,"name":"Hulderhola","source":"UT.no\/DNT"},"type":"Feature"},{"geometry":{"coordinates":[9.0508729999999993,59.101374999999997],"type":"Point"},"id":"cave-ut-145635290","properties":{"description":"Turmålet nås ved å følge stien fra Smibekkhavna via Mjelkåsen mot Braknesheia, når du har gått ca 300 m ta til høyre og følg veien ca 150 m og ta til venstre og følg stien og merker frem til turmålet. Hola har fått det navnet fordi noen tro...","elevation":131,"name":"Høylandshåla","source":"UT.no\/DNT"},"type":"Feature"},{"geometry":{"coordinates":[9.6232059999999997,63.772027999999999],"type":"Point"},"id":"cave-ut-146117946","properties":{"description":"Et spennenende turmål for hele familien. Ta med lommelykt så kan man gå et lite stykke inn på grotten.","elevation":174,"name":"Grotten ved Duehellaren","source":"UT.no\/DNT"},"type":"Feature"},{"geometry":{"coordinates":[17.841453000000001,68.846919],"type":"Point"},"id":"cave-ut-146196951","properties":{"description":"Obs! På grunn av fare med å vandre på egen hånd oppfordres det til å være med på guidet tur. Markøren på kartet er til parkeringsplassen. Gjennom flere titusener av år har Sagelva dannet flere grotter på sin vei mot havet. Allerede i 1957 b...","elevation":112,"name":"Sagelvas grotter","source":"UT.no\/DNT"},"type":"Feature"},{"geometry":{"coordinates":[6.8151809999999999,59.566422000000003],"type":"Point"},"id":"cave-ut-146300748","properties":{"description":"En smak av bergverkshistorien. Glimmer er et fascinerende mineral. Med fingrene kan du løsne flak for flak, omtrent som blader i en bok. Når du klarer å gjøre flakene tynne nok, kan du se igjennom! Dette kan du forsøke dersom du legger en t...","elevation":799,"name":"Glimmerbrudd","source":"UT.no\/DNT"},"type":"Feature"},{"geometry":{"coordinates":[8.7164389999999994,59.042124000000001],"type":"Point"},"id":"cave-ut-146887691","properties":{"description":"Dette turmålet ligger langs turforslaget Holmtjennheia rundt på Gautefallheia. Når du kommer til stikrysset ved Holmtjenn fra Gautefall eller Bleka hyttefelt, tar du til høyre og følger stien ca 500 m. Da er du på vei ned lia, stien til tur...","elevation":570,"name":"Dalhelleren","source":"UT.no\/DNT"},"type":"Feature"},{"geometry":{"coordinates":[9.3721800000000002,58.866160000000001],"type":"Point"},"id":"cave-ut-146888665","properties":{"description":"Turmålet ligger langs turforslaget Storkollen til Sjåen. Denne gruva var virksom i perioden 1901-1957 og det ble tatt ut mye Rutilmalm.","elevation":115,"name":"Rutilgruve i Kragerø","source":"UT.no\/DNT"},"type":"Feature"},{"geometry":{"coordinates":[9.7510200000000005,61.72242],"type":"Point"},"id":"cave-ut-146888913","properties":{"description":"Gullgruva, et turmål, på en kort tur som passer godt til barnefamilier eller for de som har lyst til å se den såkalte «gullgruva». Håkon Rustom (1884-1970), født på Kirketeigen i Kvam, var sikker på at det var gullforekomster på dette stede...","elevation":936,"name":"Gullgruva på Kvamsfjellet","source":"UT.no\/DNT"},"type":"Feature"},{"geometry":{"coordinates":[10.456583,63.454585999999999],"type":"Point"},"id":"cave-ut-146889025","properties":{"description":"Polsmohula ligger ved Ladestien på Lade i Trondheim, og er en bunker som ble sprengt ut under andre verdenskrig. Den ligger øst for Østmarkbukta, og den kan nås via en sti som tar av fra Ladestien. Anlegget strekker seg omtrent 100 meter in...","elevation":21,"name":"Polsmohula","source":"UT.no\/DNT"},"type":"Feature"},{"geometry":{"coordinates":[12.469403,65.915814999999995],"type":"Point"},"id":"cave-ut-146889175","properties":{"description":"Svarthølet er en kalksteinsgrotte i Søvikskardet. Det er stedvis trangt og et god stykke inn til man kommer til en liten underjordisk foss etter ca 45 minutter. God hodelykt er påkrevd. Anbefaler også gode og varme klær da det er sval tempe...","elevation":91,"name":"Svarthølet","source":"UT.no\/DNT"},"type":"Feature"},{"geometry":{"coordinates":[10.818033,64.489439000000004],"type":"Point"},"id":"cave-ut-146889793","properties":{"description":"Kystkommunen Flatanger er kjent blant klatrere som en av verdens beste klatresteder, mye på grunn av Hanshelleren, ei stor hule ved Strøm. Folk kommer hit fra alle land for å prøve seg på verdens vanskeligste klatrerute – Silence – en 9c-ru...","elevation":121,"name":"Hanshelleren klatrehule","source":"UT.no\/DNT"},"type":"Feature"},{"geometry":{"coordinates":[9.1750109999999996,59.801209],"type":"Point"},"id":"cave-ut-146889903","properties":{"description":"Enorm stein-attraksjon","elevation":1194,"name":"Rjupekyrkja","source":"UT.no\/DNT"},"type":"Feature"}],"generator":"Trakke fetch_utno_poi.swift","timestamp":"2026-08-10T00:27:31Z","type":"FeatureCollection"}