{"attribution":"UT.no\/DNT","features":[{"geometry":{"coordinates":[10.180399,59.022325000000002],"type":"Point"},"id":"climbing-ut-141678","properties":{"description":"Liten havneplass med flotte badestrender, buldremuligheter og camping. Ligger sørvendt og er eksponert for sørlige vinder","elevation":4,"name":"Ula","source":"UT.no\/DNT"},"type":"Feature"},{"geometry":{"coordinates":[10.87595,59.961025999999997],"type":"Point"},"id":"climbing-ut-141764","properties":{"description":"Ammerudtunnelen har en buldrevegg der man kan klatre seg gjennom og Norges lengste monkey bar slik at man også kan svinge seg gjennom.","elevation":182,"name":"Ammerudtunnelen","source":"UT.no\/DNT"},"type":"Feature"},{"geometry":{"coordinates":[11.04274,60.270180000000003],"type":"Point"},"id":"climbing-ut-143087","properties":{"description":"klatrefelt","elevation":283,"name":"Kløvberget klatrefelt","source":"UT.no\/DNT"},"type":"Feature"},{"geometry":{"coordinates":[10.468994,59.251598000000001],"type":"Point"},"id":"climbing-ut-144988482","properties":{"description":"Veldig flott klatrefelt med enkel tilkomst. Oppdatert klatrefører finner du på 27crags.com OBS: parkering må skje på Husvik skole ( IKKE på Winter Hansen sitt område for å holde på det gode samarbeidet med grunneier).","elevation":19,"name":"Husvik Klatrefelt","source":"UT.no\/DNT"},"type":"Feature"},{"geometry":{"coordinates":[5.2385549999999999,60.363069000000003],"type":"Point"},"id":"climbing-ut-145257431","properties":{"description":"Loddefjord - Klatrevegg Loddefjordveggen er 60 meter høy, men kun noen få ruter går helt opp. Aktiviteten i øvre halvdelen av veggen har de siste årene økt. Vær oppmerksom på at flere av forlengelsene krever 70 m tau. Denne oversiktskissen ...","elevation":127,"name":"UN-Storehelleren \/ Bjørndalshelleren","source":"UT.no\/DNT"},"type":"Feature"},{"geometry":{"coordinates":[4.9265920000000003,60.457819000000001],"type":"Point"},"id":"climbing-ut-145284586","properties":{"description":"Klatrefeltet Atlantis er utviklet i løpet av høsten 2005 og 2006, med noe videreutvikling i 2018. Fremdeles er det noen prosjekter på veggen. De flestene rutene går på sva med fin fjellkvalitet. Klatringen er relativt lett da veggen har man...","elevation":14,"name":"Atlantis klatrefelt - Øygarden","source":"UT.no\/DNT"},"type":"Feature"},{"geometry":{"coordinates":[4.9825999999999997,60.432775999999997],"type":"Point"},"id":"climbing-ut-145285102","properties":{"description":"Bøtteveggen klatrefelt er det fine ruter med morsom veggklatring. Det er også forholdsvis lett å henge opp topptau. Veggen ligger lunt til inne i et skogholt og er et spesielt bra sted å dra når det er nordavind. Veggen trenger minst en dag...","elevation":38,"name":"Bøtteveggen klatrefelt - Øygarden","source":"UT.no\/DNT"},"type":"Feature"},{"geometry":{"coordinates":[4.9595940000000001,60.471454000000001],"type":"Point"},"id":"climbing-ut-145290258","properties":{"description":"Drømmehagen klatrefelt er utviklet høsten 2008 og våren 2009. Veggen har potensiale for ca. 30 ruter. Mye av klatringen er i øvre sjikt av syvertallet. Veggen er relativt variert og veksler fra loddrett til svært bratt. Steinkvaliteten er o...","elevation":25,"name":"Drømmehagen klatrefelt - Øygarden","source":"UT.no\/DNT"},"type":"Feature"},{"geometry":{"coordinates":[4.9334930000000004,60.460214000000001],"type":"Point"},"id":"climbing-ut-145292058","properties":{"description":"Furunkulose er et klatrefelt hvor veggen er svakt overhengende og byr på lommer, lister og mange små rare tak. De harde rutene har meget høy kvalitet, men tar en del fingerhud. Fra den relativt smale hyllen under veggen er det utsikt over h...","elevation":17,"name":"Furunkulose klartefelt - Øygarden","source":"UT.no\/DNT"},"type":"Feature"},{"geometry":{"coordinates":[4.9795369999999997,60.428995],"type":"Point"},"id":"climbing-ut-145292059","properties":{"description":"Gjøkeredet er en 15m høy klippe av rødlig sotragneiss som ligger mellom Ågotnes og Misje på Sotra. Veggen er utviklet våren 2006 og er siste tilskudd på den sterkt voksende mengden ruter av moderat vanskelighetsgrad i Bergensomrpdet. Veggen...","elevation":31,"name":"Gjøkeredet klatrefelt - Øygarden","source":"UT.no\/DNT"},"type":"Feature"},{"geometry":{"coordinates":[4.9794179999999999,60.423811999999998],"type":"Point"},"id":"climbing-ut-145292061","properties":{"description":"Hesteveggen ble utviklet i løpet av 2005 og 2006, ca. 1 km syd for Bøtteveggen på Sotra. Veggen er 6-12 meter høy og er stort sett vertikal. Klatringen foregår hovedsakelig på lister av varierende størrelse. Det er så langt etablert 12 rute...","elevation":38,"name":"Hesteveggen klatrefelt - Øygarden","source":"UT.no\/DNT"},"type":"Feature"},{"geometry":{"coordinates":[4.9563040000000003,60.462060000000001],"type":"Point"},"id":"climbing-ut-145292062","properties":{"description":"Hjallaveggen er et av de største klatrefeltene i Bergen med mange ulike typer klatring. Klatringen hevdes ofte å ha et visst «åttitallspreg», sikkert er det i alle fall at den har særpreg. Noen av rutene har lite vannsig, så det kan være fi...","elevation":20,"name":"Hjallaveggen klarefelt  - Øygarden","source":"UT.no\/DNT"},"type":"Feature"},{"geometry":{"coordinates":[5.0502250000000002,60.387273],"type":"Point"},"id":"climbing-ut-145292063","properties":{"description":"Krabbeveggen er en liten nyutviklet vegg med høy fjellkvalitet. Veggen er svakt overhengende med klatring i øvre del av syvertallet. Veggen vender mot vest, sol fra ca. kl 15. Feltet er beskrevet i siste utgave av Klatrefører for Bergen, se...","elevation":40,"name":"Krabbeveggen klatrefelt - Øygarden","source":"UT.no\/DNT"},"type":"Feature"},{"geometry":{"coordinates":[4.9725910000000004,60.444048000000002],"type":"Point"},"id":"climbing-ut-145292064","properties":{"description":"Møtteveggen er en fin vegg med morsom og variert vegg- og rissklatring på store tak. Svært klatrebart fjell og gode sikringsmuligheter gjør veggen til et bra øvingsfelt for naturlig sikring. Anmarsjen går delvis på myr og kan være noe våt. ...","elevation":36,"name":"Møtteveggen klartefelt - Øygarden","source":"UT.no\/DNT"},"type":"Feature"},{"geometry":{"coordinates":[4.9183820000000003,60.446671000000002],"type":"Point"},"id":"climbing-ut-145292065","properties":{"description":"Turøy klatrefelt beskrives som moderat klatring på sva, vegg og i overheng, på fin steinkvalitet. Feltet er beskrevet i siste utgave av Klatrefører for Bergen, se vedlagt lenke. Skikk og bruk ved klatring utendørs Topptauklatring bør utføre...","elevation":13,"name":"Turøy klatrefelt - Øygarden","source":"UT.no\/DNT"},"type":"Feature"},{"geometry":{"coordinates":[5.2820260000000001,60.43486],"type":"Point"},"id":"climbing-ut-145292066","properties":{"description":"BOF-veggen gir fin sva- og veggklatring med formasjonsrikt fjell og et bra alternativ til Helleneset. Sol fra rundt kl. 11, men noen av rutene trenger et par dager på å tørke opp. Feltet er beskrevet i siste utgave av Klatrefører for Bergen...","elevation":22,"name":"BOF-veggen klatrefelt","source":"UT.no\/DNT"},"type":"Feature"},{"geometry":{"coordinates":[5.2950710000000001,60.429160000000003],"type":"Point"},"id":"climbing-ut-145292067","properties":{"description":"Bymuren er en kort og bratt vegg med harde og fine flytt. Skrånende bevokst bakke under feltet. Selv om dette er et lite brukt felt er det verd et besøk. Feltet er beskrevet i siste utgave av Klatrefører for Bergen, se vedlagt lenke. Skikk ...","elevation":114,"name":"Bymuren klatrefelt","source":"UT.no\/DNT"},"type":"Feature"},{"geometry":{"coordinates":[5.254073,60.341808999999998],"type":"Point"},"id":"climbing-ut-145292068","properties":{"description":"Den hemmelige veggen er et bynært svafelt med variert vegg- og svaklatring. Noen av rutene holder meget høy kvalitet. Veggen ligger delvis bak en skog og det er vegetasjon på toppen. Det har periodevis vært lav aktivitet på feltet så det an...","elevation":18,"name":"Den hemmelige veggen klatrefelt","source":"UT.no\/DNT"},"type":"Feature"},{"geometry":{"coordinates":[5.2908629999999999,60.221919999999997],"type":"Point"},"id":"climbing-ut-145292069","properties":{"description":"Fergeveggen tilbyr fin klatring på den fantastiske Krokeidegranitten av meget høyt kvalitet i fine omgivelser med utsikt til Rosendalsalpene. Veggen tørker raskt, er østvendt og ligger i skyggen på ettermiddagen og er dermed velegnet på var...","elevation":12,"name":"Fergeveggen klatrefelt","source":"UT.no\/DNT"},"type":"Feature"},{"geometry":{"coordinates":[5.3333089999999999,60.399729000000001],"type":"Point"},"id":"climbing-ut-145292070","properties":{"description":"Fjellsiden er et bydelsfelt på sva, med et par naturlig sikrede rissruter og boltet sekserklatring av høy kvalitet. Periodevis blir feltet lite brukt og det gror fort mose på veggen, spesielt på det nedre feltet. Ta med stålbørste. Feltet e...","elevation":172,"name":"Fjellsiden klatrefelt","source":"UT.no\/DNT"},"type":"Feature"},{"geometry":{"coordinates":[5.3693540000000004,60.431479000000003],"type":"Point"},"id":"climbing-ut-145292071","properties":{"description":"Fureberget-veggen ligger fint til innerst i Jordalen. Steinkvaliteten er jevnt over høy, med loddrette og overhengende ruter, ofte litt lenger enn det som ellers finnes nær Bergen. Veggen har skygge til kl 15 og en del av rutene trenger et ...","elevation":155,"name":"Fureberget klatrefelt","source":"UT.no\/DNT"},"type":"Feature"},{"geometry":{"coordinates":[5.3615500000000003,60.436126999999999],"type":"Point"},"id":"climbing-ut-145292072","properties":{"description":"Geithelleren ligger fint til høyt oppe i Jordalen og tilbyr bratt og tung klatring. Fjellkvaliteten er litt varierende og særlig nedre del av veggen er noe løs og forvitret. Men straks du er oppe i veggen blir det bedre. Bruk gjerne hjelm o...","elevation":276,"name":"Geithelleren klatrefelt","source":"UT.no\/DNT"},"type":"Feature"},{"geometry":{"coordinates":[5.3077509999999997,60.422682000000002],"type":"Point"},"id":"climbing-ut-145292073","properties":{"description":"Hatleberget ligger like bak studentblokkene ved NHH og egner seg fint for barnefamilier. Alle rutene har snufester og det er enkelt å komme til for å henge opp topptau. Feltet ble opprinnelig utviklet for aktivitet med klubbens barnegrupper...","elevation":77,"name":"Hatleberget klatrefelt","source":"UT.no\/DNT"},"type":"Feature"},{"geometry":{"coordinates":[5.2882049999999996,60.432605000000002],"type":"Point"},"id":"climbing-ut-145292074","properties":{"description":"Hellen festning er et nytt bydelsfelt med relativt lette ruter av høy kvalitet. Feltet ligger i samme området som Bymuren og Helleneset. Klippen er utviklet etter initativ fra Bergen og Omland Friluftråd (BOF). BOF har også dekket store del...","elevation":127,"name":"Hellen festning klatrefelt","source":"UT.no\/DNT"},"type":"Feature"},{"geometry":{"coordinates":[5.2806769999999998,60.434282000000003],"type":"Point"},"id":"climbing-ut-145292075","properties":{"description":"Helleneset byr på sva- og veggklatring. Alle rutene er godt sikret med borebolter og snufester. Det er også fint å buldre langs den overhengende nedre delen av veggen. Noen av rutene på veggen tørker raskt etter regnvær. Omgivelsene er idyl...","elevation":3,"name":"Helleneset klatrefelt","source":"UT.no\/DNT"},"type":"Feature"},{"geometry":{"coordinates":[5.2167690000000002,60.350596000000003],"type":"Point"},"id":"climbing-ut-145292076","properties":{"description":"Hetlevikåsen er et gammelt felt med litt usikker historie som nå har fått en overhaling med en rekke nye ruter. Veggen ligger i åpen skog, vestvendt med sol fra ca kl 14. Klatring på fast og til dels kompakt fjell. De fleste rutene trenger ...","elevation":73,"name":"Hetlevikåsen","source":"UT.no\/DNT"},"type":"Feature"},{"geometry":{"coordinates":[5.2758960000000004,60.207749999999997],"type":"Point"},"id":"climbing-ut-145292079","properties":{"description":"Korsnes - mye fin stein på Korsnes syd for Bergen. Tidligere har det vært både buldret og klatret noe i området. Veggen er 15 meter høy og svakt overhengende. Klatringen foregår hovedsakelig på lister og i riss. Så langt er det gått 5 ruter...","elevation":17,"name":"Korsnes klatrefelt","source":"UT.no\/DNT"},"type":"Feature"},{"geometry":{"coordinates":[5.2467280000000001,60.387146000000001],"type":"Point"},"id":"climbing-ut-145292080","properties":{"description":"Kvarven - moderat vanskelig sva- og veggklatring med kveldssol. Rutenavn er malt på veggen. Feltet er beskrevet i siste utgave av Klatrefører for Bergen, se vedlagt lenke. Skikk og bruk ved klatring utendørs Topptauklatring bør utføres med ...","elevation":203,"name":"Kvarven klatrefelt","source":"UT.no\/DNT"},"type":"Feature"},{"geometry":{"coordinates":[5.320074,60.432178999999998],"type":"Point"},"id":"climbing-ut-145292697","properties":{"description":"Missiveggen klatrefelt er en bratt og regnsikker vegg som kan fungere som et supplement til Loddefjord. Veggen vender mot nord og får kun noen få glimt av sol tidlig morgen og kveld. Den er såpass overhengende at de fleste rutene er tørre i...","elevation":120,"name":"Missiveggen","source":"UT.no\/DNT"},"type":"Feature"},{"geometry":{"coordinates":[5.336856,60.405242000000001],"type":"Point"},"id":"climbing-ut-145292700","properties":{"description":"Mulestigen - Svaklatring på høy steinkvalitet. Nesten alle rutene på veggen tørker raskt etter regnvær. Ved regn på formiddagen kan veggen være helt tørr for ettermiddagsklatring. Feltet er beskrevet i siste utgave av Klatrefører for Bergen...","elevation":252,"name":"Mulestigen","source":"UT.no\/DNT"},"type":"Feature"},{"geometry":{"coordinates":[5.2686729999999997,60.372703000000001],"type":"Point"},"id":"climbing-ut-145292702","properties":{"description":"Nipedalen er et stort felt med variert klatring og fin utsikt over innseilingen til Bergen. Veggen har hatt noen prosjekter i mange år allerede og ble ferdig utviklet vinteren 2020. Venstre delen byr på vedvarende lett overhengende klatring...","elevation":131,"name":"Nipedalen","source":"UT.no\/DNT"},"type":"Feature"},{"geometry":{"coordinates":[5.1839279999999999,60.363624000000002],"type":"Point"},"id":"climbing-ut-145292704","properties":{"description":"Ramsvik klatrefelt er en klippe på østsiden av Sotrabroen, med tre kileruter. Risset som heter Katai er den markante linjen i midten, og seiler opp som en av de aller flotteste rissene av sin grad i bergensområdet. Feltet er beskrevet i sis...","elevation":47,"name":"Ramsvik","source":"UT.no\/DNT"},"type":"Feature"},{"geometry":{"coordinates":[5.3191189999999997,60.416677],"type":"Point"},"id":"climbing-ut-145292708","properties":{"description":"Sandviken er et eldre bynært felt som fikk en renessanse og en del nye ruter i 2003. Variert klatring på vegg, med innslag av sva og noen overhengende partier. Feltet tørker raskt etter regnvær. Det er fortsatt noen prosjekter som kan gås. ...","elevation":95,"name":"Sandviken klatrefelt","source":"UT.no\/DNT"},"type":"Feature"},{"geometry":{"coordinates":[5.3438600000000003,60.404536999999998],"type":"Point"},"id":"climbing-ut-145292709","properties":{"description":"Skredderdalen ligger nesten oppe på fjellet og har fin utsikt over Byfjorden. Feltet gir fin veggklatring og har potensiale for noen flere ruter. Anmarsjtiden halveres dersom man kjører opp til Fjellveien. Lite brukt felt. Feltet er beskrev...","elevation":324,"name":"Skredderdalen klatrefelt","source":"UT.no\/DNT"},"type":"Feature"},{"geometry":{"coordinates":[5.3969100000000001,60.346364999999999],"type":"Point"},"id":"climbing-ut-145292710","properties":{"description":"Sædalen er et lite og bynært klatrefelt som ble utviklet i løpet av 2002 og 2003. Bratt veggklatring på lommer og lister, mye knudrete fjell gir god friksjon. I ly for vind. Feltet er løsere enn det som er vanlig ellers i Bergensområdet. St...","elevation":183,"name":"Sædalen klatrefelt","source":"UT.no\/DNT"},"type":"Feature"},{"geometry":{"coordinates":[5.1018280000000003,60.291361000000002],"type":"Point"},"id":"climbing-ut-145292711","properties":{"description":"Bikkjeveggen klartefelt er 15 meter høy, lett overhengende vegg som gir meget fin veggklatring. Rutene er sikret med borebolter og har snufester. Alle rutene ble reboltet i 2009. Veggen anbefales spesielt dersom man går åttere. Rappellmulig...","elevation":121,"name":"Bikkjeveggen - Tellnes\/Haganes","source":"UT.no\/DNT"},"type":"Feature"},{"geometry":{"coordinates":[5.1052580000000001,60.288798999999997],"type":"Point"},"id":"climbing-ut-145292712","properties":{"description":"Blåbærveggen klatrevegg er gjennomgående bratt med stort sett vanskelige ruter, både på bolter og kiler. Fjellet er fast og gir mange ulike typer klatring. Det er vanskelig å rigge tau. For kilerutene uten snufeste, anbefales retur sydover ...","elevation":61,"name":"Blåbærveggen - Tellnes\/Haganes","source":"UT.no\/DNT"},"type":"Feature"},{"geometry":{"coordinates":[5.1019870000000003,60.293492000000001],"type":"Point"},"id":"climbing-ut-145292713","properties":{"description":"Liafjell klatrefelt er et av de klassiske områdene for kileklatring i Bergensområdet. BKK arbeider med å legge ut alle de naturlig sikrede rutene i databasen. Dette er et omfattende arbeid. Foreløpig er det kun nye kileruter og reboltede bo...","elevation":170,"name":"Liafjell  - Tellnes\/Haganes","source":"UT.no\/DNT"},"type":"Feature"},{"geometry":{"coordinates":[5.1081209999999997,60.287460000000003],"type":"Point"},"id":"climbing-ut-145292714","properties":{"description":"Panoramaveggen er en tydelig flate mellom Stjerneveggen og Vigerusteggen. Det har vært klatret teknisk her lenge, men det ble ikke etablert noen rute før i 2013. Klatringen er svakt overhengende kileklatring på fast fjell à la Propagandaveg...","elevation":104,"name":"Panoramaveggen  - Tellnes\/Haganes","source":"UT.no\/DNT"},"type":"Feature"},{"geometry":{"coordinates":[5.1059359999999998,60.289679999999997],"type":"Point"},"id":"climbing-ut-145292715","properties":{"description":"Propagandaveggen er et av de klassiske craggene i Bergen. Veggen er bratt med mange fine harde ruter. Noen av rutene er plaget av vannsig. De fleste rutenavnene er malt på veggen ved innsteget. Feltet er beskrevet i siste utgave av Klatrefø...","elevation":112,"name":"Propagandaveggen - Tellnes\/Haganes","source":"UT.no\/DNT"},"type":"Feature"},{"geometry":{"coordinates":[5.1109540000000004,60.288851999999999],"type":"Point"},"id":"climbing-ut-145292717","properties":{"description":"Trollspeilet klatrefelt er en sydvendt svavegg med stort sett vanskelig klatring på rent fast fjell. Feltet er beskrevet i siste utgave av Klatrefører for Bergen, se vedlagt lenke. Skikk og bruk ved klatring utendørs Topptauklatring bør utf...","elevation":132,"name":"Trollspeilet - Tellnes\/Haganes","source":"UT.no\/DNT"},"type":"Feature"},{"geometry":{"coordinates":[5.1009640000000003,60.291552000000003],"type":"Point"},"id":"climbing-ut-145292718","properties":{"description":"Trollveggen er et av de klassiske områdene for kileklatring i Bergensområdet. Feltet er beskrevet i siste utgave av Klatrefører for Bergen, se vedlagt lenke. Skikk og bruk ved klatring utendørs Topptauklatring bør utføres med tau tredd i eg...","elevation":110,"name":"Trollveggen - Tellnes\/Haganes","source":"UT.no\/DNT"},"type":"Feature"},{"geometry":{"coordinates":[4.9725299999999999,60.331539999999997],"type":"Point"},"id":"climbing-ut-145293951","properties":{"description":"Lokøy - klatreveggen byr på sva- og veggklatring, men har også noen små overheng. Rutene befinner seg i nedre del av graderingsskalaen og er egnet for nybegynnere. Det er plassert flere rapellfester på platået over veggen, disse gjør det re...","elevation":23,"name":"Lokøy","source":"UT.no\/DNT"},"type":"Feature"},{"geometry":{"coordinates":[4.9009530000000003,60.331747],"type":"Point"},"id":"climbing-ut-145293957","properties":{"description":"Løno er en øy som ligger vest for Lokøy. Eneste adkomst til Løno er med båt. Løno ble fraflyttet på 1950-tallet, og på det meste var det opptil 70 mennesker som bodde fast her. Øya hadde også egen skole. I dag eier Bergen og Omland Frilufts...","elevation":6,"name":"Løno klatrefelt","source":"UT.no\/DNT"},"type":"Feature"},{"geometry":{"coordinates":[5.0225629999999999,60.304152999999999],"type":"Point"},"id":"climbing-ut-145293958","properties":{"description":"Neseveggen - Rutene har høy kvalitet, så veggen er verdt et besøk selv om den er liten. Veggen er sørvendt, noe som kan gi varme klatreforhold på vinteren. Det er også buldremuligheter i området. Feltet er beskrevet i siste utgave av Klatre...","elevation":28,"name":"Neseveggen klatrefelt","source":"UT.no\/DNT"},"type":"Feature"},{"geometry":{"coordinates":[4.9809640000000002,60.330914],"type":"Point"},"id":"climbing-ut-145293959","properties":{"description":"Piratbukta - jevnt svakt overhengende klatring på store tak. Noe tynnere klatring mot toppen. Veggen er 13 meter høy, og 2 meter overhengende på det bratteste. Feltet er beskrevet i siste utgave av Klatrefører for Bergen, se vedlagt lenke. ...","elevation":8,"name":"Piratbukta klatrefelt","source":"UT.no\/DNT"},"type":"Feature"},{"geometry":{"coordinates":[5.0422840000000004,60.298597000000001],"type":"Point"},"id":"climbing-ut-145293962","properties":{"description":"Sageveggen byr hovedsakelig på hard klatring av høy kvalitet. Det er skog i området rundt veggen, sikrer står i skyggen. Veggen trenger imidlertid noen dager på å tørke etter regnvær, og det kan være mye mygg her om høsten. Feltet er beskre...","elevation":14,"name":"Sageveggen klatrefelt","source":"UT.no\/DNT"},"type":"Feature"},{"geometry":{"coordinates":[5.0505639999999996,60.305338999999996],"type":"Point"},"id":"climbing-ut-145293968","properties":{"description":"Selvågen klatrefelt er en vegg som er såvidt synlig fra hovedveien når man kjører ned bakken mot Sageveggen. Derfra ser det ut som om veggen kan ligge ganske nært et bolighus. Veggen ligger imidlertid ganske skjult til i en fin vik og med g...","elevation":12,"name":"Selvågen klatrefelt","source":"UT.no\/DNT"},"type":"Feature"},{"geometry":{"coordinates":[5.008616,60.332630999999999],"type":"Point"},"id":"climbing-ut-145293969","properties":{"description":"Signalveggen byr på loddrett og svakt overhengende veggklatring, samt noen svaruter i høyre kant. Flere av rutene i hovedveggen holder bra kvalitet og rutene på kortveggen gir mye klatring på relativt få meter. Veggen er vestvendt med sol f...","elevation":58,"name":"Signalveggen klatrefelt","source":"UT.no\/DNT"},"type":"Feature"},{"geometry":{"coordinates":[5.0165499999999996,60.306198000000002],"type":"Point"},"id":"climbing-ut-145293970","properties":{"description":"Skyggenes dal klatrefelt byr på for det meste vertikal, teknisk veggklatring på meget kompakt fjell med ruter av høy kvalitet, vegghøyde ca 15m. Veggen har lite sol (derav navnet), men om sommeren får den kveldssol fra ca. kl 18:30. Anmarsj...","elevation":3,"name":"Skyggenes dal","source":"UT.no\/DNT"},"type":"Feature"},{"geometry":{"coordinates":[4.9774960000000004,60.333734999999997],"type":"Point"},"id":"climbing-ut-145293971","properties":{"description":"Syltøyveggen er svakt overhengende og byr på utsøkt listeklatring på rødlig, fast fjell. Så godt som alle rutene er av meget høy kvalitet. Fine omgivelser, med kort vei til sjøen og kveldsol, gjør dette til et av de mest populære sommercrag...","elevation":5,"name":"Syltøy","source":"UT.no\/DNT"},"type":"Feature"},{"geometry":{"coordinates":[4.96922,60.266466999999999],"type":"Point"},"id":"climbing-ut-145293972","properties":{"description":"Fiskesleppet klatrevegg i Telavåg like ved Nordsjøløypa i vakre og barnevennlige omgivelser. Hoveddelen av feltet ble utviklet av Telavåg skule i 2011. Senere kom det til noen hardere ruter på en vegg i venstre kant av feltet. Mange av rute...","elevation":35,"name":"Fiskesleppet klatrefelt","source":"UT.no\/DNT"},"type":"Feature"},{"geometry":{"coordinates":[5.0232659999999996,60.222895999999999],"type":"Point"},"id":"climbing-ut-145293973","properties":{"description":"Glesnes klatrefelt på Glesnes ligger i Sund kommune helt syd på Sotra. Veggen ble oppdaget våren 2005. Feltet har en del ruter av høy kvalitet, men klatringen er utypisk for Sotra. For det første er veggen svært bratt, ca 20 til 30 grader o...","elevation":6,"name":"Glesnes klatrefelt","source":"UT.no\/DNT"},"type":"Feature"},{"geometry":{"coordinates":[5.0239099999999999,60.208534],"type":"Point"},"id":"climbing-ut-145293974","properties":{"description":"Glesvær klartefelt - klipper ved sjøen like ved Glesvær med naturlig sikrede ruter. Tre ruter ble gått i 2012 og mange nye ruter ble etablert i 2021. Feltet er delt opp i en øvre og nedre del. Den øvre veggen har opp mot 10 meter lange rute...","elevation":38,"name":"Glesvær klatrefelt","source":"UT.no\/DNT"},"type":"Feature"},{"geometry":{"coordinates":[5.0208830000000004,60.220241000000001],"type":"Point"},"id":"climbing-ut-145293975","properties":{"description":"Goltastraumen klatrefelt ligger i kanalen under broen over til Golten. Under utviklingen av veggen er den derfor gjerne omtalt som Glesnes-Kanalen. Som Glesnesveggen er de fleste rutene bratte på slappe hull og pincher. Sideveggene har imid...","elevation":13,"name":"Goltastraumen klatrefelt","source":"UT.no\/DNT"},"type":"Feature"},{"geometry":{"coordinates":[5.0041060000000002,60.284162000000002],"type":"Point"},"id":"climbing-ut-145293976","properties":{"description":"Kjereide er et stort felt på utviklet i 2019. Feltet består av flere vegger med ulik vinkel og himmelretning, men klatringen er jevnt over av høy kvalitet og loddrett\/svakt overhengende på gode tak. Den store veggen nede i viken har sol om ...","elevation":6,"name":"Kjereide klatrefelt","source":"UT.no\/DNT"},"type":"Feature"},{"geometry":{"coordinates":[5.1124939999999999,60.195003],"type":"Point"},"id":"climbing-ut-145293977","properties":{"description":"Stjernehimmelen er en ca 25m høy klippe som byr på flott naturlig sikret klatring. Hovedsakelig ren rissklatring av høy kvalitet. Veggen ligger nesten helt sør på Sotra og har foreløpig åtte ruter. Rutene har graderinger fra 5 til 7 og byr ...","elevation":92,"name":"Stjernehimmelen klatrefelt","source":"UT.no\/DNT"},"type":"Feature"},{"geometry":{"coordinates":[5.0115559999999997,60.210954000000001],"type":"Point"},"id":"climbing-ut-145293978","properties":{"description":"Storeklubben - naturlig sikrede ruter i havgapet rett utenfor Golta. Sted som er eksponert for vær og vind (syd- og vestvendt). God fjellkvalitet og det er også muligheter for noe buldring. Klippen har vært kjent en stund, og det kan ha vær...","elevation":28,"name":"Storeklubben klatrevegg","source":"UT.no\/DNT"},"type":"Feature"},{"geometry":{"coordinates":[5.0209200000000003,60.210475000000002],"type":"Point"},"id":"climbing-ut-145293979","properties":{"description":"Tuo - nybegynnervennlige ruter på god fjellkvalitet i spektakulære omgivelser med utsikt ut i havet. Svaklatring med enkelte vertikale partier. Værutsatt men siden veggen er sørlig vendt kan spesielt venstre del av feltet være i le for nord...","elevation":6,"name":"Tuo klatrefelt","source":"UT.no\/DNT"},"type":"Feature"},{"geometry":{"coordinates":[5.0433469999999998,60.163908999999997],"type":"Point"},"id":"climbing-ut-145293980","properties":{"description":"Vikso - vertikal klatring i havgapet, på meget høy steinkvalitet. Det meste av klatringen er på syvertallet. Feltet ligger helt sør og ytterst ut i havet på Sotra. Det er beskyttet bak en molo men vær forsiktig dersom det er springflo eller...","elevation":2,"name":"Vikso klatrefelt","source":"UT.no\/DNT"},"type":"Feature"},{"geometry":{"coordinates":[5.0047309999999996,60.280341],"type":"Point"},"id":"climbing-ut-145293981","properties":{"description":"Ville Vesten - klipper på Sotras uutforskede vestfront. Feltet er beskrevet i siste utgave av Klatrefører for Bergen, se vedlagt lenke. Skikk og bruk ved klatring utendørs Topptauklatring bør utføres med tau tredd i eget utstyr i ankeret fo...","elevation":62,"name":"Ville vesten klatrefelt","source":"UT.no\/DNT"},"type":"Feature"},{"geometry":{"coordinates":[5.0832379999999997,60.450713],"type":"Point"},"id":"climbing-ut-145293982","properties":{"description":"Boti - Veggen ligger lunt til innerst i en vik, og byr på hovedsakelig svaklatring på fjell av meget god kvalitet. De to rutene lengst til venstre er av mer vertikal karakter. Veggen er mellom 10 og 20 meter høy, de fleste rutene er på 15 m...","elevation":4,"name":"Boti klatrefelt","source":"UT.no\/DNT"},"type":"Feature"},{"geometry":{"coordinates":[5.1723140000000001,60.472935999999997],"type":"Point"},"id":"climbing-ut-145293984","properties":{"description":"Dronningen - Vertikal og lett overhengende vegg med klatring på for det meste gode tak. Feltet er ganske nordvendt, så solen kommer ikke før sen ettermiddag. Trenger noen dager på å tørke etter en regnværsperiode. Feltet ligger i åpen skog....","elevation":150,"name":"Dronningen klatrefelt","source":"UT.no\/DNT"},"type":"Feature"},{"geometry":{"coordinates":[5.244764,60.421792000000003],"type":"Point"},"id":"climbing-ut-145293985","properties":{"description":"Florvågøen - er et gammelt Askøyfelt som nå har fått en del nye ruter. Sva og loddrett klatring med innslag av hyller, men også noen brattere partier. Noe skarpt. En del artige tak og lommer. Feltet er beskrevet i siste utgave av Klatreføre...","elevation":18,"name":"Florvågøen","source":"UT.no\/DNT"},"type":"Feature"},{"geometry":{"coordinates":[5.1383720000000004,60.382720999999997],"type":"Point"},"id":"climbing-ut-145293986","properties":{"description":"Hjelteryggen - felt på Hjelteryggen med naturlig sikrede ruter. Feltet er beskrevet i siste utgave av Klatrefører for Bergen, se vedlagt lenke. Skikk og bruk ved klatring utendørs Topptauklatring bør utføres med tau tredd i eget utstyr i an...","elevation":72,"name":"Hjelteryggen klatrefelt","source":"UT.no\/DNT"},"type":"Feature"},{"geometry":{"coordinates":[5.1672859999999998,60.399514000000003],"type":"Point"},"id":"climbing-ut-145293987","properties":{"description":"Marikoven - I viken like ved Marikoven på Askøy ligger en samling mer eller mindre sammenhengende klipper. Klatringen er på fjell av god kvalitet, for det meste på sva, med enkelte vertikale ruter og innslag av overheng. Området er relativt...","elevation":26,"name":"Marikoven klatrefelt","source":"UT.no\/DNT"},"type":"Feature"},{"geometry":{"coordinates":[5.1754910000000001,60.432267000000003],"type":"Point"},"id":"climbing-ut-145293988","properties":{"description":"Myrveggen er en ca 20 meter høy vegg med til sammen 18 kilesikrede ruter i nærheten av Juvik på Askøy. Feltet ble utviklet av medlemmer av Askøy Klatreklubb på slutten av 80-tallet og det har de siste årene blitt tilført nye ruter. Stort se...","elevation":53,"name":"Myrveggen","source":"UT.no\/DNT"},"type":"Feature"},{"geometry":{"coordinates":[5.1403650000000001,60.472320000000003],"type":"Point"},"id":"climbing-ut-145294611","properties":{"description":"Rævuri - I 2016 ble det oppdaget at klippen fortsatte enda lengre mot høyre, og det har blitt etablert flere nye ruter på denne delen av veggen. Adkomsten til den nye delen innebærer litt scrambling forbi ruten \"Seks i kano\", før en kommer ...","elevation":35,"name":"Rævuri klatrefelt","source":"UT.no\/DNT"},"type":"Feature"},{"geometry":{"coordinates":[5.1999209999999998,60.445456],"type":"Point"},"id":"climbing-ut-145294612","properties":{"description":"Steinrusten - klatringen er i gjennomsnitt av loddrett type. Ligger i åpen skog, godt beskyttet mot vind. Sol fra ca 12. Feltet er beskrevet i siste utgave av Klatrefører for Bergen, se vedlagt lenke. Skikk og bruk ved klatring utendørs Top...","elevation":56,"name":"Steinrusten klatrefelt","source":"UT.no\/DNT"},"type":"Feature"},{"geometry":{"coordinates":[5.1645159999999999,60.395192000000002],"type":"Point"},"id":"climbing-ut-145294613","properties":{"description":"Straumberget klatrefelt - stort sett bratt sva eller vertikal klatring på fint fjell som tørker raskt. Veggen ligger idyllisk til, men er utsatt for vind fra nord\/vest. Hovedsakelig boltede ruter med noen få lettere, naturlig sikrede ruter....","elevation":36,"name":"Straumberget klatrefelt","source":"UT.no\/DNT"},"type":"Feature"},{"geometry":{"coordinates":[5.1987990000000002,60.398947],"type":"Point"},"id":"climbing-ut-145294614","properties":{"description":"Tunnelveggen - klatringen er sva og loddrett\/svakt overhengende på lister. Feltet er beskrevet i siste utgave av Klatrefører for Bergen, se vedlagt lenke. Skikk og bruk ved klatring utendørs Topptauklatring bør utføres med tau tredd i eget ...","elevation":15,"name":"Tunnelveggen klatrefelt","source":"UT.no\/DNT"},"type":"Feature"},{"geometry":{"coordinates":[5.2000789999999997,60.397990999999998],"type":"Point"},"id":"climbing-ut-145294615","properties":{"description":"Fabrikkveggen klatrevegg er lett overhengende klatring på fjell av høy kvalitet. Få, men fine ruter. Relativt bynært, like over Askøybroen. Parker på anvist sted. Ta hensyn til naboene like ved veggen, hold lydnivået lavt. Feltet er beskrev...","elevation":23,"name":"Fabrikkveggen klatrefelt","source":"UT.no\/DNT"},"type":"Feature"},{"geometry":{"coordinates":[5.1488129999999996,60.410877999999997],"type":"Point"},"id":"climbing-ut-145294616","properties":{"description":"Venusberget klatrefelt ligger idyllisk til i en liten vik på Follese sør på Askøy. Det er foreløpig få ruter etablert her. Et par lukkede prosjekter, et gammelt snufeste\/topptaufeste av ukjent opprinnelse. Stort potensiale for flere boltede...","elevation":1,"name":"Venusberget klatrefelt","source":"UT.no\/DNT"},"type":"Feature"},{"geometry":{"coordinates":[5.107208,60.382477999999999],"type":"Point"},"id":"climbing-ut-145294617","properties":{"description":"Vågeveggen - bynært felt med fast rød granitt og høy kvalitet på de hardere rutene. Det er kveldssol, men noe vannsig etter en periode med regn. Bratt nedstigning til feltet. Feltet er beskrevet i siste utgave av Klatrefører for Bergen, se ...","elevation":24,"name":"Vågeveggen klatrefelt","source":"UT.no\/DNT"},"type":"Feature"},{"geometry":{"coordinates":[5.9948459999999999,60.653989000000003],"type":"Point"},"id":"climbing-ut-145294618","properties":{"description":"Bolstadøyri klatrefelt er et stort felt med bolteruter og tekniske ruter. Feltet er beskrevet i siste utgave av Klatrefører for Bergen, se vedlagt lenke. Skikk og bruk ved klatring utendørs Topptauklatring bør utføres med tau tredd i eget u...","elevation":259,"name":"Bolstadøyri klatrefelt","source":"UT.no\/DNT"},"type":"Feature"},{"geometry":{"coordinates":[5.5473299999999997,60.714694999999999],"type":"Point"},"id":"climbing-ut-145294622","properties":{"description":"Eventyrveggen - i løpet av 2012-2013 er det utviklet et felt i Eikefet i Lindås, en times kjøring nord for Bergen. Veggen er rundt 300 meter bred og 60-80 meter høy på det høyeste men kun høyre del av veggen er utviklet så langt. Veggen er ...","elevation":181,"name":"Eventyrveggen","source":"UT.no\/DNT"},"type":"Feature"},{"geometry":{"coordinates":[5.721921,60.537840000000003],"type":"Point"},"id":"climbing-ut-145294630","properties":{"description":"Hetta -en svær og høy vegg med meget god fjellkvalitet. Feltet byr på svært variert klatring med forskjellige vinkler og bratthet. Både store formasjoner og mindre lister. En del av rutene er lange og krever min 70 meter tau. Store deler av...","elevation":156,"name":"Hetta klatrefelt","source":"UT.no\/DNT"},"type":"Feature"},{"geometry":{"coordinates":[5.5937150000000004,60.621671999999997],"type":"Point"},"id":"climbing-ut-145294631","properties":{"description":"Hjernemasseveggen klatrefelt og Oltidshelleren er beskrevet på nettsidene til Osterøy klatreklubb . BKK tar sikte på å inkludere disse feltene i en fremtidig versjon av bolteføreren og legger derfor rutene ut i databasen. Solen kommer først...","elevation":80,"name":"Hjernemasse klatrefelt","source":"UT.no\/DNT"},"type":"Feature"},{"geometry":{"coordinates":[5.722766,60.765574000000001],"type":"Point"},"id":"climbing-ut-145294632","properties":{"description":"Mostraumen klatrefelt ligger ved utløpet av Modalen en time å kjøre fra Bergen. De første rutene her ble borret i 2004. Helleristninger på veggen er fredet, og etter samtale med fylkeskonservatoren våren 2006 ble utviklingen tatt opp igjen....","elevation":76,"name":"Mostraumen klatrefelt","source":"UT.no\/DNT"},"type":"Feature"},{"geometry":{"coordinates":[5.063269,60.581775],"type":"Point"},"id":"climbing-ut-145294633","properties":{"description":"Perleveggen er en 60 meter høy hvit klippe av bergarten Anortositt som ligger ved Eldsfjellet på Holsnøy i Meland kommune nord for Bergen. Første synfaring ble foretatt høsten 2003, og de første rutene ble borret i løpet av 2004. Flere rute...","elevation":138,"name":"Perleveggen klatrefelt","source":"UT.no\/DNT"},"type":"Feature"},{"geometry":{"coordinates":[4.8660030000000001,60.553443000000001],"type":"Point"},"id":"climbing-ut-145294634","properties":{"description":"Uteveggen er en 15m høy klippe av gneiss av samme type som finnes på andre klatrefelt på Sotra og i Øygarden. Veggen ligger like ved Osundet på Blomøyna i Øygarden kommune. Helningen på veggen er tilnærmet loddrett, og veggen har mange besy...","elevation":16,"name":"Uteveggen klatrefelt","source":"UT.no\/DNT"},"type":"Feature"},{"geometry":{"coordinates":[5.8447389999999997,59.896909000000001],"type":"Point"},"id":"climbing-ut-145294635","properties":{"description":"Eikedalen klatrefelt er en liten og idyllisk nabodal til den langt større og mer kjente Uskedalen. Klatremulighetene i Eikedalen ble trolig oppdaget og utforsket første gang høsten 2006. Siden da er omkring 20 ruter etablert, og potensialet...","elevation":743,"name":"Eikedalen","source":"UT.no\/DNT"},"type":"Feature"},{"geometry":{"coordinates":[5.9943239999999998,59.869442999999997],"type":"Point"},"id":"climbing-ut-145294636","properties":{"description":"Hjortegryta klatrefelt ligger i Åsaredalen innenfor Fjellandsbø i Uskedalen. Klippen har fem boltede sportsklatreruter på sva. Klippen er utviklet av Bergen og Hordaland Turlag i forbindelse med kurs\/klatreaktiviteter. BHT har også dekket u...","elevation":430,"name":"Hjortegryta klatrefelt","source":"UT.no\/DNT"},"type":"Feature"},{"geometry":{"coordinates":[5.9489049999999999,59.894784999999999],"type":"Point"},"id":"climbing-ut-145294637","properties":{"description":"Uskedalen klartefelt Uskedalen ligger i Kvinnherad like ved Rosendal, ca 2,5-3 timer å kjøre fra Bergen. Fjellveggene tilbyr naturlig sikret svaklatring av meget høy kvalitet. Rutene er alt fra 15 til 850 meter lange. Rundt 60 ruter er så l...","elevation":163,"name":"Uskedalen klatrefelt","source":"UT.no\/DNT"},"type":"Feature"},{"geometry":{"coordinates":[9.980893,63.703583999999999],"type":"Point"},"id":"climbing-ut-145354353","properties":{"description":"Klatreperle på Selnes.","elevation":34,"name":"Selnesklippen","source":"UT.no\/DNT"},"type":"Feature"},{"geometry":{"coordinates":[14.017524,66.245384000000001],"type":"Point"},"id":"climbing-ut-145355251","properties":{"description":"Svafelt med noen få etablerte boltede ruter.","elevation":71,"name":"Onsdagssvaet","source":"UT.no\/DNT"},"type":"Feature"},{"geometry":{"coordinates":[10.884515,59.893420999999996],"type":"Point"},"id":"climbing-ut-146350633","properties":{"elevation":252,"name":"Hauktjern","source":"UT.no\/DNT"},"type":"Feature"},{"geometry":{"coordinates":[13.951473999999999,66.241203999999996],"type":"Point"},"id":"climbing-ut-146693149","properties":{"description":"Klatrefelt med to boltede ruter.","elevation":26,"name":"Hagen","source":"UT.no\/DNT"},"type":"Feature"},{"geometry":{"coordinates":[9.6836439999999993,63.627574000000003],"type":"Point"},"id":"climbing-ut-146704762","properties":{"description":"Kaldklovafjellet ligger på Agdenes, og har en stor og populær klatrevegg. Det er mange fine klatreruter i veggen, de fleste på trad, men det finnes også en del boltede ruter. De fleste rutene er i en relativt enkel vanskelighetsgrad, så det...","elevation":123,"name":"Kaldklova klatrefelt","source":"UT.no\/DNT"},"type":"Feature"},{"geometry":{"coordinates":[5.3071020000000004,59.424497000000002],"type":"Point"},"id":"climbing-ut-146715193","properties":{"description":"Klatrejungelen kan benyttes av alle som har lyst og energi til å utfordre sin balanse og koordinasjon. Barn må være i følge med voksne. Da vi er i naturen benyttes klatrejungelen på eget ansvar. Av sikkerhetsmessige årsaker kan ikke klatrej...","elevation":91,"name":"Djupadalen klatrejungel, for de minste","source":"UT.no\/DNT"},"type":"Feature"},{"geometry":{"coordinates":[8.8181399999999996,60.680247999999999],"type":"Point"},"id":"climbing-ut-146757151","properties":{"description":"Natten er et flott klatrefelt som ligger like vest for Gol sentrum. Feltet byr på utfordringer for de fleste i barnevennlige omgivelser.","elevation":334,"name":"Klatring på Natten","source":"UT.no\/DNT"},"type":"Feature"},{"geometry":{"coordinates":[9.1382270000000005,60.572544999999998],"type":"Point"},"id":"climbing-ut-146888959","properties":{"description":"Et barne- og nybegynnervennlig klatrefelt like ovenfor Nesbyen sentrum, med parkering langs veien rett ved veggen. Rutene egner seg godt for barnefamilier og andre som ønsker å øve på uteklatring i trygge, oversiktlige omgivelser. Og bare n...","elevation":277,"name":"Introsvaene klatrefelt","source":"UT.no\/DNT"},"type":"Feature"},{"geometry":{"coordinates":[8.5304570000000002,60.857402999999998],"type":"Point"},"id":"climbing-ut-146889212","properties":{"description":"Skiheisveggen eller Svarteberg som det står på kartet er beryktet for sine harde ruter som ingen helt hvem som har etablert. Men klatrer du på 7 og 8 nivå er dette helt klart beste stedet i Hemsedal. Feltet ses tydelig til venstre for Hemse...","elevation":813,"name":"Skiheisveggen klatrefelt","source":"UT.no\/DNT"},"type":"Feature"},{"geometry":{"coordinates":[8.5636419999999998,60.865830000000003],"type":"Point"},"id":"climbing-ut-146889213","properties":{"description":"Trøimsberget er en opptil 40 m høy svavegg som ligger like utenfor Hemsedal sentrum. Feltet har noen korte og forholsvis enkle borebolt ruter som er fine for nybegynnere og for barn. I tillegg er det noen lengre borebolt- og miksruter. Park...","elevation":678,"name":"Trøimsberget klatrefelt","source":"UT.no\/DNT"},"type":"Feature"},{"geometry":{"coordinates":[8.8239909999999995,61.289644000000003],"type":"Point"},"id":"climbing-ut-146889214","properties":{"description":"Godt nybegynnersted som også har noen ruter for mer drevne. Veggen er ca. 15 meter høy med rundt 15 ruter. Feltet ligger ca. 15 minutters gange fra Lykkjastølen. Følg først sti noen minutter og skrå deretter oppover lia. Følg så videre mot ...","elevation":1239,"name":"Heklefjell klatrefelt","source":"UT.no\/DNT"},"type":"Feature"},{"geometry":{"coordinates":[9.2272339999999993,60.993678000000003],"type":"Point"},"id":"climbing-ut-146889215","properties":{"description":"Klatrefelt med fine utfordringer for middels gode klatrere. Høyden på veggen er fra 5 til 20 meter og bredden er på ca. 60 meter. 10 ruter med definerte grader fra 4 til 7. Adkomst: Fra Fagernes sentrum kjør Skrautvålsvegen til avkjøringen ...","elevation":441,"name":"Marsteinshøgda klatrefelt","source":"UT.no\/DNT"},"type":"Feature"},{"geometry":{"coordinates":[9.7818290000000001,60.832887999999997],"type":"Point"},"id":"climbing-ut-146889216","properties":{"description":"Hovedveggen i Jarberget er imponerende 50 meter høy og litt av et skue. Lister og sidetak dominerer klatringen med innslag av overheng og vertikale utfordringer. Klippen tørker raskt. Rutenr 28–33 er regntette. Det er her bålplassen er anla...","elevation":265,"name":"Jarberget klatrefelt","source":"UT.no\/DNT"},"type":"Feature"},{"geometry":{"coordinates":[9.2880889999999994,60.977308999999998],"type":"Point"},"id":"climbing-ut-146889217","properties":{"description":"Flaggberget på Leira med bergflagget og den hvite paviljongen sees tydelig fra veien opp mot flyplassen. Følg veien videre oppover til fots i ca. 50 meter og ta skarpt opp til høyre i svingen. Litt utydelig sti, men følg denne opp under ber...","elevation":488,"name":"Klatrefelt Flaggberget på Leira","source":"UT.no\/DNT"},"type":"Feature"},{"geometry":{"coordinates":[5.9571290000000001,58.833831000000004],"type":"Point"},"id":"climbing-ut-146889218","properties":{"description":"Lyngveggen er et boltet klatrefelt med ruter fra 5+ til 7+\/8-.","elevation":343,"name":"Lyngveggen klatrefelt","source":"UT.no\/DNT"},"type":"Feature"},{"geometry":{"coordinates":[10.455337999999999,64.345314999999999],"type":"Point"},"id":"climbing-ut-146889221","properties":{"description":"Håmannsvikhallin ved Vingsand i Osen har to huler som er meget populære i buldre-miljøet: Langfredag og Lynx . Adkomst: Med bil til Vingsand. Parkering ved havna eller ved utgangspunktet for stien opp til hulene. Stien opp til hulene er noe...","elevation":41,"name":"Håmannsvikhallin","source":"UT.no\/DNT"},"type":"Feature"},{"geometry":{"coordinates":[11.068196,59.233347999999999],"type":"Point"},"id":"climbing-ut-146889222","properties":{"description":"Vetatoppen er et stort buldrefeltet I Østfold, med godt over 100 buldere og problemer. Her er det mye bra for alle, fra barn til den dedikerte buldreren. Feltet kan deles opp i 4 ulike sektorer. Anmarsjen er meget grei fra parkeringsplassen...","elevation":76,"name":"Buldrefeltet ved Vetatoppen","source":"UT.no\/DNT"},"type":"Feature"},{"geometry":{"coordinates":[6.9371340000000004,59.022272000000001],"type":"Point"},"id":"climbing-ut-146889223","properties":{"description":"1 km fra Stavanger Turistforenings utleiehytte på Ådneram ligger et lite klatrefelt. Vi har boltet 5 doble ringhengere i veggen med lenke til under. 2 tilkomstankere og 3 toppankere. Veggen er med andre ord klargjort for klatring på tre uli...","elevation":674,"name":"Klatrefelt ved Ådneram","source":"UT.no\/DNT"},"type":"Feature"},{"geometry":{"coordinates":[6.6598610000000003,58.155096],"type":"Point"},"id":"climbing-ut-146889224","properties":{"description":"Borgåsen klatrefelt på Lista er i le for alle vinder og har sol til kl.17. Det er greit å gå vesteggen opp til rapellankere som står på toppen. Det er 28m ned til hylla over Cornflakes. Her er flotte naturlige riss som er børstet. Oversikt:...","elevation":141,"name":"Borgåsen klatrefelt","source":"UT.no\/DNT"},"type":"Feature"},{"geometry":{"coordinates":[9.0518009999999993,60.617874],"type":"Point"},"id":"climbing-ut-146889808","properties":{"description":"Tyribakken er et imponerende klippefelt et par kilometer vest for Nesbyen. Den karakteristisk veggen rager rundt 60 meter i høyden og har en overhengende profil som gjør at de fleste rutene holder seg tørre uansett vær. Unntaket er litt sil...","elevation":345,"name":"Tyribakken klatrefelt","source":"UT.no\/DNT"},"type":"Feature"}],"generator":"Trakke fetch_utno_poi.swift","timestamp":"2026-08-10T00:27:31Z","type":"FeatureCollection"}