{"attribution":"UT.no\/DNT","features":[{"geometry":{"coordinates":[4.9459080000000002,60.310138000000002],"type":"Point"},"id":"fishing-ut-14102357","properties":{"description":"Duøyna ligg aust for Hissøyna. Øya er kupert med små viker og fine fiskeplassar. God fortøyningsplass på nordvestsida og bak ei holme på austsida. I vika på austsida er det grasmark, som er fin for telting. Her kan du lett gå i land med kaj...","elevation":15,"name":"Duøyna","source":"UT.no\/DNT"},"type":"Feature"},{"geometry":{"coordinates":[5.3548049999999998,60.959336999999998],"type":"Point"},"id":"fishing-ut-141460","properties":{"description":"Støl","elevation":286,"name":"Furdalsstølen","source":"UT.no\/DNT"},"type":"Feature"},{"geometry":{"coordinates":[10.743427000000001,64.197519],"type":"Point"},"id":"fishing-ut-141581","properties":{"description":"Austvatnet er et godt fiskevann med mulighet for å leie båter og garn.","elevation":343,"name":"Austvatnet","source":"UT.no\/DNT"},"type":"Feature"},{"geometry":{"coordinates":[9.7920230000000004,59.433262999999997],"type":"Point"},"id":"fishing-ut-141690","properties":{"description":"Fiskeplasser både ved Burtjern, rett ned for Presteseterhytta (Larvik og Omegn Turistforening) og ved Siljuvannet som ligger nedenfor brua (sørøstover). Siljuvannet er nordre del av det større vannet Kopa. Adkomst enten fra Krokenveien i Sv...","elevation":440,"name":"Burtjern \/ Siljuvannet","source":"UT.no\/DNT"},"type":"Feature"},{"geometry":{"coordinates":[8.9738559999999996,60.764282000000001],"type":"Point"},"id":"fishing-ut-141717","properties":{"description":"Ved Ørkvatnet er det tillatt å fiske. Fiskekort kan kjøpes av Golsfjellet fiskeforening. Det er plassert en sittebenk ved vannet og det er også mulig å sette opp telt langs bredden.","elevation":807,"name":"Ørkvatnet","source":"UT.no\/DNT"},"type":"Feature"},{"geometry":{"coordinates":[10.783854,64.210661000000002],"type":"Point"},"id":"fishing-ut-141812","properties":{"description":"Gapahuk","elevation":390,"name":"Gapahuk essen","source":"UT.no\/DNT"},"type":"Feature"},{"geometry":{"coordinates":[10.810803999999999,64.251594999999995],"type":"Point"},"id":"fishing-ut-141817","properties":{"description":"Idyllisk rasteplass med oppbygd grill","elevation":267,"name":"Sandvatnet","source":"UT.no\/DNT"},"type":"Feature"},{"geometry":{"coordinates":[10.642276000000001,64.189036999999999],"type":"Point"},"id":"fishing-ut-141819","properties":{"description":"Utleiehytte med 5 soveplasser. Mulighet for leie av robåt og garn.","elevation":240,"name":"Elgsjøhytten","source":"UT.no\/DNT"},"type":"Feature"},{"geometry":{"coordinates":[7.4799300000000004,58.805714999999999],"type":"Point"},"id":"fishing-ut-141838","properties":{"description":"Det er mye fisk i Murtetjønn men ganske grunt langs land. Flue eller dobb anbefales","elevation":484,"name":"Fiskeplass Murtetjønn","source":"UT.no\/DNT"},"type":"Feature"},{"geometry":{"coordinates":[4.875934,60.500757999999998],"type":"Point"},"id":"fishing-ut-14201853","properties":{"description":"Heilt ute ligg Dethloff Hytta. Dette er ei privat eigd hytte som vart reist 1899-1900 av ekteparet Elise og Gottfried Dethloff. Begge to var lege. Elise Dethloff var sterkast opptatt av sine pasientars alminnelege ve og vel. Den gruppe som ...","elevation":20,"name":"Dethloffhytta","source":"UT.no\/DNT"},"type":"Feature"},{"geometry":{"coordinates":[5.3920130000000004,59.836190000000002],"type":"Point"},"id":"fishing-ut-142174","properties":{"description":"Ta gjerne med fiskestang, her er bra med fisk i vatnet, men litt småfallen.","elevation":166,"name":"Morkavatnet (Mørkavatnet)","source":"UT.no\/DNT"},"type":"Feature"},{"geometry":{"coordinates":[6.545223,60.035992],"type":"Point"},"id":"fishing-ut-142353","properties":{"description":"Flott plass ved Sandvinvatnet, egnet for fiske om en har fiskekort.","elevation":88,"name":"Badebukta","source":"UT.no\/DNT"},"type":"Feature"},{"geometry":{"coordinates":[10.328711,59.154490000000003],"type":"Point"},"id":"fishing-ut-142387221","properties":{"description":"Fiskeplass på sydspissen av øya. Sjøørrettfiske.","elevation":4,"name":"Langø","source":"UT.no\/DNT"},"type":"Feature"},{"geometry":{"coordinates":[10.411913,61.182504999999999],"type":"Point"},"id":"fishing-ut-142408","properties":{"description":"Målet for turen er Drotten og helleristningene, som er hogd inn fjellveggen helt inntil elva Lågen. Adkomst fra fylkesveg 319, som går på vestsida av Lågen mellom Jørstadmoen og Hunderfossen i Lillehammer kommune. Se etter skilt ved vegen. ...","elevation":134,"name":"Helleristninger ved Drotten","source":"UT.no\/DNT"},"type":"Feature"},{"geometry":{"coordinates":[10.980363000000001,59.987653999999999],"type":"Point"},"id":"fishing-ut-142609426","properties":{"description":"\"De vanligste fiskeslagene i Nitelva i Skedsmo er gjedde, mort, abbor, gjørs og en rekke karpefisker.\"","elevation":102,"name":"Fiskeplass ved Åros bru","source":"UT.no\/DNT"},"type":"Feature"},{"geometry":{"coordinates":[13.259296000000001,65.494421000000003],"type":"Point"},"id":"fishing-ut-142619","properties":{"description":"Kjør fra Trofors sentrum og ta av vegen ved Coop butikken, og kjør langs Vestersidvegen. Krysset inn til Stavassdalen er skiltet og man kan parkere bilen ved parkeringsplassen som ligger ved vegenden inne i dalen. Følg vegen til Stavassgård...","elevation":320,"name":"Stavatnet i Stavassdalen","source":"UT.no\/DNT"},"type":"Feature"},{"geometry":{"coordinates":[13.254296999999999,65.340830999999994],"type":"Point"},"id":"fishing-ut-142623","properties":{"description":"Ta av ved E6 i krysset til Brønnøysund, og kjør til du kommer til en forholdsvis stor parkeringsplass på venstre side. Skilt til Gåsvatnet er på høyre side. Følg sti og klopper til Gåstjønna og videre vestover. Du kommer til en traktorveg m...","elevation":324,"name":"Gåsvasstua","source":"UT.no\/DNT"},"type":"Feature"},{"geometry":{"coordinates":[14.463329,65.605862999999999],"type":"Point"},"id":"fishing-ut-142683","properties":{"description":"Mosvatnet er et meget attraktivt fiskevann, og ligger langs Nordlandsruta. For å komme til Mosvatnet kan man enten starte ved Tverrelvneset i Garsmarka (ca 8 km). Eller starte ved den gamle tollstasjonen på Krutfjellet. (ca 10 km). Nordland...","elevation":830,"name":"Mosvatnet ved Nordlandsruta","source":"UT.no\/DNT"},"type":"Feature"},{"geometry":{"coordinates":[12.268981999999999,60.843237999999999],"type":"Point"},"id":"fishing-ut-142733013","properties":{"description":"Du blir møtt av en intens stillhet. Når du nærmer deg vannkanten hører du de ertende vakene som hilser deg velkommen. I et vakkert skogsvann på mytiske Finnskogen kan du la hele verden falle til ro rundt det du er kommet for: Fiskeopplevels...","elevation":309,"name":"Høgsjøen - Ørretidyll på Finnskogen","source":"UT.no\/DNT"},"type":"Feature"},{"geometry":{"coordinates":[11.78318,62.450136000000001],"type":"Point"},"id":"fishing-ut-142756514","properties":{"description":"Flensmarka i Røros er et litt bortgjemt turparadis med fiskevann som perler på ei snor. Her på vestsiden av Femunden kan du få skikkelig stor fisk og naturopplevelser av høy klasse. Flensmarka byr både på ørret, abbor, røye og harr. Fangste...","elevation":713,"name":"Flensmarka - Friluftsparadiset","source":"UT.no\/DNT"},"type":"Feature"},{"geometry":{"coordinates":[15.108604,66.351280000000003],"type":"Point"},"id":"fishing-ut-142756516","properties":{"description":"Blerekområdet er et lett tilgjengelig eldorado av muligheter for den som vil prøve fiskelykken. Det er godt egnet for en dagstur. Eller kanskje frister det med en ukelang vandring i magiske omgivelser? Området består av et utall vann og tje...","elevation":680,"name":"Blerekvatnan - Tusenvannslandet","source":"UT.no\/DNT"},"type":"Feature"},{"geometry":{"coordinates":[13.324356,64.854772999999994],"type":"Point"},"id":"fishing-ut-142756529","properties":{"description":"Milelang blautmyr trenger ikke å ligge som ei blytung sperre mellom deg og flotte fiskeopplevelser. Sagnomsust fiske i Bjørkvatnet kan nærmest foregå fra førersetet. Timelang trasking er nok det eneste du går glipp av, faktisk. For her snak...","elevation":516,"name":"Bjørkvatnet - På taket av Trøndelag","source":"UT.no\/DNT"},"type":"Feature"},{"geometry":{"coordinates":[22.285423000000002,69.725483999999994],"type":"Point"},"id":"fishing-ut-142756534","properties":{"description":"Kvænangen er som skapt for den eventyrlystne fiskeren, et røyeparadis i vilt fjellandskap. Med alt fra fjære til høyfjell byr Kvænangen på unike muligheter for et rikt og variert friluftsliv. Likevel er det nok røyefisket som lokker mange h...","elevation":229,"name":"Kvænangen - Storslått røyefiske","source":"UT.no\/DNT"},"type":"Feature"},{"geometry":{"coordinates":[7.2346690000000002,59.195450000000001],"type":"Point"},"id":"fishing-ut-142756560","properties":{"description":"Nutevatn i Nardarheim ligger i hjertet av fjellørretens rike. Reisen dit er et strabasiøst eventyr, og du ender midt i villreinens rike. Nutevatn – eller Urdeviksvatnet som vannet heter på kartet – er et av Njardarheims flotteste fiskevann....","elevation":1020,"name":"Nutevatnet - Fjellørret av fineste sort","source":"UT.no\/DNT"},"type":"Feature"},{"geometry":{"coordinates":[15.961589999999999,67.790565000000001],"type":"Point"},"id":"fishing-ut-142756561","properties":{"description":"Hamarøy er en naturperle av de sjeldne. En bedre totalpakke skal du nemlig lete lenge etter. I en radius på et par kilometer finner du flere fantastiske fiskevann omkranset av vakker natur og fine turstier. Og du kan faktisk kjøre bil inn t...","elevation":145,"name":"Sagvassdalen - I Hamsuns rike","source":"UT.no\/DNT"},"type":"Feature"},{"geometry":{"coordinates":[13.546529,65.517836000000003],"type":"Point"},"id":"fishing-ut-142756573","properties":{"description":"Med stø kurs mot gammel storhet byr storlakselva Vefsna i Nordland igjen på fiskeopplevelser for livet. Erfarne fiskere sammenligner Vefsna med laksefiske i Alaska. Elva har stått uberørt i mer enn tre tiår. Dette gir en helt spesiell villm...","elevation":73,"name":"Vefsna - Klar for nye lakseeventyr","source":"UT.no\/DNT"},"type":"Feature"},{"geometry":{"coordinates":[14.472771,65.650065999999995],"type":"Point"},"id":"fishing-ut-143010","properties":{"description":"Brundreinvatnet ligger i Hattfjelldal kommune, og du kjører riksvei 73 til Krutfjellet. Start fra den gamle tollstasjonen øst for Krutvatnet. Følg den merka Nordlandsruta sørover i forholdsvis greit terreng. Brundreinvatnet er kjent for å v...","elevation":776,"name":"Brundreinvatnet","source":"UT.no\/DNT"},"type":"Feature"},{"geometry":{"coordinates":[5.3978919999999997,60.197786999999998],"type":"Point"},"id":"fishing-ut-143024","properties":{"description":"Mikkelsvatn er et tjern som er et fint turmål for både store og små. Traktorvei og siden sti fra Drangsveien og opp mot vannet. Tjern som ligger i Lysefjorden i Bjørnafjorden kommune.","elevation":214,"name":"Mikkelsvatnet","source":"UT.no\/DNT"},"type":"Feature"},{"geometry":{"coordinates":[10.9842,60.311599999999999],"type":"Point"},"id":"fishing-ut-143086","properties":{"description":"stor fin gapahuk ved honsjøen","elevation":448,"name":"Gapahuken ved Honsjøen","source":"UT.no\/DNT"},"type":"Feature"},{"geometry":{"coordinates":[10.804689,63.432633000000003],"type":"Point"},"id":"fishing-ut-143260","properties":{"description":"Fiskeplass ved Malvikstien","elevation":3,"name":"Svartneset","source":"UT.no\/DNT"},"type":"Feature"},{"geometry":{"coordinates":[9.2244200000000003,59.555129999999998],"type":"Point"},"id":"fishing-ut-143609","properties":{"description":"Semsøyene Naturreservat er et fredet område sør for flyplassen ved Heddølas utløp. Her er det bl.a. et yrende fugleliv. Vi ber folk å vise hensyn og respektere dette. Du kan kjøre over flyplassen og evt. parkere på høyre side før brua, vis ...","elevation":16,"name":"Semsøyene naturreservat","source":"UT.no\/DNT"},"type":"Feature"},{"geometry":{"coordinates":[8.8808699999999998,59.790295],"type":"Point"},"id":"fishing-ut-143621","properties":{"description":"Kålos ligger helt i sørenden av Sjåvatn (895 moh) i Tuddal og utløpet danner elva Kåla som er fredet. Fra Notodden kjører du til Tuddal. Ta til høyre inn Flugonvegen. Følg denne i overkant av 5 km til du kommer til Skitnetjønn som du har på...","elevation":900,"name":"Kåloset ved Sjåvatn","source":"UT.no\/DNT"},"type":"Feature"},{"geometry":{"coordinates":[10.495754,59.433644000000001],"type":"Point"},"id":"fishing-ut-143744","properties":{"description":"Bygget 1870 – 1874. Det nordligste av de tre batteriene med sine to forsenkede kanonstandplasser, bundet sammen med ca 30 meter lang overdekket gang. Denne inneholder i tillegg kruttmagasin, dekningsrom og geværgalleri. Standplassene og kan...","elevation":5,"name":"Møringbatteriet - KJV","source":"UT.no\/DNT"},"type":"Feature"},{"geometry":{"coordinates":[9.2994719999999997,59.644185999999998],"type":"Point"},"id":"fishing-ut-143816","properties":{"description":"Du kan sykle fra Notodden mot Lisleherad og deretter inn på grusveien som fører mot Dårstul. Alternativt kan du parkere ved bommen på Dårstulveien og sykle resten. Fra krysset er det bratt opp de første bakkene – så flater det ut etter brua...","elevation":275,"name":"Søndre Ramsåstjønn","source":"UT.no\/DNT"},"type":"Feature"},{"geometry":{"coordinates":[10.937984,60.089751],"type":"Point"},"id":"fishing-ut-143952048","properties":{"description":"Tjernet på nedsiden av Spikertjern hytta - en av DNT OO ubetjente hytter i Romeriksåsen.","elevation":275,"name":"Spikertjern","source":"UT.no\/DNT"},"type":"Feature"},{"geometry":{"coordinates":[10.43167,59.451979999999999],"type":"Point"},"id":"fishing-ut-144220","properties":{"description":"Stormodden \/ Mamre Lund. Denne turen egner seg også å utføre med båt\/kajakk. Nyere kart kaller den ytterste (nordre) delen av odden for Stormodden. I følge Det gamletestamentet var det i Mamre Lund Abraham bodde. Om sommeren er Mamre Lund e...","elevation":4,"name":"Stormodden","source":"UT.no\/DNT"},"type":"Feature"},{"geometry":{"coordinates":[10.390435,59.440345000000001],"type":"Point"},"id":"fishing-ut-144224","properties":{"description":"Turbeskrivelse:https:\/\/ut.no\/tur\/2.3356\/ Padletur: https:\/\/ut.no\/tur\/2.7672\/ Frebergsvik var i sin tid et lite ladested, vesentlig p.g.a. tømmerutførselen, men det fantes også flere saltkokerier her. Frebergsvik var en trygg og god havn, og...","elevation":2,"name":"Frebergsvik-Garnbakken","source":"UT.no\/DNT"},"type":"Feature"},{"geometry":{"coordinates":[7.98672,58.114787],"type":"Point"},"id":"fishing-ut-144801227","properties":{"description":"Et yndet sted for å prøve fiskelykken eller kose seg i sola om sommeren. Fin utsikt mot byen og Bragdøya.","elevation":1,"name":"Fiskeplassen på Andøya mot Steinsundet","source":"UT.no\/DNT"},"type":"Feature"},{"geometry":{"coordinates":[7.9735680000000002,58.088852000000003],"type":"Point"},"id":"fishing-ut-144801228","properties":{"description":"Ved denne bukta er det stor sjanse for at fiskemiddagen blir berget. Hvis den ikke biter her, kan du teste å gå mot Hellevika og oddene mellom de. En nydelig plass å slappe av i sola er det også!","elevation":1,"name":"Fiskeplassen ved Gunnersnesbukta","source":"UT.no\/DNT"},"type":"Feature"},{"geometry":{"coordinates":[7.9655779999999998,58.117666999999997],"type":"Point"},"id":"fishing-ut-144801229","properties":{"description":"Storenes i Vågsbygd ligger mellom Auglandsbukta og Kjosbukta. I området her er det stor sjanse for å få fisk på kroken. Hvis det ikke blir napp, er det strand og svaberg som frister for bading og soling.","elevation":1,"name":"Fiskeplassen ved Storenes","source":"UT.no\/DNT"},"type":"Feature"},{"geometry":{"coordinates":[7.9940189999999998,58.109332999999999],"type":"Point"},"id":"fishing-ut-144803226","properties":{"description":"Ute på denne holmen er det gode sjangser for at fisken biter. Det er flere fine plasser, så pakk med fiskestenger, nisten og sjekk ut området.","elevation":2,"name":"Fiskeplassen ved Bredalsholmen","source":"UT.no\/DNT"},"type":"Feature"},{"geometry":{"coordinates":[11.566053,59.439506000000002],"type":"Point"},"id":"fishing-ut-144844796","properties":{"description":"Frønesjøen ligger i delet mellom Rakkestad og Marker. Ved Frønesjøen er det etablert teltplasser, sittegrupper, bålplasser, gapahuker og utedoer. Området egner seg godt for bading og kano\/kajakkpadling. Frønesjøen er også et godt fiskevann ...","elevation":183,"name":"Frønesjøen","source":"UT.no\/DNT"},"type":"Feature"},{"geometry":{"coordinates":[7.9240959999999996,58.124434999999998],"type":"Point"},"id":"fishing-ut-144934130","properties":{"description":"Grimsvannet er en lite vann i Vågsbygd. Det er mange muligheter for en dukkert. Ryktene sier også at det er et godt fiskevann. Husk å kjøpt fiskekort for Kristiansand. Du får kjøpt det på Grønberg sport.","elevation":54,"name":"Grimsvannet","source":"UT.no\/DNT"},"type":"Feature"},{"geometry":{"coordinates":[7.9483499999999996,58.177613999999998],"type":"Point"},"id":"fishing-ut-144934131","properties":{"description":"Grunnevann er et av flere vann i Bymarka. Det sies at det er et godt fiskevann, og ryktene sier at det er her du får den størte fisken av alle i Bymarka. Husk å kjøp fiskekort over Kristiansand.","elevation":108,"name":"Grunnevann, bymarka","source":"UT.no\/DNT"},"type":"Feature"},{"geometry":{"coordinates":[7.8717969999999999,58.209288999999998],"type":"Point"},"id":"fishing-ut-144952662","properties":{"description":"Homevann er et nydelig vann i flott natur. Dette er en av vannene som inngår i Kristiansands fiskekort. Ta turen og prøv fiskelykken! Du får kjøpt fiskekort på Grønberg Sport.","elevation":186,"name":"Homevann","source":"UT.no\/DNT"},"type":"Feature"},{"geometry":{"coordinates":[11.562950000000001,59.441811999999999],"type":"Point"},"id":"fishing-ut-144957348","properties":{"description":"Røttjern, i gamle kart står det Røtatjern, er et tjern som ligger i delet mellom Rakkestad og Marker kommune. Ikke langt fra Frøne. Tjernet ligger tett inntil blåmerket sti og er et godt fiskevann.","elevation":201,"name":"Røttjern","source":"UT.no\/DNT"},"type":"Feature"},{"geometry":{"coordinates":[8.8739899999999992,63.733184000000001],"type":"Point"},"id":"fishing-ut-144959705","properties":{"description":"I Lamøyvågen vil du finne en minnebauta som er reist etter en heltemodig operasjon, den såkalte Gulltransporten. Operasjonen var å berge den siste delen av den norske stats gullbeholdning fra nazistene under den andre verdenskrig. Flere frø...","elevation":2,"name":"Lamøyvågen på Inntian","source":"UT.no\/DNT"},"type":"Feature"},{"geometry":{"coordinates":[9.3240400000000001,59.610442999999997],"type":"Point"},"id":"fishing-ut-144959710","properties":{"description":"Nordvest for Elgsjø. Nordover på vei like vest for kafeen til Vassenden. Deretter på merka si.","elevation":387,"name":"Kroktjønn","source":"UT.no\/DNT"},"type":"Feature"},{"geometry":{"coordinates":[11.336546,60.465040999999999],"type":"Point"},"id":"fishing-ut-144971602","properties":{"description":"Dette er en flott plass hvor du både kan fiske, bade og ta en pause. Det er abbor og ørret i denne sjøen. Fiskekort kjøper du av Stange JFF.","elevation":371,"name":"Ottsjøen","source":"UT.no\/DNT"},"type":"Feature"},{"geometry":{"coordinates":[10.867554,59.990650000000002],"type":"Point"},"id":"fishing-ut-145030550","properties":{"description":"Aurevann er kjent som ett av Oslomarkas beste ørretvann, men er også et flott plass for telting og bading.","elevation":294,"name":"Aurevann","source":"UT.no\/DNT"},"type":"Feature"},{"geometry":{"coordinates":[11.742483999999999,59.731490000000001],"type":"Point"},"id":"fishing-ut-145238490","properties":{"description":"Vakre Vortungen er en innsjø i Rømskog, og et fint turmål. Her kan du oppleve fin natur fra vannet med kano, utforske fine turområder i skog og mark på beina eller fra sykkelsetet – eller bare nyte godværet ved vannkanten. Vortungen huser b...","elevation":214,"name":"Vortungen","source":"UT.no\/DNT"},"type":"Feature"},{"geometry":{"coordinates":[15.425611999999999,66.751560999999995],"type":"Point"},"id":"fishing-ut-145256144","properties":{"description":"En liten times gange vest for jernbanen er du inne i nasjonalparkens stillhet. Spesielt om vinteren er vannet populært for isfiske. Variabel størrelse på ørret og røyr. Statskog selger fiskekort på nett. (Tips: Dårlig nettforbindelse oppe v...","elevation":629,"name":"Kjemåvannet","source":"UT.no\/DNT"},"type":"Feature"},{"geometry":{"coordinates":[5.1980060000000003,61.422877999999997],"type":"Point"},"id":"fishing-ut-145262697","properties":{"description":"Turen startar ved Stongfjorden skule. Her er det skogsveg austover innGjerdedalen mot Trengeskaret. Vi passerar ei fotballbane og ein spesiell Gapahuk. Ved Trengeskaret går stien nordover gjennom frodig lauvskog i noko myrlent terreng, over...","elevation":99,"name":"Industriminneløypa Stongfjorden","source":"UT.no\/DNT"},"type":"Feature"},{"geometry":{"coordinates":[6.0489680000000003,60.476328000000002],"type":"Point"},"id":"fishing-ut-145313808","properties":{"description":"Søyevatnet og Dyrdalsvatnet - nydelige fiskevann ved Vending Vannene ligger rundt tjue minutters gange fra turisthytten Vending i Bergsdalen i retning Gullhorgabu. Vannet er delt i et stort vann og har en rekke tilknyttede tjern som Dyradal...","elevation":749,"name":"Søyevatnet og Dyradalsvatnet","source":"UT.no\/DNT"},"type":"Feature"},{"geometry":{"coordinates":[6.244726,60.909460000000003],"type":"Point"},"id":"fishing-ut-145313809","properties":{"description":"Vassøyane - nydelig fiskeplass ved Selhamar Fiskevannet ligger like ved Selhamar Turisthytte og byr på et rikt ørretfiske. Vannet har en rekke gode fiskeplasser fra land – slik som osen fra Selhamarvatnet som ligger et steinkast fra hytten....","elevation":866,"name":"Vassøyane","source":"UT.no\/DNT"},"type":"Feature"},{"geometry":{"coordinates":[4.9209630000000004,60.492753],"type":"Point"},"id":"fishing-ut-145316018","properties":{"description":"Ormhilleren er mest kjent som badeplass i sommerhalvåret – men er også en flott fiskeplass ved med vakker havutsikt mot Nordsjøen. Det er tilknyttet parkering til Ormhilleren friluftsområde. Fra parkering kan du følge grusvei ned til badepl...","elevation":1,"name":"Ormhilleren","source":"UT.no\/DNT"},"type":"Feature"},{"geometry":{"coordinates":[5.3971179999999999,60.491945999999999],"type":"Point"},"id":"fishing-ut-145316019","properties":{"description":"Breistein friluftsområde – Åsane Breistein friluftsområde ligger noen steinkast fra ferjekaien. Det er vanlig å fiske fra selve kaien – men med ferjer som legger seg inntil med jevne mellomrom er Breistein friluftsområde et godt alternativ ...","elevation":7,"name":"Breistein friluftsområde","source":"UT.no\/DNT"},"type":"Feature"},{"geometry":{"coordinates":[5.4264840000000003,60.447203000000002],"type":"Point"},"id":"fishing-ut-145316020","properties":{"description":"Spåkevatnet er et flott turområde ved Gaupås i Åsane. Det går en tursti som en kan følge fra Gaupås og langs hele vestsiden av vannet. I Spåkevatnet finner du artene ørret og karuss. Ørreten i vannet er ikke særlig stor – men ofte lett å få...","elevation":117,"name":"Spåkevatnet","source":"UT.no\/DNT"},"type":"Feature"},{"geometry":{"coordinates":[5.3736240000000004,60.455869999999997],"type":"Point"},"id":"fishing-ut-145316021","properties":{"description":"Kråvatnet – Åsane Kråvatnet er et av få vann i Bergen med stor gjedde. Vannet kan nås fra Hjortland eller fra boligområdet Kråvasslia på Flaktveit. Fra Kråvasslia kan du følge en skogssti langs vannet inn til demningen ved Kattasmoget på sø...","elevation":111,"name":"Kråvatnet - Åsane","source":"UT.no\/DNT"},"type":"Feature"},{"geometry":{"coordinates":[10.260209,63.418464999999998],"type":"Point"},"id":"fishing-ut-145324113","properties":{"description":"Blomstertjønna er et lite tjern i Bymarka, like ved toppen Gråkallen. Det er mulig å kjøre eller ta buss helt til vannet. Blomstertjønna er også kjent som Barnas Fiskevann.","elevation":432,"name":"Blomstertjønna - Fiskeplass for barn","source":"UT.no\/DNT"},"type":"Feature"},{"geometry":{"coordinates":[11.719404000000001,63.163007999999998],"type":"Point"},"id":"fishing-ut-145332435","properties":{"description":"Ramsjøen ligger idyllisk til med Fongen ruvende over vannet. Dette er et godt fiskevann, husk fiskekort.","elevation":771,"name":"Fiske i Ramsjøen","source":"UT.no\/DNT"},"type":"Feature"},{"geometry":{"coordinates":[9.1643690000000007,62.733849999999997],"type":"Point"},"id":"fishing-ut-145339516","properties":{"description":"Når man kommer opp den første bakken i Hyttdalen fra Vassendsetra, ligger det etter hvert tre fine små vatn på rad med flere sandstrender. Her står ørreten og venter på å bli fisket, og man er nesten garantert fiskelykke!","elevation":952,"name":"Hyttdalen","source":"UT.no\/DNT"},"type":"Feature"},{"geometry":{"coordinates":[11.454996,59.623370000000001],"type":"Point"},"id":"fishing-ut-145339525","properties":{"description":"Kroktjern er et vann i idylliske omgivelser, et fint turmål i turområdet Nordskogen-Oppskott. Det er et fint område for overnattingsturer i telt\/hengekøye. Dersom du er interessert i å fiske, så er det muligheter for å fiske ørret i Kroktje...","elevation":236,"name":"Kroktjern","source":"UT.no\/DNT"},"type":"Feature"},{"geometry":{"coordinates":[11.405027,59.620078999999997],"type":"Point"},"id":"fishing-ut-145339526","properties":{"description":"I Grefslisjøen ved Havnås, er det et lite friområde på Faugliholmen. Et fint badestopp langs Unionsleden. Grefslisjøen er rik på fisk. Her kan du fiske abbor, gjedde og karpefisk. Her er det spesielt fint for familier å gå. Det er lett tilg...","elevation":128,"name":"Grefslisjøen","source":"UT.no\/DNT"},"type":"Feature"},{"geometry":{"coordinates":[11.629028,62.857841999999998],"type":"Point"},"id":"fishing-ut-145340331","properties":{"description":"På vei opp til Kjølihytta, like før du kommer til Kjøli gruver, passerer du Nedre Kjølitjønna. Her er det fint å ta en rast, og prøve fiskelykken.","elevation":990,"name":"Nedre Kjølitjønna","source":"UT.no\/DNT"},"type":"Feature"},{"geometry":{"coordinates":[9.8776349999999997,62.517743000000003],"type":"Point"},"id":"fishing-ut-145340333","properties":{"description":"Ved Orkelsjøhytta ligger Orkelsjøen i åpent fjellterreng­ på. Terrenget er meget barnevennlig med spennende geologi og fjellflora. Utmerket fiske i Orkelsjøen, og båtutleie på setra.","elevation":1057,"name":"Orkelsjøen","source":"UT.no\/DNT"},"type":"Feature"},{"geometry":{"coordinates":[11.560382000000001,59.447493999999999],"type":"Point"},"id":"fishing-ut-145354366","properties":{"description":"Lomtjern er et godt fiskevann, som ligger i delet mellom Rakkestad og Marker kommune. Ikke langt fra Frøne. Fiskekort Fiskekort selges i selvbetjent kortkasse ved Dalsmoen Sag.","elevation":218,"name":"Lomtjern","source":"UT.no\/DNT"},"type":"Feature"},{"geometry":{"coordinates":[10.703550999999999,59.809092999999997],"type":"Point"},"id":"fishing-ut-145382105","properties":{"description":"Presteskjær brygge ligger mellom Presteskjær badeplass og Kirkevika. Les mer om hele kyststistrekket fra Blylaget til Hellvik på bloggen: koffertogkamera.no","name":"Presteskjær Brygge","source":"UT.no\/DNT"},"type":"Feature"},{"geometry":{"coordinates":[10.699232,59.819881000000002],"type":"Point"},"id":"fishing-ut-145382113","properties":{"description":"Sørby brygge- med navnet fra gården Sørby. Brygga var opprinnelig et båtbyggeri rundt midten av 1800 tallet. 4 digre seilskuter bygget studenten Paul Røer her. Mastene ble lagret på Rundholtstranda nord for brygga. Visste du at filmen «Kong...","name":"Sørby brygge","source":"UT.no\/DNT"},"type":"Feature"},{"geometry":{"coordinates":[9.9628929999999993,61.174717999999999],"type":"Point"},"id":"fishing-ut-145593331","properties":{"description":"Ved det lille tjernet på norsiden av Vestfjellvegen, ved Kittilbu utmarksmuseum er det flott tilrettelagt for fisking og friluftsliv. Fiskeplasser rundt hele tjernet, klopper, bålplass med benker og røykeri. God plass til å parkere noen bil...","elevation":817,"name":"Røykeri, fiskeplass og bålplass","source":"UT.no\/DNT"},"type":"Feature"},{"geometry":{"coordinates":[9.9112380000000009,61.178690000000003],"type":"Point"},"id":"fishing-ut-145600031","properties":{"description":"Omtrent midt mellom Kittilbu og Holsbru (ca 3 km vest for Kittilbu) ligger et lite fiskevann rett på nordsiden av veien. Her er det godt tilrettelagt for bruk med grusvei og fiskebrygger rundt hele tjernet. Her er også en utedo og godt med ...","elevation":811,"name":"Valdrestjønnet fiskedam","source":"UT.no\/DNT"},"type":"Feature"},{"geometry":{"coordinates":[9.9560890000000004,61.185577000000002],"type":"Point"},"id":"fishing-ut-145600032","properties":{"description":"Kroktjønnet ved Kittilbu ligger i Hynna naturreservat. Følg skilt og sti på vestsiden av Kittilbutjønnet, ca 1,5 km til Kroktjønnet. Her har Gausdal Fjellstyre en båt til leie. Se mer info og booking\/betaling på inatur.no Kroktjønnet huser ...","elevation":827,"name":"Kroktjønnet","source":"UT.no\/DNT"},"type":"Feature"},{"geometry":{"coordinates":[10.007887999999999,61.170461000000003],"type":"Point"},"id":"fishing-ut-145600033","properties":{"description":"Heimtjønnet ligger like vest for Værskei, i Gausdal statsallmenning. Et godt og næringsrikt vann med stor fisk. Følg skilt og umerket sti fra bommen ved Værskei ned til Heimtjønnet. ca 1 km. Her har Gausdal Fjellstyre en båt til leie. I Hei...","elevation":931,"name":"Heimtjønnet","source":"UT.no\/DNT"},"type":"Feature"},{"geometry":{"coordinates":[9.4987110000000001,60.458379000000001],"type":"Point"},"id":"fishing-ut-146165761","properties":{"elevation":645,"name":"Øvre Vesleåtjern","source":"UT.no\/DNT"},"type":"Feature"},{"geometry":{"coordinates":[9.49376,60.454121999999998],"type":"Point"},"id":"fishing-ut-146165762","properties":{"elevation":603,"name":"Nedre Vesleåtjern","source":"UT.no\/DNT"},"type":"Feature"},{"geometry":{"coordinates":[9.8427799999999994,61.198625],"type":"Point"},"id":"fishing-ut-146323408","properties":{"description":"Ørret i alle størrelser. Antagelig vestfjellets mest populære fiskevann (ikke uten grunn). Ligger i Dokkfaret, langs Liomsetervegen. Kun stangfiske fra land tillat.","elevation":778,"name":"Dokkvatnet","source":"UT.no\/DNT"},"type":"Feature"},{"geometry":{"coordinates":[9.8997670000000006,61.184387999999998],"type":"Point"},"id":"fishing-ut-146323409","properties":{"description":"Ørret i alle størrelser, inkludert kilosfisk. Bare 300 meter å gå fra parkeringa ved Gamle Liumsetervegen, men helt usjenert. Fine fiskeplasser\/leirplasser rundt hele vannet. En liten sving oppom Nordre Valdrestjønnet kan også anbefales.","elevation":825,"name":"Søre Valdrestjønnet","source":"UT.no\/DNT"},"type":"Feature"},{"geometry":{"coordinates":[9.7852230000000002,61.180765999999998],"type":"Point"},"id":"fishing-ut-146323410","properties":{"description":"Fiskerikt vann med kvalitetsørret. Fin sandstrand i sørenden av vannet, for kombinert bade- og fisketur. Det finnes også to båter og to kajakker til leie i Snæra. I tillegg kan du låne rednings- og flytevester. Snæra ligger i Oppsjømyra nat...","elevation":885,"name":"Snæra","source":"UT.no\/DNT"},"type":"Feature"},{"geometry":{"coordinates":[9.6260659999999998,61.294350999999999],"type":"Point"},"id":"fishing-ut-146323411","properties":{"description":"Fint ørretvann hvor du kan kjøre helt frem. P-plass i enden av traktorvegen som går ned til vannet.","elevation":1000,"name":"Slivatnet","source":"UT.no\/DNT"},"type":"Feature"},{"geometry":{"coordinates":[9.6776680000000006,61.216369],"type":"Point"},"id":"fishing-ut-146561689","properties":{"description":"Lett tilgjengelig og fiskerikt vann, godt egnet for yngre fiskere. Enkel adkomst med bil via Liomsetervegen (bomveg) og ev. Grytsetervegen","elevation":796,"name":"Nyvatnet","source":"UT.no\/DNT"},"type":"Feature"},{"geometry":{"coordinates":[7.598363,62.171847999999997],"type":"Point"},"id":"fishing-ut-146740195","properties":{"description":"En fin tur for heile familien. Mulighet for fisking, bading, sanking av bær og sopp på vei opp fra Reindalen.","elevation":957,"name":"Hulderkoppen","source":"UT.no\/DNT"},"type":"Feature"},{"geometry":{"coordinates":[7.5511379999999999,62.197648000000001],"type":"Point"},"id":"fishing-ut-146740202","properties":{"description":"Sildevatnet er en fin rasteplass på vei til Reindalseter, eller en plass å telte. Mulighet for bading og fisking i vatnet.","elevation":597,"name":"Sildevatnet","source":"UT.no\/DNT"},"type":"Feature"},{"geometry":{"coordinates":[11.5709,59.428818999999997],"type":"Point"},"id":"fishing-ut-146878752","properties":{"description":"Her er det gangbaner og fiskebrygge i nordenden og på østsiden av vannet. Skal du ha med deg barn for å fiske her, anbefaler vi bruk av vest da det er myk og våt myr i kantene på gangbanene. Det er Rakkestad Jeger & Fisk, i samarbeid med DN...","elevation":169,"name":"Høytomt tjern","source":"UT.no\/DNT"},"type":"Feature"},{"geometry":{"coordinates":[9.0336409999999994,62.869249000000003],"type":"Point"},"id":"fishing-ut-146887759","properties":{"description":"Vassdalsvatnet ligger innerst i Vindøldalen. Her er det gode muligheter for å skaffe fisk både til middagen og til å ta med hjem. Fra hytta og til vatnet er det litt over6 km, men store deler av turen inn dalen går langs vei. Så sykkel kan ...","elevation":708,"name":"Vassdalsvatnet i Vindøldalen","source":"UT.no\/DNT"},"type":"Feature"},{"geometry":{"coordinates":[8.6126330000000006,63.071302000000003],"type":"Point"},"id":"fishing-ut-146887781","properties":{"description":"Er du blant dem som er glad i å fiske og ønsker en ørretmiddag om kvelden? Da er ikke middagen langt unna; like opp for hytta ligger Tverrlitjørna som er full av bitevillig fisk! Fiskestenger er tilgjengelig ved hytta for barn, og for dem e...","elevation":609,"name":"Tverrlikjønna","source":"UT.no\/DNT"},"type":"Feature"},{"geometry":{"coordinates":[8.3687109999999993,63.050519000000001],"type":"Point"},"id":"fishing-ut-146887796","properties":{"description":"NB: Ruta er tegnet inn på kartet og ikke gått opp med GPS Måsvatnet er det største vannet i nærheten av Jutulbu og ligger et stykke nordvest for hytta. En tur rundt Måsvatnet er en fin dagstur som passer både store og små. Langs turen er de...","elevation":444,"name":"Måsvatnet","source":"UT.no\/DNT"},"type":"Feature"},{"geometry":{"coordinates":[6.289612,61.611553999999998],"type":"Point"},"id":"fishing-ut-146887880","properties":{"description":"Flott fjellutsikt ved det store Stigsvatnet, som ein passerer på DNT-stien som går vidare m.a. til Longevasshytta. Fin plass å raste på mellom fjella og utsikta til vatnet. Her finn du ruta opp.","elevation":781,"name":"Stigsvatnet","source":"UT.no\/DNT"},"type":"Feature"},{"geometry":{"coordinates":[6.2855259999999999,61.623131999999998],"type":"Point"},"id":"fishing-ut-146887890","properties":{"description":"Opplev fjellidyll mellom Stigsvatnet og Kupevatnet. Berre 4 høgdemeters forskjell mellom dei to store fjellvatna. Stikryss mellom ulike turruter som går til Longevasshytta og Kupa. Her finn du turskildringa for å kome deg til utsiktspunktet...","elevation":793,"name":"Stigsvatnet og Kupevatnet","source":"UT.no\/DNT"},"type":"Feature"},{"geometry":{"coordinates":[6.5496119999999998,61.557701000000002],"type":"Point"},"id":"fishing-ut-146887965","properties":{"description":"Vatnet ligg idyllisk til i Fossheimsdalen. Fisk i vatnet. Frå Dammen er det ein enkel tur inn til vatnet utan mykje stigning . Området høver seg derfor godt til telting og overnattingsturar.","elevation":801,"name":"Instebotnvatnet","source":"UT.no\/DNT"},"type":"Feature"},{"geometry":{"coordinates":[6.2590320000000004,61.477186000000003],"type":"Point"},"id":"fishing-ut-146888019","properties":{"description":"Botnavatnet i Sanddalen ligg idyllisk til. Vatnet er eit fiskevatn. Kort veg å gå frå parkering i enden av skogsveg.","elevation":555,"name":"Botnavatnet","source":"UT.no\/DNT"},"type":"Feature"},{"geometry":{"coordinates":[6.3934249999999997,61.603411000000001],"type":"Point"},"id":"fishing-ut-146888078","properties":{"description":"Vasskarvatnet er eit fjellvatn ved Vasskaret som på kartet er markert som eit fjellvatn med fisk i. Vatnet passerer du på stien som går frå Helgheim til Skjorta.","elevation":882,"name":"Vasskarvatnet","source":"UT.no\/DNT"},"type":"Feature"},{"geometry":{"coordinates":[6.3975169999999997,61.609074],"type":"Point"},"id":"fishing-ut-146888079","properties":{"description":"Tverrlivatnet er eit fjellvatn som på kartet er markert som eit fjellvatn med fisk i. Vatnet passerer du på stien som går frå Helgheim til Skjorta.","elevation":860,"name":"Tverrlivatnet","source":"UT.no\/DNT"},"type":"Feature"},{"geometry":{"coordinates":[6.6550799999999999,61.561489999999999],"type":"Point"},"id":"fishing-ut-146888111","properties":{"description":"Blåvatnet, som er fisk i, ligg idyllisk til under Jostedalsbreen innerst i dalføret Befringsdalen. Sti, som delvis er merka innover dalføret frå Befringsstøylen.","elevation":781,"name":"Blåvatnet","source":"UT.no\/DNT"},"type":"Feature"},{"geometry":{"coordinates":[6.4267709999999996,61.527562000000003],"type":"Point"},"id":"fishing-ut-146888153","properties":{"description":"På kartet er vatnet som ligg idyllisk til midt i Dvergsdalsdalen merka av som fiskevatn. parkering ved bruk av toppturparkering i dalføret.","elevation":474,"name":"Dalevatnet i Dvergsdalsdalen","source":"UT.no\/DNT"},"type":"Feature"},{"geometry":{"coordinates":[6.581086,61.546014999999997],"type":"Point"},"id":"fishing-ut-146888154","properties":{"description":"Trollebottsvatnet ligg på 1054 moh. og er del av Jostedalsbreen nasjonalpark. På kartet er vatnet merka av som fiskevatn. Du når opp til vatnet ved å gå inn Fossheimsdalen og gå Instebotnvatnet til endes. Følg stien som går til Høgenipa eit...","elevation":1070,"name":"Trollebottsvatnet","source":"UT.no\/DNT"},"type":"Feature"},{"geometry":{"coordinates":[6.5651900000000003,61.575448000000002],"type":"Point"},"id":"fishing-ut-146888156","properties":{"description":"Styggevatnet er merka av som fiskevatn på kartet. Du kan ta deg opp til vatnet via Indre Fossheimsstøylen, eller sti til Bolsetnipa og passere fjelltoppen Rana.","elevation":1020,"name":"Styggevatnet","source":"UT.no\/DNT"},"type":"Feature"},{"geometry":{"coordinates":[6.5124890000000004,61.605105999999999],"type":"Point"},"id":"fishing-ut-146888158","properties":{"description":"Bolsetvatnet er merka av på kartet som fiskevatn.","elevation":163,"name":"Bolsetvatnet","source":"UT.no\/DNT"},"type":"Feature"},{"geometry":{"coordinates":[6.5109680000000001,61.591565000000003],"type":"Point"},"id":"fishing-ut-146888159","properties":{"description":"Håheimsvatnet er merka av på kartet som eit fiskevatn.","elevation":199,"name":"Håheimsvatnet","source":"UT.no\/DNT"},"type":"Feature"},{"geometry":{"coordinates":[6.5074740000000002,61.586483000000001],"type":"Point"},"id":"fishing-ut-146888160","properties":{"description":"Juvikvatnet er merka av på kartet som eit fiskevatn.","elevation":200,"name":"Juvikvatnet","source":"UT.no\/DNT"},"type":"Feature"},{"geometry":{"coordinates":[6.2192119999999997,61.466869000000003],"type":"Point"},"id":"fishing-ut-146888622","properties":{"description":"Dette er ein flat tur i ein nydeleg fjelldal som du går på godt opptrakka stiar. Turen startar på parkeringsplassen på Trinta og du kan gå innom både Gjesdalsstølen og Søstestølen på vegen. Les om turen her. Gapahuksom heiter Grindebu finn ...","elevation":766,"name":"Gjesdalsvatnet","source":"UT.no\/DNT"},"type":"Feature"},{"geometry":{"coordinates":[6.3379960000000004,61.575969000000001],"type":"Point"},"id":"fishing-ut-146888628","properties":{"description":"Dalevatnet er i følge Jølsterkartet fisk i. Det er skogsvegar i dalføret, som om vinteren fungerer som flotte langrennsløyper.","elevation":319,"name":"Dalevatnet","source":"UT.no\/DNT"},"type":"Feature"},{"geometry":{"coordinates":[9.3854729999999993,62.697304000000003],"type":"Point"},"id":"fishing-ut-146889532","properties":{"description":"Borterst på sandstranden Raudøra, der hvor Gravbekken renner ut i Gjevilvatnet, er det en diger stein og gode fiske muligheter! Husk å kjøpe fiskekort på inatur.no","elevation":665,"name":"Fiskesteinen (Mås-steinen) ved Raudøra","source":"UT.no\/DNT"},"type":"Feature"},{"geometry":{"coordinates":[16.425684,68.687545999999998],"type":"Point"},"id":"fishing-ut-146889771","properties":{"description":"Langvatnet er et fint fiskevann og har gode bademuligheter, med en liten sandstrand på sørøstsiden. Her ligger også Allmenningsbua. Den åpne hytta ligger rett nord for ”trangen”, og er et fint turmål året rundt. Langvannet kan nås både fra ...","elevation":412,"name":"Langvatnet","source":"UT.no\/DNT"},"type":"Feature"},{"geometry":{"coordinates":[16.440836999999998,68.695395000000005],"type":"Point"},"id":"fishing-ut-146889772","properties":{"description":"Skarvatnet ligger ved Sørvikfjellet på omtrent 500 moh. Her er det mulig både å fiske og bade. Vannet ligger også ca 800m fra Allmenningsbua, og kan nås fra Sørlia, Bjørnhaugen (Storjorda) eller Kilbotn idrettsarena.","elevation":499,"name":"Skarvatnet","source":"UT.no\/DNT"},"type":"Feature"},{"geometry":{"coordinates":[16.335951999999999,68.731423000000007],"type":"Point"},"id":"fishing-ut-146889791","properties":{"description":"Ramnskardvatnan er gode fiskevatn. Fiskekort for voksne på Inatur, Kvæfjord distrikt 3, barn fisker gratis.","elevation":360,"name":"Ramnskardvatnan","source":"UT.no\/DNT"},"type":"Feature"},{"geometry":{"coordinates":[10.948138,59.812069000000001],"type":"Point"},"id":"fishing-ut-146890003","properties":{"description":"I Krokholmarka, sør i Østmarka, ligger det en fiskeplass ved Tretjerna, bygd av Ski Jeger- og Fiskerforening. Her kan du nyte naturen og fiske fra en solid brygge med gapahuk og bålpanne. Tretjerna kultiveres jevnlig, og det settes ut ørret...","elevation":234,"name":"Tilrettelagt fiskeplass ved Tretjerna","source":"UT.no\/DNT"},"type":"Feature"},{"geometry":{"coordinates":[10.949695999999999,60.093066],"type":"Point"},"id":"fishing-ut-146890044","properties":{"description":"Fiskeplass som er universelt utformet.","elevation":261,"name":"Henivangen fiskeplass","source":"UT.no\/DNT"},"type":"Feature"},{"geometry":{"coordinates":[11.576162999999999,59.882337],"type":"Point"},"id":"fishing-ut-146890111","properties":{"description":"Fiskeplass ved Bjørkelangen Stasjonspark og Lierelva. En platting i treverk med rekkeverk vendt ut mot elva. Se detaljer om tilgjengelighet ved denne gapahuken ved å se på kartlaget «Tilgjengelighet» i Norgeskart.","elevation":125,"name":"Fiskeplass ved Bjørkelangen og Lierelva","source":"UT.no\/DNT"},"type":"Feature"},{"geometry":{"coordinates":[8.6728149999999999,59.031297000000002],"type":"Point"},"id":"fishing-ut-146890175","properties":{"description":"Turmålet ligger langs turforslaget Mjåvatnet rundt. Her er det fint for en rast og prøve fiskestanga. Det er Gautefallheia Fiskerlag som har ansvaret når du vil fiske, fiskekort kan kjøpes på nett hos Perfish eller Bostrak Bensin.","elevation":453,"name":"Mjåvatnet","source":"UT.no\/DNT"},"type":"Feature"}],"generator":"Trakke fetch_utno_poi.swift","timestamp":"2026-08-10T00:27:31Z","type":"FeatureCollection"}