{"attribution":"UT.no\/DNT","features":[{"geometry":{"coordinates":[9.2531999999999996,59.555900000000001],"type":"Point"},"id":"food-ut-141636","properties":{"description":"Flotte uteområder ved Bok- og Blueshuset inviterer til en nærkontakt med Heddalsvannet, som slett ikke har vært en selvfølge for Notoddens innbyggere. For her lå det gamle, ruvende Tinfos Jernverk, stiftet i 1910, etter at selskapet ble før...","elevation":19,"name":"Bok- og Blueshuset","source":"UT.no\/DNT"},"type":"Feature"},{"geometry":{"coordinates":[11.113186000000001,59.983725999999997],"type":"Point"},"id":"food-ut-141766","properties":{"description":"Skihytta ligger på Asakmoen og benyttes ved trening i lysløypa og området rundt. Gjennom hele vinterhalvåret er den åpen på søndager fra 12:00-15:00, med salg av kaffe, vafler, pølser, kakao, m.m... Hytta driftes av skigruppa i Leirsund idr...","elevation":206,"name":"Skihytta på Asakmoen","source":"UT.no\/DNT"},"type":"Feature"},{"geometry":{"coordinates":[5.2715709999999998,60.256275000000002],"type":"Point"},"id":"food-ut-141775","properties":{"description":"Blondehuset har enkel bevertning og er åpent i helger og helligdager gjennom sommersesongen.","elevation":16,"name":"Blondehuset","source":"UT.no\/DNT"},"type":"Feature"},{"geometry":{"coordinates":[12.171825,62.014200000000002],"type":"Point"},"id":"food-ut-141866971","properties":{"description":"Det mest populære turmålet i Gutulia nasjonalpark er Gutulisetra. Noen går kortere eller lengre inn i nasjonalparken, den minste i landet. Det er 5,4 km totalt fram og tilbake til Gutilisetra fra østsiden av Gutulisjøen. Adkomsten til Gutul...","elevation":700,"name":"Gutulisetra","source":"UT.no\/DNT"},"type":"Feature"},{"geometry":{"coordinates":[10.547689999999999,59.967621000000001],"type":"Point"},"id":"food-ut-141872","properties":{"description":"På Brunkollen serveres det legendariske skoleboller i helgene og suppe tirsdag\/onsdag kveld. Se https:\/\/www.facebook.com\/brunkollen\/?ref=page_internal","elevation":375,"name":"Brunkollen","source":"UT.no\/DNT"},"type":"Feature"},{"geometry":{"coordinates":[10.616569999999999,59.720537],"type":"Point"},"id":"food-ut-141918","properties":{"description":"Nå kafé og forsamlingssted, tidligere barneskole for området. Muligheter for parkering og bevertning, ring først","elevation":72,"name":"Digerud grendestue","source":"UT.no\/DNT"},"type":"Feature"},{"geometry":{"coordinates":[10.553334,59.928764000000001],"type":"Point"},"id":"food-ut-141937","properties":{"description":"Kafeen på Godthaap Helse og Rehabilitering er bra for en stopp med små barn","elevation":136,"name":"Godthaap","source":"UT.no\/DNT"},"type":"Feature"},{"geometry":{"coordinates":[10.626268,59.971679999999999],"type":"Point"},"id":"food-ut-141946","properties":{"description":"Cafe Grevinnen på Bogstad Gård er en fint sted å ta en pause på turen. På vinteren er det mulig å besøke dyrene i fjøset (bak butikken) og på sommeren kan man møte de på beite rundt i området","elevation":161,"name":"Bogstad Gård","source":"UT.no\/DNT"},"type":"Feature"},{"geometry":{"coordinates":[11.256781,59.909678999999997],"type":"Point"},"id":"food-ut-142109326","properties":{"description":"Tretysjøhytta ligger på Tretysjøåsen og brukes som skihytte. Den er eiet av en Interesseorganisasjon. Det er 4 kilometer dit fra Hvalstjern i kupert og lett terreng.","elevation":240,"name":"Tretysjøhytta","source":"UT.no\/DNT"},"type":"Feature"},{"geometry":{"coordinates":[11.514359000000001,60.091763999999998],"type":"Point"},"id":"food-ut-142148627","properties":{"description":"Dragsjøhytta ligger på en høyde ved Dragsjøen. Dragsjøen er drikkevannskilde for Nes kommune. Det går to lysløypetraseer til Dragsjøhytta, den ene fra Årnes og den andre fra Fjellfoten. Servering på søndager mellom 12.00 og 16.00 med salg a...","elevation":203,"name":"Dragsjøhytta","source":"UT.no\/DNT"},"type":"Feature"},{"geometry":{"coordinates":[14.524883000000001,67.300186999999994],"type":"Point"},"id":"food-ut-142373667","properties":{"description":"Bestemorstua ligger på Bestemorenga, hvor det er akebakke, skiløyper og rulleskiløyper. Noen helger er det kafe der.","elevation":122,"name":"Bestemorstua","source":"UT.no\/DNT"},"type":"Feature"},{"geometry":{"coordinates":[10.541017,59.89208],"type":"Point"},"id":"food-ut-14243327","properties":{"description":"Sjøholmen har alletiders kafe for småbarn eller man kan ta en rast i gapahuken bak museet. For de litt større barn er det lekeplass og sanseloft (betaling)","elevation":5,"name":"Sjøholmen","source":"UT.no\/DNT"},"type":"Feature"},{"geometry":{"coordinates":[9.0827749999999998,61.730794000000003],"type":"Point"},"id":"food-ut-142609546","properties":{"description":"Campingplass med sanitæranlegg. Kafe og kiosk.","elevation":739,"name":"Randsverk camping\/Randsverk kafe","source":"UT.no\/DNT"},"type":"Feature"},{"geometry":{"coordinates":[10.406650000000001,59.428910000000002],"type":"Point"},"id":"food-ut-143718","properties":{"description":"Turbeskrivelse: https:\/\/ut.no\/tur\/2.3356\/ GPS koordinater: 59.42891\/ 10.40665 Hytta som ligger på Tufteåsen eies av Horten skiklubb og ble åpnet i 1917. Den er åpen for servering fra litt utpå høsten og utover våren - i skisesongen. Mot nor...","elevation":110,"name":"Skihytta - Horten","source":"UT.no\/DNT"},"type":"Feature"},{"geometry":{"coordinates":[8.8286730000000002,59.995165999999998],"type":"Point"},"id":"food-ut-143968814","properties":{"description":"Bakeri tilbyr godt kake, små varmretter, is og mye mer","elevation":210,"name":"Austbygde Bakeri og Kaffé","source":"UT.no\/DNT"},"type":"Feature"},{"geometry":{"coordinates":[11.383295,63.723857000000002],"type":"Point"},"id":"food-ut-144000","properties":{"description":"Koselig kafe og overnattingssted som byr på hjemmelaget mat og trivelig vertskap!","elevation":101,"name":"Munkeby Herberge","source":"UT.no\/DNT"},"type":"Feature"},{"geometry":{"coordinates":[10.958434,60.570332000000001],"type":"Point"},"id":"food-ut-144033","properties":{"description":"Torsætra er stedet for deg som ønsker å komme tettere på naturens mangfold. Du er velkommen til å se hva Torsætra har å tilby av flott natur, god mat og stemningsfull atmosfære. Velkommen til oss for å spise og hygge deg i vår tradisjonsrik...","elevation":499,"name":"Torsætra kafe","source":"UT.no\/DNT"},"type":"Feature"},{"geometry":{"coordinates":[8.0984689999999997,60.464647999999997],"type":"Point"},"id":"food-ut-144036130","properties":{"description":"Skikafe åpen i høysesongen.","elevation":1299,"name":"Prestholtseter","source":"UT.no\/DNT"},"type":"Feature"},{"geometry":{"coordinates":[8.2165719999999993,60.501843999999998],"type":"Point"},"id":"food-ut-144036131","properties":{"description":"Hakkesetstølen er ei fjellstue med hytter, leilighet og koselige rom. Beliggende 1050 m.o.h. midt i det flotteste turterrenget ved porten av Hardangervidda. Her har vi en koselig kafe med fyr på peisen, varm kakao, vafler og rømmegrøt. Kort...","elevation":1047,"name":"Hakkesetstølen Fjellstugu og Hytter","source":"UT.no\/DNT"},"type":"Feature"},{"geometry":{"coordinates":[12.218598,61.316332000000003],"type":"Point"},"id":"food-ut-144040","properties":{"description":"En fin tur fra Trysil Turistsenter opp til Knettsetra. Hit går det også bilvei helt frem sommerstid. Turen starter ved skiutleia på Trysil Turistsenter, og går videre opp gjennom hytteområdet og ut på Knettsætervegen. Turen går langs vei he...","elevation":667,"name":"Knettsetra","source":"UT.no\/DNT"},"type":"Feature"},{"geometry":{"coordinates":[11.155486,59.681798000000001],"type":"Point"},"id":"food-ut-144902459","properties":{"description":"Skimtefjellhytta ligger på Skimtefjell og er et naturlig knutepunkt for stiene og løypene i området. Under 2. verdenskrig var Skimtefjellhytta et tilholdsted for gutta på skauen . Dagens hytte er av nyere dato og driftes av Stegen Turnlag, ...","elevation":222,"name":"Skimtefjellhytta","source":"UT.no\/DNT"},"type":"Feature"},{"geometry":{"coordinates":[10.722197,59.884107],"type":"Point"},"id":"food-ut-144962072","properties":{"description":"Gressholmen kro serverer mat og drikke hele sommersesongen.","elevation":7,"name":"Gressholmen kro","source":"UT.no\/DNT"},"type":"Feature"},{"geometry":{"coordinates":[12.173924,61.318066999999999],"type":"Point"},"id":"food-ut-144974033","properties":{"elevation":864,"name":"Fjellroa","source":"UT.no\/DNT"},"type":"Feature"},{"geometry":{"coordinates":[11.417196000000001,59.152849000000003],"type":"Point"},"id":"food-ut-145215717","properties":{"description":"Gimle Idrettsforening ble stiftet i 1926 og har siden den gang vært en aktiv klubb på mange områder. I 1933 sto Venåshytta ferdig, klubbens stolthet og viktige samlingspunkt. I dag er hytta et populært turmål, takket være alle de flotte løy...","elevation":191,"name":"Venåshytta","source":"UT.no\/DNT"},"type":"Feature"},{"geometry":{"coordinates":[6.4291090000000004,59.014643],"type":"Point"},"id":"food-ut-145255339","properties":{"description":"Sommer-åpen og helge-åpen kafé med godt utvalg av lunsj og middag til overkommelige priser. Salg av suvenir, snacks og drikkevarer. Dette er også resepsjonen for overnatting i våre rom og hus samt camping på Flørli.","elevation":4,"name":"Flørli 4444 Kafé","source":"UT.no\/DNT"},"type":"Feature"},{"geometry":{"coordinates":[5.4092289999999998,60.371797999999998],"type":"Point"},"id":"food-ut-145266224","properties":{"description":"Turnerhytten ligger 3,1 km fra Ulriken og er for mange et naturlig stoppested på vei over Vidden, men også for mange selve destinasjonen for en fin søndagstur. Turen til Turnerhytten passer for store og små. I helgene holdes hytten åpen for...","elevation":642,"name":"Turnerhytten","source":"UT.no\/DNT"},"type":"Feature"},{"geometry":{"coordinates":[11.12317,59.64667],"type":"Point"},"id":"food-ut-145280939","properties":{"description":"Speiderhytta er en koselig og tradisjonsrik hytte og som er et samlingssted for speideraktiviteter. I tilknytning til hytta er det et stort uteområde med terrasse, benker, bord og stor plen med en flott lavvo. Dette er en fin plass for å sp...","elevation":135,"name":"Speiderhytta Spydeberg","source":"UT.no\/DNT"},"type":"Feature"},{"geometry":{"coordinates":[11.398509000000001,59.528775000000003],"type":"Point"},"id":"food-ut-145291457","properties":{"description":"Einarbu ligger på toppen av Dalehøgda, og er et flott turmål for liten og stor i idylliske Trømborgfjella. Hytteanlegget eies og drives av Flaggtreff. Hytta holder åpent for servering søndager fra oktober til starten av desember, og fra jan...","elevation":248,"name":"Einarbu","source":"UT.no\/DNT"},"type":"Feature"},{"geometry":{"coordinates":[6.508769,62.398586999999999],"type":"Point"},"id":"food-ut-145292705","properties":{"description":"Besøksgard og selskapslokale.","elevation":21,"name":"Blakstad Gard","source":"UT.no\/DNT"},"type":"Feature"},{"geometry":{"coordinates":[10.461672,63.453449999999997],"type":"Point"},"id":"food-ut-145323367","properties":{"description":"Sponhuset kafé ligger midt i Ladestien, nordøst for Trondheim sentrum. Her kan du kjøpe svært gode vafler, samt andre kaker, bakst og lunsjretter.","elevation":5,"name":"Sponhuset","source":"UT.no\/DNT"},"type":"Feature"},{"geometry":{"coordinates":[10.757491999999999,59.930861999999998],"type":"Point"},"id":"food-ut-145333209","properties":{"description":"Hønse-Lovisas hus ble bygget i 1800 som sagmesterbolig, og har fått sitt navn etter Hønse-Lovisa, en modig og varm kvinneskikkelse fra Oskar Braatens bøker. Inspirasjonen til figuren hentet han fra sin egen oppvekst i området, men om Hønse-...","elevation":41,"name":"Hønse-Lovisas hus","source":"UT.no\/DNT"},"type":"Feature"},{"geometry":{"coordinates":[11.582257,59.484924999999997],"type":"Point"},"id":"food-ut-145333984","properties":{"description":"Lysholm ligger i Vestfjella, like nord for Lysvannet, i Marker. Hyttene eies og drives av Marker orienteringslag, og blir benyttet til servering (vaffel, varm saft, kaffe og sjokolade) vinterstid. Det er både blåmerkede stier og rødmerkede ...","elevation":180,"name":"Lysholm","source":"UT.no\/DNT"},"type":"Feature"},{"geometry":{"coordinates":[11.339649,59.634126999999999],"type":"Point"},"id":"food-ut-145337103","properties":{"description":"Pershytta finner du på Trøgstad fort – et flott turmål for liten og stor. Fra terrassen kan du nyte en fantastisk utsikt. Det serveres kaffe, vaffel, mineralvann og sjokolade på søndager (unntatt i skolens sommerferie), sjekk Facebook siden...","elevation":262,"name":"Pershytta","source":"UT.no\/DNT"},"type":"Feature"},{"geometry":{"coordinates":[10.446728999999999,63.457036000000002],"type":"Point"},"id":"food-ut-145345903","properties":{"description":"Langs Ladestien på Lade i Trondheim ligger Ladekaia. Her ligger et serveringssted med masse godt å drikke og spise, og det arrangeres ofte konserter og andre arrangementer. Flott sted for en pause på turen langs Ladestien. Se med infomasjon...","elevation":3,"name":"Ladekaia","source":"UT.no\/DNT"},"type":"Feature"},{"geometry":{"coordinates":[9.9517480000000003,64.054132999999993],"type":"Point"},"id":"food-ut-145355236","properties":{"description":"Stokkøya Strandhotell og Strandbaren ligger idyllisk plasser på stranda Hosnasand. Stokkøya er en populær desninasjon for dykkere, da farvannet rundt øya er meget godt egnet for dykking. Her er det matservering og overnattingsmuligheter. Le...","elevation":4,"name":"Stokkøya Sjøsenter","source":"UT.no\/DNT"},"type":"Feature"},{"geometry":{"coordinates":[10.655733,59.822845000000001],"type":"Point"},"id":"food-ut-145384754","properties":{"description":"To gård er en av de eldste gårdene på Nesodden. Den ble sannsynligvis skilt ut fra gården Flateby på slutten av vikingtida og tilhørte senere Mariakirken . Gården nevnes i \" Den røde bok \" på slutten av 1300-tallet. Boka er en viktig inform...","elevation":162,"name":"To gård","source":"UT.no\/DNT"},"type":"Feature"},{"geometry":{"coordinates":[10.353123,59.155878999999999],"type":"Point"},"id":"food-ut-145523816","properties":{"description":"Kaffebar, butikk, hagekafe, pizza, mm","elevation":10,"name":"Villa Veierland","source":"UT.no\/DNT"},"type":"Feature"},{"geometry":{"coordinates":[10.351554999999999,59.152931000000002],"type":"Point"},"id":"food-ut-145523817","properties":{"description":"Hagekafe, pizza, mm","elevation":11,"name":"Dagros kafé","source":"UT.no\/DNT"},"type":"Feature"},{"geometry":{"coordinates":[10.522714000000001,60.844499999999996],"type":"Point"},"id":"food-ut-145589315","properties":{"description":"Hyggelig søndagsåpen hytte (i skisesong) med flott utsikt mot Gjøvik. Det er mulig å kjøre nesten helt frem med bil eller man kan nå den på ski fra flere utgangspunkter. Et ypperlig turmål for barnefamilier fra P-plass på Gravåsen.","elevation":531,"name":"Solbakken","source":"UT.no\/DNT"},"type":"Feature"},{"geometry":{"coordinates":[10.36238,60.945619000000001],"type":"Point"},"id":"food-ut-145624385","properties":{"description":"Skihytte som driftes på dugnad. Åpen i helger i skisessongen. Kan kjøre inn til hytta. Dette er en parkeringsplass for løypenettet","elevation":666,"name":"Skihytta Åsen vel","source":"UT.no\/DNT"},"type":"Feature"},{"geometry":{"coordinates":[15.125007999999999,67.568565000000007],"type":"Point"},"id":"food-ut-145631202","properties":{"description":"Så langt du kommer kommer på landeveien..... Omgitt av spektakulære fjell og med sjø på alle kanter, ligger Kjerringøy Rorbusenter. Vi har 40 sengeplasser fordelt på 10 rorbuer, gratis utlån av fiskestenger og småbåter som kan leies til kor...","elevation":2,"name":"Tårnvik","source":"UT.no\/DNT"},"type":"Feature"},{"geometry":{"coordinates":[10.204046999999999,59.709594000000003],"type":"Point"},"id":"food-ut-145660034","properties":{"description":"Vaffeljernet oser, kaffen er rykende varm, brusflaskene lokker. Dette kan vente deg en søndag i Strømsåsen når du kommer frem til Hellashytta. Stiftelsen Hellashyttas Venner eier stedet. Hytta sto ferdig til klubbens 30-årsjubileum i 1947. ...","elevation":265,"name":"Hellashytta","source":"UT.no\/DNT"},"type":"Feature"},{"geometry":{"coordinates":[9.4957659999999997,60.469476999999998],"type":"Point"},"id":"food-ut-146165760","properties":{"elevation":697,"name":"Turufjell Kafe","source":"UT.no\/DNT"},"type":"Feature"},{"geometry":{"coordinates":[10.749587999999999,59.865129000000003],"type":"Point"},"id":"food-ut-146172497","properties":{"description":"Dette er en koselig resturant som ligger fint ute på vestenden av Malmøya, innenfor Malmøykalven naturreservat. Man kan få pizza og gode drinker mens man nyter utsikten over fjorden. Det er en tilrettelagt og fin badeplass med sandstand, er...","name":"Solvik Restaurant og Badeplass","source":"UT.no\/DNT"},"type":"Feature"},{"geometry":{"coordinates":[10.612147999999999,60.016775000000003],"type":"Point"},"id":"food-ut-146208732","properties":{"description":"Sørkedalen Landhandel finner du i det gule huset innerst i Sørkedalen, rett ved Sørkedalen skole. Her kan du kjøpe bakevarer, mat og drikke, samt dagligvarer, hver dag. Lunsjmeny fra kl. 11-17 hele uken. I sommerhalvåret er det fine uteplas...","elevation":175,"name":"Sørkedalen Landhandel","source":"UT.no\/DNT"},"type":"Feature"},{"geometry":{"coordinates":[10.869752999999999,62.414135999999999],"type":"Point"},"id":"food-ut-146361230","properties":{"description":"Åpen hver dag om sommeren. Veibeskrivelse Bunåva er samlokalisert med Forollhogna infosenter, midt i Vingelen sentrum, med samme inngang som Coop Marked.","elevation":670,"name":"Bunåva kafè - hyggelig sommerkafè","source":"UT.no\/DNT"},"type":"Feature"},{"geometry":{"coordinates":[10.862304,62.417746999999999],"type":"Point"},"id":"food-ut-146362746","properties":{"description":"Gratis omvisning i utstillgene og koselig kafè. Vingelen kirke-og skolemuseum ble grunnlagt i 1975 og fikk nytt museumbygg i 1984. Samlingene kan i dag framvise ei lang rekke gjenstander fra kirkelivet i Vingelen. Fra middelalderkirka (anta...","elevation":700,"name":"Vingelen museum ","source":"UT.no\/DNT"},"type":"Feature"},{"geometry":{"coordinates":[10.564410000000001,63.408482999999997],"type":"Point"},"id":"food-ut-146593157","properties":{"description":"Tjønnstuggu er en kombinert turhytte og barnehage. Turhytta drives av Ranheim Skiklubb, og fungerer som friluftsbarnehage i hverdagen, og utleiehytte og serveringshytte i helgene. Sjekk ut Tjønnstuggu kafè og selskapslokale på facebook for ...","elevation":219,"name":"Tjønnstuggu","source":"UT.no\/DNT"},"type":"Feature"},{"geometry":{"coordinates":[10.70758,63.331214000000003],"type":"Point"},"id":"food-ut-146595683","properties":{"description":"Fjellstuggu er en serveringshytte som ligger ved Jervfjellet i Mostadmark i Malvikmarka. Hytta har enkelte vinterhelger salg av både kaffe, vafler og kioskvarer. Hytta kan nås både fra Mostadmark samfunnshus og fra Rolstadmoen. Sistnevnte e...","elevation":354,"name":"Fjellstuggu","source":"UT.no\/DNT"},"type":"Feature"},{"geometry":{"coordinates":[10.108522000000001,61.452466000000001],"type":"Point"},"id":"food-ut-146657239","properties":{"description":"Tyrihanstunet er bygd opp som et setertun med bygninger fra 17-1800 tallet, hos oss er mat og service i fokus. Tyrihanstunet holder åpent hver dag i vintersesongen, du kan også booke til selskaper opptil 60 sitterplasser i hvert hus.","elevation":727,"name":"Tyrihanstunet","source":"UT.no\/DNT"},"type":"Feature"},{"geometry":{"coordinates":[6.914777,60.566228000000002],"type":"Point"},"id":"food-ut-146730818","properties":{"description":"I 1860 opna det her ein skysstasjon, som med tida blei utvida til hotell. 25 april 1940 brann hotellet ned saman med 50 andre hus på Brakanes. Hotellet blei reist igjen etter krigen og opna igjen i 1952.","name":"Hotellhagen på Brakanes","source":"UT.no\/DNT"},"type":"Feature"},{"geometry":{"coordinates":[8.8835149999999992,60.710478999999999],"type":"Point"},"id":"food-ut-146757150","properties":{"description":"Café Utsyn holder åpent i sommerferien og ellers sammen med skiheisen. Nyt god mat med alle rettigheter og Hallingdals videste utsikt! Åpent hver dag 1. juli- 18. august, kl 11-18. Mye god mat, fersk bakst og god drikke! Alle rettigheter. T...","elevation":856,"name":"Café Utsyn","source":"UT.no\/DNT"},"type":"Feature"},{"geometry":{"coordinates":[10.729027,59.737426999999997],"type":"Point"},"id":"food-ut-146841778","properties":{"description":"Velkommen til gårdskafeen på Breivoll Gård. Her kan du nyte en deilig hjemmelaget lunsj, fersk bakst og kystens best vafler! Breivoll Gård er en betjent DNT hytte og ligger innerst i Bunnefjorden med strand og fine turområder. Breivoll Gård...","elevation":13,"name":"Breivoll Gård kafé","source":"UT.no\/DNT"},"type":"Feature"},{"geometry":{"coordinates":[8.5206879999999998,59.020553],"type":"Point"},"id":"food-ut-146887700","properties":{"description":"Treungen gjestgiveri er en stemningsfull restaurant som serverer god hjemmelaget mat hele året. Vertskapet står også for turistinformasjonen i Nissedal, og kan gi deg rause råd om hva du kan oppleve i kommunen, hjelp til å legge opp ruter o...","elevation":254,"name":"Treungen gjestgiveri & turistinfo","source":"UT.no\/DNT"},"type":"Feature"},{"geometry":{"coordinates":[10.692075000000001,61.150185],"type":"Point"},"id":"food-ut-146887734","properties":{"description":"Cafe og bar på Sjusjøen som serverer mat og drikke.","elevation":815,"name":"Låven bar","source":"UT.no\/DNT"},"type":"Feature"},{"geometry":{"coordinates":[14.688492,67.351314000000002],"type":"Point"},"id":"food-ut-146888428","properties":{"description":"Dette er BULs (Bondeungdomslagets) hytte i Bodømarka. Byens berømte havresuppe serveres hver helg i vintersesongen.","elevation":256,"name":"Erlingbu","source":"UT.no\/DNT"},"type":"Feature"},{"geometry":{"coordinates":[5.7331219999999998,58.972681999999999],"type":"Point"},"id":"food-ut-146888891","properties":{"description":"Fargegata, eller Øvre Holmegate, er Stavangers mest fargerike gate, kjent for sine fargerike husfasader og livlige atmosfære. Her finner du små nisjebutikker, kafeer og barer som gir gaten et unikt preg. Opprinnelig var dette en anonym gate...","elevation":6,"name":"Fargegata i Stavanger","source":"UT.no\/DNT"},"type":"Feature"},{"geometry":{"coordinates":[9.3784620000000007,60.102820000000001],"type":"Point"},"id":"food-ut-146889128","properties":{"description":"I Theodor Kittelsens \"Trollrike\" i Sigdal, rett i nærheten av Andersnatten finner du Grøset seter. Om sommeren er det åpen seter hvor man kan besøke ulike dyr og få servert rømmegrøt og sveler. Passer perfekt for store og små som ønsker å o...","elevation":585,"name":"Grøset seter","source":"UT.no\/DNT"},"type":"Feature"},{"geometry":{"coordinates":[11.170906,60.301271],"type":"Point"},"id":"food-ut-146890108","properties":{"description":"Museumskafeen ligger i tilknytning til Demokratisenteret og har en utsikt til Eidsvollsbygningen og det gamle industriområdet langs Andelva. Det er også en stor terrasse der man kan nyte gode sommerdager. Kafeen er lett tilgjengelig for bev...","elevation":174,"name":"Kafè Standpunkt, Wergelands Hus","source":"UT.no\/DNT"},"type":"Feature"},{"geometry":{"coordinates":[14.550174999999999,67.321218999999999],"type":"Point"},"id":"food-ut-146890256","properties":{"description":"Skihytta oser tradisjon, vafler og kaffe. Et must å gå innom dersom den er åpen. I skisesongen er det gjerne åpent i helgene","elevation":103,"name":"Skihytta","source":"UT.no\/DNT"},"type":"Feature"},{"geometry":{"coordinates":[7.8009190000000004,59.634234999999997],"type":"Point"},"id":"food-ut-146890267","properties":{"description":"Mjonøy er ein triveleg møteplass og turmål i Vinje, der mat, kultur og friluftsliv går hand i hand. Området ligg fint til og er eit naturleg stopp før eller etter turar i nærområdet. På Mjonøy finn du bakeri og kafé med fersk bakst, kaffima...","elevation":485,"name":"Mjonøy","source":"UT.no\/DNT"},"type":"Feature"},{"geometry":{"coordinates":[7.9919890000000002,59.572567999999997],"type":"Point"},"id":"food-ut-146890268","properties":{"description":"Groven Camping og Hyttegrend er eit triveleg og familievennleg overnattings- og turmål i Vinje, vakkert plassert i naturskjøne omgjevnader. I sommarmånadene byr plassen på uteservering med pizza og kalde forfriskingar – ein populær møteplas...","elevation":482,"name":"Groven Camping og Hyttegrend","source":"UT.no\/DNT"},"type":"Feature"},{"geometry":{"coordinates":[7.8278889999999999,63.420698999999999],"type":"Point"},"id":"food-ut-146890472","properties":{"description":"Liten dagligvarebutikk som er døgnåpent. Det er også toalett og kaffekrok.","elevation":7,"name":"Joker Vestsmøla","source":"UT.no\/DNT"},"type":"Feature"},{"geometry":{"coordinates":[8.99437,60.833368],"type":"Point"},"id":"food-ut-14749801","properties":{"description":"Det perfekte stoppestedet på turen. Nyt en smakfull lunsj eller en deilig vaffel i Fjellbistroen. Alle rettigheter. På Oset Fjellhotell finner du mange og varierte aktiviteter. Tilgjengelige for hotellets gjester og de som ikke bor der. Les...","elevation":841,"name":"Oset Fjellhotell","source":"UT.no\/DNT"},"type":"Feature"},{"geometry":{"coordinates":[9.0043290000000002,60.835588000000001],"type":"Point"},"id":"food-ut-14800053","properties":{"description":"Vasskanten Kafé, nær Oset Fjellshotell, er et avslappende sted med sommertilbud. Den serverer småretter og forfriskninger, og har sitteplasser både innendørs og utendørs. Du kan også leie spill og vannsportutstyr på hotellet. Perfekt for ev...","elevation":821,"name":"Vasskanten Kafé","source":"UT.no\/DNT"},"type":"Feature"}],"generator":"Trakke fetch_utno_poi.swift","timestamp":"2026-08-10T00:27:31Z","type":"FeatureCollection"}