{"attribution":"UT.no\/DNT","features":[{"geometry":{"coordinates":[5.367356,61.517615999999997],"type":"Point"},"id":"ford-ut-141645466","properties":{"description":"Vadestedet ligg på stien i vestenden av Stølsvatnet på 588 moh. Ein kryssar over elva på steinar og berg. Desse kan være glatte ved mykje nedbør og vinterstid isete. Snu om du er usikker. Det er ei elv som stig ved nedbør. Turforslag finn d...","elevation":588,"name":"Vadested i vestende av Stølsvatnet","source":"UT.no\/DNT"},"type":"Feature"},{"geometry":{"coordinates":[7.5615119999999996,62.273654000000001],"type":"Point"},"id":"ford-ut-141684460","properties":{"description":"Vadested i Muldalen. Krysses tørrskodd og uten problem på normal vannføring.","elevation":760,"name":"Elvekryssing i Muldalen","source":"UT.no\/DNT"},"type":"Feature"},{"geometry":{"coordinates":[6.6591849999999999,62.252541999999998],"type":"Point"},"id":"ford-ut-141736432","properties":{"description":"Vadested i Velleseterdalen. Kan være krevende ved stor vannføring og snøsmelting","elevation":562,"name":"Vadested i Vellesæterdalen","source":"UT.no\/DNT"},"type":"Feature"},{"geometry":{"coordinates":[6.8704460000000003,60.565874000000001],"type":"Point"},"id":"ford-ut-142609183","properties":{"description":"Stien kryssar bekken som kjem frå Rundatjørn","elevation":351,"name":"Vadestad","source":"UT.no\/DNT"},"type":"Feature"},{"geometry":{"coordinates":[5.5208550000000001,61.667572999999997],"type":"Point"},"id":"ford-ut-142609496","properties":{"description":"Posten Dyttingevatnet ligg omlag på 313 moh og det er flott utsikt utover Norddalsfjorden Dyttingevatnet ligg på nordsida av Midbøen\/Midtbø. Køyr på fylkesveg 544 mot Grøndalen i Norddalsfjord, forbi Sunndalen og parker ved brua over elva m...","elevation":313,"name":"Vadeplass og utsiktsplass ved Dyttingevatnet","source":"UT.no\/DNT"},"type":"Feature"},{"geometry":{"coordinates":[5.5938929999999996,61.585923999999999],"type":"Point"},"id":"ford-ut-143577","properties":{"description":"Torsvatnet ligg på ca 480 moh. Posten er i vestenden av vatnet ved stien opp til Endestadnipa. Stedet er vadested på stien opp til Endestadnipa Ein kryssar over elva på steinar. Desse kan være glatte og vinterstid isete. Snu om du er usikke...","elevation":487,"name":"Vadested Torsvatnet","source":"UT.no\/DNT"},"type":"Feature"},{"geometry":{"coordinates":[5.4536800000000003,61.616809000000003],"type":"Point"},"id":"ford-ut-143700","properties":{"description":"Posten er på sørsida av Nipevatnet ved turbokkassa, 703 moh. Turen startar frå rasteplassen i Eikefjord ved RV5. Den enklaste vegen er å gå traktorvegen opp til Hovlandsstølane og vidare sti til Nipevantet. Luka ved utløpet av Nipevatne ble...","elevation":703,"name":"Vadested - Nipevatnet","source":"UT.no\/DNT"},"type":"Feature"},{"geometry":{"coordinates":[8.3942479999999993,62.559891999999998],"type":"Point"},"id":"ford-ut-145042974","properties":{"description":"Ved stor snøsmelting og mye nedbør kan elva være krevende å krysse uten å vade. Staver og vadesko kan anbefales.","elevation":903,"name":"Vadested Tjønnbotnelva","source":"UT.no\/DNT"},"type":"Feature"},{"geometry":{"coordinates":[7.774051,62.644613999999997],"type":"Point"},"id":"ford-ut-145042987","properties":{"elevation":673,"name":"Vadested Såtevatnet","source":"UT.no\/DNT"},"type":"Feature"},{"geometry":{"coordinates":[7.853675,62.628877000000003],"type":"Point"},"id":"ford-ut-145042988","properties":{"elevation":700,"name":"Vadested Loftskarelva","source":"UT.no\/DNT"},"type":"Feature"},{"geometry":{"coordinates":[8.0328119999999998,62.585501999999998],"type":"Point"},"id":"ford-ut-145042992","properties":{"elevation":600,"name":"Vadested Nyheia","source":"UT.no\/DNT"},"type":"Feature"},{"geometry":{"coordinates":[8.1098669999999995,62.567788],"type":"Point"},"id":"ford-ut-145369887","properties":{"description":"OBS! Det er ikke lenger bro i Hoemsdalen. Man må derfor regne med vading for å krysse elva. Ved normal vannstand er det ikke problem å krysse, men ved større nedbørsmengder og snøsmelting må man regne med å vade. Det anbefales å studere elv...","elevation":489,"name":"Vadested Hoemsdalen","source":"UT.no\/DNT"},"type":"Feature"},{"geometry":{"coordinates":[6.9270959999999997,59.436878],"type":"Point"},"id":"ford-ut-145450821","properties":{"description":"Pøyleåa vad : Mellom Krossvatn og Vassdaltjørn","elevation":1093,"name":"Pøyleåa vad","source":"UT.no\/DNT"},"type":"Feature"},{"geometry":{"coordinates":[7.0462429999999996,59.259847000000001],"type":"Point"},"id":"ford-ut-145471690","properties":{"description":"På sti mellom Kringlevatn og Storstein, 1035 moh","elevation":997,"name":"Breidalen vad","source":"UT.no\/DNT"},"type":"Feature"},{"geometry":{"coordinates":[10.399509,59.091794],"type":"Point"},"id":"ford-ut-145491860","properties":{"description":"Vadeplass på Eidene, hvor du kan gå tørrskodd over Furusund. Lett tilgjengelig plass med fin natur.","name":"Furusund","source":"UT.no\/DNT"},"type":"Feature"},{"geometry":{"coordinates":[7.2517699999999996,59.128888000000003],"type":"Point"},"id":"ford-ut-145499617","properties":{"description":"Vadestedet ligger helt opp mot vann 988. Det er to strekninger med ca. 10 meters bredde som må vades. Vadingen foregår på slett underlag, glattskurt fjell.","elevation":985,"name":"Vadested Risåni","source":"UT.no\/DNT"},"type":"Feature"},{"geometry":{"coordinates":[6.3470829999999996,60.827039999999997],"type":"Point"},"id":"ford-ut-145529948","properties":{"description":"Brua på ruta mellom Engjaland og Torvedalen er erstatta med hoppesteinar.","elevation":854,"name":"Tovedalen hoppesteinar","source":"UT.no\/DNT"},"type":"Feature"},{"geometry":{"coordinates":[7.6868429999999996,62.609335000000002],"type":"Point"},"id":"ford-ut-145601375","properties":{"description":"Ved snøsmelting og mye nedbør kan det være behov for vading rett nord for hengebrua ved Norvikstølen. Er det utfordrende å krysse kan Ljøsåa krysses på sommerbro lenger ned i dalen, vest for Haukebergstølen.","elevation":395,"name":"Vadested Norvikstølen","source":"UT.no\/DNT"},"type":"Feature"},{"geometry":{"coordinates":[5.5016509999999998,61.595261999999998],"type":"Point"},"id":"ford-ut-146327946","properties":{"description":"Vadestedet ligg på stien mellom Ytre Knappstadstøylen og Eikefjordstøylen 371 moh. Ein kryssar over elva på steinar og berg. Desse kan være glatte og vinterstid isete. Snu om du er usikker. Det er ei elv som stig ved mykje nedbør og snøsmel...","elevation":371,"name":"Vadested aust for Eikefjordstøylen","source":"UT.no\/DNT"},"type":"Feature"},{"geometry":{"coordinates":[5.5158550000000002,61.594850999999998],"type":"Point"},"id":"ford-ut-146330967","properties":{"description":"Vadestedet ligg på stien mellom Ytre Knappstadstøylen og Vardalsnakken 458 moh. Ein kryssar over elva på steinar. Desse kan være glatte og vinterstid isete. Snu om du er usikker. Det er ei elv som stig ved mykje nedbør og snøsmelting. Turfo...","elevation":458,"name":"Vadested sør for Vardalsnakken","source":"UT.no\/DNT"},"type":"Feature"},{"geometry":{"coordinates":[5.4744200000000003,61.518050000000002],"type":"Point"},"id":"ford-ut-146330968","properties":{"description":"Vadestedet ligg på stien over Støylselva 219 moh Ein kryssar over elva på steinar og berg. Desse kan være glatte og vinterstid isete. Snu om du er usikker. Det er ei elv som stig ved mykje nedbør og snøsmelting. Turbeskrivingar ligg på ut.n...","elevation":219,"name":"Vadested Steindalen - Fagernipa 1","source":"UT.no\/DNT"},"type":"Feature"},{"geometry":{"coordinates":[5.4563430000000004,61.515920999999999],"type":"Point"},"id":"ford-ut-146330969","properties":{"description":"Vadestedet ligg på stien over Daleelva på 272 moh Ein kryssar over elva på steinar og berg. Desse kan være glatte og vinterstid isete. Snu om du er usikker. Det er ei elv som stig ved mykje nedbør og snøsmelting. Turbeskrivingar på ut.no Ti...","elevation":272,"name":"Vadested Steindalen - Fagernipa 3","source":"UT.no\/DNT"},"type":"Feature"},{"geometry":{"coordinates":[5.4677790000000002,61.517355999999999],"type":"Point"},"id":"ford-ut-146330970","properties":{"description":"Vadestedet ligg på stien over Daleelva på 237 moh Ein kryssar over elva på steinar og berg. Desse kan være glatte og vinterstid isete. Snu om du er usikker. Det er ei elv som stig ved mykje nedbør og snøsmelting. Turforslag finn du ut.no Ti...","elevation":237,"name":"Vadested Steindalen - Fagernipa 2","source":"UT.no\/DNT"},"type":"Feature"},{"geometry":{"coordinates":[5.4538520000000004,61.613098000000001],"type":"Point"},"id":"ford-ut-146332483","properties":{"description":"Vadestedet ligg på stien mellom Hovlandsstølane og Nipevatnet, 632 moh. Ein kryssar over elva på steinar og berg. Desse kan være glatte og vinterstid isete. Snu om du er usikker. Det er ei elv som stig ved mykje nedbør og snøsmelting. Turfo...","elevation":632,"name":"Vadested mellom Hovlandsstølane og Nipevatnet","source":"UT.no\/DNT"},"type":"Feature"},{"geometry":{"coordinates":[5.6403970000000001,61.683570000000003],"type":"Point"},"id":"ford-ut-146335505","properties":{"description":"Vadestedet ligg på stien mellom Budalen og Lassenipa på 606 moh. Ein kryssar over elva på steinar og berg. Desse kan være glatte og vinterstid isete. Snu om du er usikker. Det er ei elv som stig ved mykje nedbør og snøsmelting. Tips til vad...","elevation":606,"name":"Vadested mellom Budalen og Lassenipa","source":"UT.no\/DNT"},"type":"Feature"},{"geometry":{"coordinates":[5.2521690000000003,61.646827000000002],"type":"Point"},"id":"ford-ut-146343059","properties":{"description":"Vadestedet ligg på stien mellom parkering vestre ende av Haukåvatnet og før Tjørnesvatnet på 409 moh. Er elva stor er det letter å vade nokre meter nedenfor enn der stien krysser elva - sjå bilete nr. 2 Ein kryssar over elva på steinar og b...","elevation":409,"name":"Vadested mellom parkering Haukåvatnet og Tjørnesvatnet","source":"UT.no\/DNT"},"type":"Feature"},{"geometry":{"coordinates":[5.4211539999999996,61.651287000000004],"type":"Point"},"id":"ford-ut-146534114","properties":{"description":"Vadestedet ligg på stien sør for Svanevatnet mot Gjelefjellet 97 moh. Ein kryssar over elva på steinar. Desse kan være glatte og vinterstid isete. Snu om du er usikker. Det er ei elv som stig ved mykje nedbør og snøsmelting. Tips til vading...","elevation":98,"name":"Vadested sør for Svanevatnet mot Gjelefjellet","source":"UT.no\/DNT"},"type":"Feature"},{"geometry":{"coordinates":[5.5998169999999998,61.574781999999999],"type":"Point"},"id":"ford-ut-146625103","properties":{"description":"Vadestedet ligg på stien mellom Langedal Parkering og Sætelistøylen over Litlevasselva på 299 moh. Ein kryssar over elva på steinar og berg. Desse kan være glatte og vinterstid isete. Snu om du er usikker. Litt nedenfor er det ei bru som du...","elevation":299,"name":"Vadested over Litlevasselva","source":"UT.no\/DNT"},"type":"Feature"},{"geometry":{"coordinates":[5.6034259999999998,61.575901000000002],"type":"Point"},"id":"ford-ut-146625104","properties":{"description":"Vadestedet ligg på stien mellom Langedal Parkering og Sætelistøylen over Strupeelva på 312 moh. Ein kryssar over elva på steinar og berg. Desse kan være glatte og vinterstid isete. Snu om du er usikker. Det er ei elv som stig ved nedbør og ...","elevation":312,"name":"Vadested over Strupeelva","source":"UT.no\/DNT"},"type":"Feature"},{"geometry":{"coordinates":[5.5650539999999999,61.672778000000001],"type":"Point"},"id":"ford-ut-146626386","properties":{"description":"Vadestedet ligg på stien opp frå Nedstevatnet og mot Dyttingevatnet på 183 moh. Ein kryssar over elva på steinar og berg. Desse kan være glatte og vinterstid isete. Snu om du er usikker. Det er ei elv som stig ved nedbør og snøsmelting. Tip...","elevation":183,"name":"Vadested over Storelievla","source":"UT.no\/DNT"},"type":"Feature"},{"geometry":{"coordinates":[5.5472989999999998,61.672262000000003],"type":"Point"},"id":"ford-ut-146626387","properties":{"description":"Vadestedet ligg på stien opp frå Nedstevatnet og til Støylen på 246 moh. Ein kryssar over elva på steinar og berg. Desse kan være glatte og vinterstid isete. Snu om du er usikker. Det er ei elv som stig ved nedbør og snøsmelting. Tips til v...","elevation":246,"name":"Vadested austre enden av Støylsvatnet","source":"UT.no\/DNT"},"type":"Feature"},{"geometry":{"coordinates":[5.5344769999999999,61.611694999999997],"type":"Point"},"id":"ford-ut-146630233","properties":{"description":"Vadestedet ligg på stien mellom Litle Eikevik og Blåvatnet 280 moh Vadestedet ligg ovenfor der stien krysser elva og det er ein merkepåle der Ein kryssar over elva på steinar. Desse kan være glatte og vinterstid isete. Snu om du er usikker....","elevation":280,"name":"Vadested mellom Litle Eikevik og Blåvatnet","source":"UT.no\/DNT"},"type":"Feature"},{"geometry":{"coordinates":[5.5256169999999996,61.551397999999999],"type":"Point"},"id":"ford-ut-146640520","properties":{"description":"Vadestedet ligg på stien mellom Osestøylen og Vassetestøylen på 304 moh. Ein kryssar over elva på steinar og berg. Desse kan være glatte og vinterstid isete. Snu om du er usikker. Det er ei elv som stig ved nedbør og snøsmelting. Turbeskriv...","elevation":304,"name":"Vadested over Sagelva","source":"UT.no\/DNT"},"type":"Feature"},{"geometry":{"coordinates":[5.3792489999999997,61.657766000000002],"type":"Point"},"id":"ford-ut-146650813","properties":{"description":"Vadestedene ligg ved Litlevatnet på Øyrane 99 moh. Det er fleire elver og bekker som går til Litlevatnet. Området kan vere vanskeleg å gå ved høg vasstand pga nedbør og snøsmelting. Øyrane kan kalles for ei elvevifte. Elva tek med seg stein...","elevation":99,"name":"Vadesteder ved Litlevatnet","source":"UT.no\/DNT"},"type":"Feature"},{"geometry":{"coordinates":[5.4458580000000003,61.655814999999997],"type":"Point"},"id":"ford-ut-146666224","properties":{"description":"Test Vadestedet ligg på stien opp frå Mårhusdalen mot Frishatten 159 moh. Ein kryssar over elva på steinar og berg. Desse kan være glatte og vinterstid isete. Snu om du er usikker. Her er ett vad litt ovanfor på stien Det er ei elv som stig...","elevation":159,"name":"Vadested ved Mårhusdalen mot Frishatten","source":"UT.no\/DNT"},"type":"Feature"},{"geometry":{"coordinates":[5.453424,61.569693999999998],"type":"Point"},"id":"ford-ut-146675098","properties":{"description":"Vadestedet ligg på stien mot Vikanipa på starten på 38 moh samt ett 400 m lenger oppe på stien Ein kryssar over elva på steinar og berg. Desse kan være glatte og vinterstid isete. Snu om du er usikker. Det er ei elv som stig ved nedbør og s...","elevation":38,"name":"Vadesteder mot Vikanipa","source":"UT.no\/DNT"},"type":"Feature"},{"geometry":{"coordinates":[5.5433960000000004,61.73216],"type":"Point"},"id":"ford-ut-146682823","properties":{"description":"Her kjem bilde og mer informasjon Vadestedet ligg på stien frå Blåbrebu mot Ålfotbreen 817 moh Ein kryssar over elva på steinar og berg. Desse kan være glatte og vinterstid isete. Snu om du er usikker. Det er ei elv som stig ved nedbør og s...","elevation":817,"name":"Vadested mot Ålfotbreen 1 310","source":"UT.no\/DNT"},"type":"Feature"},{"geometry":{"coordinates":[5.5194559999999999,61.747444000000002],"type":"Point"},"id":"ford-ut-146682824","properties":{"description":"Vadestedet ligg på stien frå Blåbrebu mot Saga og Plogen på 802 moh Ein kryssar over elva på steinar og berg. Desse kan være glatte og vinterstid isete. Snu om du er usikker. Det er ei elv som stig ved nedbør og snøsmelting. Turbeskrivingar...","elevation":802,"name":"Vadested på stien mot Saga og Plogen","source":"UT.no\/DNT"},"type":"Feature"},{"geometry":{"coordinates":[5.5608899999999997,61.713687],"type":"Point"},"id":"ford-ut-146682826","properties":{"description":"Det kjem bilder med meir informasjon Vadestedet ligg på stien frå Grøndalen mot Blåbrebu på 483 moh Ein kryssar over elva på steinar og berg. Desse kan være glatte og vinterstid isete. Snu om du er usikker. Det er ei elv som stig ved nedbør...","elevation":483,"name":"Vadested på stien til Blåbrebu -1","source":"UT.no\/DNT"},"type":"Feature"},{"geometry":{"coordinates":[5.5557619999999996,61.718313999999999],"type":"Point"},"id":"ford-ut-146682827","properties":{"description":"Det kjem bilder og meir informasjon Vadestedet ligg på stien frå Grøndalen til Blåbrebu på 656 moh Ein kryssar over elva på steinar og berg. Desse kan være glatte og vinterstid isete. Snu om du er usikker. Det er ei elv som stig ved nedbør ...","elevation":656,"name":"Vadested på stien til Blåbrebu -2","source":"UT.no\/DNT"},"type":"Feature"},{"geometry":{"coordinates":[5.5541939999999999,61.719034999999998],"type":"Point"},"id":"ford-ut-146682828","properties":{"description":"Vadestedet ligg på stien frå Grøndalen til Blåbrebu 660 moh Ein kryssar over elva på steinar og berg. Desse kan være glatte og vinterstid isete. Snu om du er usikker. Det er ei elv som stig ved nedbør og snøsmelting. Turbeskrivingar på ut.n...","elevation":660,"name":"Vadested på stien til Blåbrebu - 3","source":"UT.no\/DNT"},"type":"Feature"},{"geometry":{"coordinates":[5.3879010000000003,61.619962000000001],"type":"Point"},"id":"ford-ut-146685410","properties":{"description":"Vadestedet ligg på Ferdslevegen mellom Norddalsfjord og Tonheim og ligg på 436 moh. Informasjon er henta frå Jostein Midtbø si bok: \"Ferdselsvegar i fjella mellom Norddalsfjord, Hyen og Eikefjord\" (2010 Norddalsfjord Grendelag). Ein kryssar...","elevation":436,"name":"Vadested neden for Ytre Strandastølen","source":"UT.no\/DNT"},"type":"Feature"},{"geometry":{"coordinates":[5.4076360000000001,61.621375999999998],"type":"Point"},"id":"ford-ut-146685411","properties":{"description":"Vadestedet ligg på stien mellom Ferdslevegen Norddalsfjord og Tonheim på 436 moh på høgda sør om Fiskevatnet, 391 moh. Informasjon er henta frå Jostein Midtbø si bok: \"Ferdselsvegar i fjella mellom Norddalsfjord, Hyen og Eikefjord\" (2010 No...","elevation":436,"name":"Vadested ved Fiskevatnet","source":"UT.no\/DNT"},"type":"Feature"},{"geometry":{"coordinates":[5.4320880000000002,61.626528],"type":"Point"},"id":"ford-ut-146685412","properties":{"description":"Vadestedet ligg på stien mellom Ferdslevegen Norddalsfjord og Tonheim på 318 moh. Informasjon er henta frå Jostein Midtbø si bok: \"Ferdselsvegar i fjella mellom Norddalsfjord, Hyen og Eikefjord\" (2010 Norddalsfjord Grendelag). Ein kryssar o...","elevation":316,"name":"Vadested aust for Norddalsstølen","source":"UT.no\/DNT"},"type":"Feature"},{"geometry":{"coordinates":[5.3721579999999998,61.528768999999997],"type":"Point"},"id":"ford-ut-146685413","properties":{"description":"Det er fleire Vadesteder på stien mellom Høydalsvatnet og Simavatnet. Ein kryssar over elva på steinar og berg. Desse kan være glatte ved mykje nedbør og vinterstid isete. Snu om du er usikker. Det er ei elv som stig ved nedbør. Turbeskrivi...","elevation":438,"name":"Vadesteder mellom Høydalsvatnet og Simavatnet","source":"UT.no\/DNT"},"type":"Feature"},{"geometry":{"coordinates":[5.4418329999999999,61.626753999999998],"type":"Point"},"id":"ford-ut-146685414","properties":{"description":"3 vadesteder ligg på stien mellom Ferdslevegen Norddalsfjord og Tonheim ved søraustre enden av Stølsvatnet på 307 moh. Informasjon er henta frå Jostein Midtbø si bok: \"Ferdselsvegar i fjella mellom Norddalsfjord, Hyen og Eikefjord\" (2010 No...","elevation":307,"name":"Vadesteder søraustre Stølsvatnet","source":"UT.no\/DNT"},"type":"Feature"},{"geometry":{"coordinates":[5.443022,61.627803],"type":"Point"},"id":"ford-ut-146685415","properties":{"description":"Vadestedet ligg på stien mellom Ferdslevegen Norddalsfjord og Tonheim - sør for Solheimsstølen på 305 moh i austre enden av Stølsvatnet på stranda. Informasjon er henta frå Jostein Midtbø si bok: \"Ferdselsvegar i fjella mellom Norddalsfjord...","elevation":305,"name":"Vadested sør for Solheimsstølen","source":"UT.no\/DNT"},"type":"Feature"},{"geometry":{"coordinates":[5.4628170000000003,61.641620000000003],"type":"Point"},"id":"ford-ut-146685416","properties":{"description":"Vadestedet ligg på stien mellom Ferdslevegen Norddalsfjord og Tonheim eit stykke vest for utlaupselvane i vestenden av Fiskevatnet på 133 moh. Informasjon er henta frå Jostein Midtbø si bok: \"Ferdselsvegar i fjella mellom Norddalsfjord, Hye...","elevation":133,"name":"Vadested vest for Fiskevatnet","source":"UT.no\/DNT"},"type":"Feature"},{"geometry":{"coordinates":[5.469023,61.642966999999999],"type":"Point"},"id":"ford-ut-146685417","properties":{"description":"Vadestedet ligg på stien mellom Ferdslevegen Norddalsfjord og Tonheim - det ligg 3 vadesteder ved utlaupselvane i vestre enden av Fiskevatnet på 128 moh. Dersom det er stor vassføring slik at det er vanskeleg å kome over utlaupselvane ut av...","elevation":129,"name":"Vadesteder i vestre ende av Fiskevatnet","source":"UT.no\/DNT"},"type":"Feature"},{"geometry":{"coordinates":[5.384639,61.528917],"type":"Point"},"id":"ford-ut-146707374","properties":{"description":"Vadestedet ligg på stien nedanfor Høydalsnipa\/Ytste Håstein 752 moh i utløpet av vatnet 655 moh Ein kryssar over elva på steinar og berg. Desse kan være glatte og vinterstid isete. Snu om du er usikker. Det er ei elv som stig ved nedbør. Tu...","elevation":750,"name":"Vadested på Håsteinplatået mot Høydalsnipa\/Ytste Håstein","source":"UT.no\/DNT"},"type":"Feature"},{"geometry":{"coordinates":[5.3755940000000004,61.529671999999998],"type":"Point"},"id":"ford-ut-146709974","properties":{"description":"Vadestedet ligg på stien opp til Villebøen frå vestsida på 532 moh. Her kjem du opp og må over etter å ha dreid nordaustover frå Høydalsvatnet som ligg på 425 moh. Villlebøen er lokalt navn og ligg på 663 moh Ein kryssar over elva på steina...","elevation":511,"name":"Vadested på stien til Villebøen opp frå vest","source":"UT.no\/DNT"},"type":"Feature"},{"geometry":{"coordinates":[4.8659169999999996,61.679600999999998],"type":"Point"},"id":"ford-ut-146713891","properties":{"description":"Vadestedet ligg ved utløpet av Gåsevatnet 156 moh. Ein kryssar over elva på steinar. Desse kan være glatte ved mykje nedbør og vinterstid isete. Snu om du er usikker. Det er ei elv som stig ved nedbør. Turforslag på ut.no Tips til vading Go...","elevation":156,"name":"Hovden Vadested ved utløpet av Gåsevatnet","source":"UT.no\/DNT"},"type":"Feature"},{"geometry":{"coordinates":[4.832865,61.687260000000002],"type":"Point"},"id":"ford-ut-146713892","properties":{"description":"Vadestedet ligg på stien i Dalen 5 moh over Dalselva Ein kryssar over elva på steinar. Desse kan være glatte ved mykje nedbør og vinterstid isete. Snu om du er usikker. Det er ei elv som stig ved nedbør. Turtips på ut.no Tips til vading God...","elevation":5,"name":"Hovden Vadested i Dalen","source":"UT.no\/DNT"},"type":"Feature"},{"geometry":{"coordinates":[5.5631519999999997,61.533515000000001],"type":"Point"},"id":"ford-ut-146715199","properties":{"description":"Vadestedet ligg ved utløpet av Rimmavatnet 474 moh. Ein kryssar over elva på steinar. Desse kan være glatte ved mykje nedbør og vinterstid isete. Snu om du er usikker. Det er ei elv som stig ved nedbør og snøsmelting. Turforslag på ut.no Ti...","elevation":474,"name":"Vadested ved utløpet av Rimmavatnet","source":"UT.no\/DNT"},"type":"Feature"},{"geometry":{"coordinates":[5.5608680000000001,61.541508],"type":"Point"},"id":"ford-ut-146715200","properties":{"description":"Vadestedet ligg ved det tredje og nordligste Dyrdalsvatna på 557 moh. Ein kryssar over elva på steinar. Desse kan være glatte ved mykje nedbør og vinterstid isete. Snu om du er usikker. Det er ei elv som stig ved nedbør og snøsmelting. Turf...","elevation":557,"name":"Vadested ved Dyrdalsvatna","source":"UT.no\/DNT"},"type":"Feature"},{"geometry":{"coordinates":[5.5386670000000002,61.534882000000003],"type":"Point"},"id":"ford-ut-146715201","properties":{"description":"Vadestedet ligg ved Tverrelva på 722 moh og du krysser i ett gjel på Steindalsfjellet. Ein kryssar over elva på steinar. Desse kan være glatte ved mykje nedbør og vinterstid isete. Snu om du er usikker. Det er ei elv som stig ved nedbør og ...","elevation":722,"name":"Vadested ved Tverrelva","source":"UT.no\/DNT"},"type":"Feature"},{"geometry":{"coordinates":[5.538932,61.531480999999999],"type":"Point"},"id":"ford-ut-146715202","properties":{"description":"Vadestedet ligg i skogen over Tverrelva på 417 moh. Ein kryssar over elva på steinar. Desse kan være glatte ved mykje nedbør og vinterstid isete. Snu om du er usikker. Det er ei elv som stig ved nedbør og snøsmelting. Turforslag på ut.no Ti...","elevation":417,"name":"Vadested på Tverrelva","source":"UT.no\/DNT"},"type":"Feature"},{"geometry":{"coordinates":[5.5151479999999999,61.599241999999997],"type":"Point"},"id":"ford-ut-146717799","properties":{"description":"Vadestedet ligg på sørsida av Grønevatnet(lokalt navn) på 539 moh. Ein kryssar over elva på steinar. Desse kan være glatte ved mykje nedbør og vinterstid isete. Snu om du er usikker. Det er ei elv som stig ved nedbør og snøsmelting. Turfors...","elevation":539,"name":"Vadested ved Grønevatnet","source":"UT.no\/DNT"},"type":"Feature"},{"geometry":{"coordinates":[5.1923779999999997,61.665182999999999],"type":"Point"},"id":"ford-ut-146717800","properties":{"description":"Vadestedet ligg ved utløpet av Kupevatnet på 412 moh. Ein kryssar over elva på steinar. Desse kan være glatte ved mykje nedbør og vinterstid isete. Snu om du er usikker. Det er ei elv som stig ved nedbør og snøsmelting. Turforslag finn du u...","elevation":411,"name":"Vadested ved utløpet av Kupevatnet","source":"UT.no\/DNT"},"type":"Feature"},{"geometry":{"coordinates":[5.4622250000000001,61.616264000000001],"type":"Point"},"id":"ford-ut-146725617","properties":{"description":"Vadestedet ligg på stien til Blånipa og Djupedalsnipa i austenden av Nipevatnet på 706 moh. Ein kryssar over elva på steinar og berg. Desse kan være glatte og vinterstid isete. Snu om du er usikker. Det er ei elv som stig ved mykje nedbør o...","elevation":706,"name":"Vadested i austre ende av Nipevatnet","source":"UT.no\/DNT"},"type":"Feature"},{"geometry":{"coordinates":[5.6087490000000004,61.713501999999998],"type":"Point"},"id":"ford-ut-146802729","properties":{"description":"Vadestedene ligg i nordre enden av Svartedalsvatnet 360 moh. Det er fleire elver og bekker som går til Svartedalsvatnet. Området kan vere vanskeleg å gå ved høg vasstand pga nedbør og snøsmelting. Området kan kalles for ei elvevifte. Elva t...","elevation":360,"name":"Vadested i nordre enden av Svartedalsvatnet","source":"UT.no\/DNT"},"type":"Feature"},{"geometry":{"coordinates":[5.5501620000000003,61.720664999999997],"type":"Point"},"id":"ford-ut-146827909","properties":{"description":"Det kjem bilder og meir informasjon Vadestedet ligg på stien til Blåbrebu frå Grøndalen på 671 moh Ein kryssar over elva på steinar. Desse kan være glatte ved mykje nedbør og vinterstid isete. Snu om du er usikker. Det er ei elv som stig ve...","elevation":671,"name":"Vadested på stien til Blåbrebu 4","source":"UT.no\/DNT"},"type":"Feature"},{"geometry":{"coordinates":[5.542732,61.724055999999997],"type":"Point"},"id":"ford-ut-146827910","properties":{"description":"Vadestedet ligg på stien til Blåbrebu frå Grøndalen på 739 moh Ein kryssar over elva på steinar. Desse kan være glatte ved mykje nedbør og vinterstid isete. Snu om du er usikker. Det er ei elv som stig ved nedbør og snøsmelting. Turbeskrivi...","elevation":739,"name":"Vadested på stien til Blåbrebu 5","source":"UT.no\/DNT"},"type":"Feature"},{"geometry":{"coordinates":[5.4524109999999997,61.514282999999999],"type":"Point"},"id":"ford-ut-146849642","properties":{"description":"Vadestedet ligg på stien over Daleelva på 294 moh Ein kryssar over elva på steinar og berg. Desse kan være glatte og vinterstid isete. Snu om du er usikker. Det er ei elv som stig ved mykje nedbør og snøsmelting. Turforslag finn du ut.no Ti...","elevation":294,"name":"Vadested Steindalen - Fagernipa 4","source":"UT.no\/DNT"},"type":"Feature"},{"geometry":{"coordinates":[5.4503329999999997,61.514054000000002],"type":"Point"},"id":"ford-ut-146849644","properties":{"description":"Vadestedet ligg på stien over Daleelva på 297 moh Ein kryssar over elva på steinar og berg. Desse kan være glatte og vinterstid isete. Snu om du er usikker. Det er ei elv som stig ved mykje nedbør og snøsmelting. Turforslag finn du ut.no Ti...","elevation":297,"name":"Vadested Steindalen - Fagernipa 5","source":"UT.no\/DNT"},"type":"Feature"},{"geometry":{"coordinates":[5.3285140000000002,61.517014000000003],"type":"Point"},"id":"ford-ut-146852173","properties":{"description":"Vadestedet ligg på stien opp til Storenipa over Stølselva på 293 moh. Ein kryssar over elva på steinar og berg. Desse kan være glatte ved mykje nedbør og vinterstid isete. Snu om du er usikker. Det er ei elv som stig ved nedbør. Turforslag ...","elevation":293,"name":"Vadested over Stølselva","source":"UT.no\/DNT"},"type":"Feature"},{"geometry":{"coordinates":[4.8303599999999998,61.567478999999999],"type":"Point"},"id":"ford-ut-146852174","properties":{"description":"Vadestedet ligg på stien i kanten på Vatnet 5 moh på nordsida av midtre Rekstafjellet \/ Vasslifjellet på turen Reksta Ein passerer langs Vatnet, ved høg vannstand kan det være vanskelig å forsere. Snu om du er usikker. Vatnet stig ved mykje...","elevation":5,"name":"Vadested ved Vatnet nordsida Midtre Rekstafjellet","source":"UT.no\/DNT"},"type":"Feature"},{"geometry":{"coordinates":[5.3209809999999997,61.521537000000002],"type":"Point"},"id":"ford-ut-146887674","properties":{"description":"Vadestedet ligg på turen frå Øvre Standal til Skålefjellet opp mot Jaraskaret og ligg på 317 moh. Elva deler seg i to løp her og ein må krysse begge. Ein kryssar over elva på steinar og berg. Desse kan være glatte og vinterstid isete. Snu o...","elevation":314,"name":"Vadested over elva mot Jarskaret 2","source":"UT.no\/DNT"},"type":"Feature"},{"geometry":{"coordinates":[5.3116700000000003,61.518143000000002],"type":"Point"},"id":"ford-ut-146887675","properties":{"description":"Vadestedet ligg på turen frå Øvre Standal til Skålefjellet opp mot Jaraskaret og ligg på 170 moh. Ein kryssar over elva på steinar og berg. Desse kan være glatte og vinterstid isete. Snu om du er usikker. Det er ei elv som stig ved nedbør o...","elevation":168,"name":"Vadested over elva mot Jarskaret 1","source":"UT.no\/DNT"},"type":"Feature"},{"geometry":{"coordinates":[7.2926190000000002,60.529057999999999],"type":"Point"},"id":"ford-ut-146891076","properties":{"description":"Stedet har rester av gamle fundament fra tidligere sommerbruer, som ikke lenger er i bruk. Og gammel merking på svaberg. Vannet i elva kan rekke opp til låret og være litt stritt. Gode fjellstøvler, gamasjer og vandrestaver anbefales.","elevation":989,"name":"Elv fra Rembesdalkåka - må vades","source":"UT.no\/DNT"},"type":"Feature"}],"generator":"Trakke fetch_utno_poi.swift","timestamp":"2026-08-10T00:27:31Z","type":"FeatureCollection"}