{"attribution":"OpenStreetMap contributors (ODbL)","features":[{"geometry":{"coordinates":[10.784682999999999,60.009255000000003],"type":"Point"},"id":"kettle-osm-node-1178036673","properties":{"name":"Jettegryte","osm_ref":"node-1178036673","source":"OpenStreetMap"},"type":"Feature"},{"geometry":{"coordinates":[7.6105720000000003,60.697232],"type":"Point"},"id":"kettle-osm-node-14024815612","properties":{"name":"Jettegryte","osm_ref":"node-14024815612","source":"OpenStreetMap"},"type":"Feature"},{"geometry":{"coordinates":[7.6107570000000004,60.697141999999999],"type":"Point"},"id":"kettle-osm-node-14024815613","properties":{"name":"Jettegryte","osm_ref":"node-14024815613","source":"OpenStreetMap"},"type":"Feature"},{"geometry":{"coordinates":[7.6112159999999998,60.696967000000001],"type":"Point"},"id":"kettle-osm-node-14024815614","properties":{"name":"Jettegryte","osm_ref":"node-14024815614","source":"OpenStreetMap"},"type":"Feature"},{"geometry":{"coordinates":[10.853146000000001,59.862366999999999],"type":"Point"},"id":"kettle-osm-node-2101970855","properties":{"name":"Jettegryte","osm_ref":"node-2101970855","source":"OpenStreetMap"},"type":"Feature"},{"geometry":{"coordinates":[9.1386810000000001,58.628048999999997],"type":"Point"},"id":"kettle-osm-node-2381857356","properties":{"name":"Krigshola","osm_ref":"node-2381857356","source":"OpenStreetMap"},"type":"Feature"},{"geometry":{"coordinates":[10.737002,59.756692000000001],"type":"Point"},"id":"kettle-osm-node-4143580414","properties":{"name":"Jettegryte","osm_ref":"node-4143580414","source":"OpenStreetMap"},"type":"Feature"},{"geometry":{"coordinates":[5.5506479999999998,58.850422000000002],"type":"Point"},"id":"kettle-osm-node-4214167522","properties":{"name":"Jettegrytene","osm_ref":"node-4214167522","source":"OpenStreetMap"},"type":"Feature"},{"geometry":{"coordinates":[6.3666400000000003,59.149932],"type":"Point"},"id":"kettle-osm-node-4827774302","properties":{"name":"Jettegryte","osm_ref":"node-4827774302","source":"OpenStreetMap"},"type":"Feature"},{"geometry":{"coordinates":[11.228182,59.120686999999997],"type":"Point"},"id":"kettle-osm-node-5117995409","properties":{"name":"Jettegryte","osm_ref":"node-5117995409","source":"OpenStreetMap"},"type":"Feature"},{"geometry":{"coordinates":[7.3230040000000001,58.380284000000003],"type":"Point"},"id":"kettle-osm-node-7619851398","properties":{"name":"St. Olavs kjelda","osm_ref":"node-7619851398","source":"OpenStreetMap"},"type":"Feature"},{"geometry":{"coordinates":[11.071002,59.134678000000001],"type":"Point"},"id":"kettle-osm-node-876814346","properties":{"name":"Jettegryte","osm_ref":"node-876814346","source":"OpenStreetMap"},"type":"Feature"},{"geometry":{"coordinates":[11.070475,59.128369999999997],"type":"Point"},"id":"kettle-osm-node-9879646199","properties":{"name":"Jettegryte","osm_ref":"node-9879646199","source":"OpenStreetMap"},"type":"Feature"}],"generator":"Trakke fetch_osm_poi.swift","timestamp":"2026-08-09T23:19:25Z","type":"FeatureCollection"}