{"attribution":"OpenStreetMap contributors (ODbL)","features":[{"geometry":{"coordinates":[11.043523,59.954391000000001],"type":"Point"},"id":"hammock-osm-node-12064465466","properties":{"name":"Hengekøyeplass","osm_ref":"node-12064465466","source":"OpenStreetMap"},"type":"Feature"},{"geometry":{"coordinates":[11.043316000000001,59.954368000000002],"type":"Point"},"id":"hammock-osm-node-12064465467","properties":{"name":"Hengekøyeplass","osm_ref":"node-12064465467","source":"OpenStreetMap"},"type":"Feature"},{"geometry":{"coordinates":[10.655365,59.950032999999998],"type":"Point"},"id":"hammock-osm-node-12151824879","properties":{"description":"Laget av plastreip, metall og tre","name":"Hengekøyeplass","osm_ref":"node-12151824879","source":"OpenStreetMap"},"type":"Feature"},{"geometry":{"coordinates":[5.3324439999999997,60.390715999999998],"type":"Point"},"id":"hammock-osm-node-13034904308","properties":{"name":"Hengekøyeplass","osm_ref":"node-13034904308","source":"OpenStreetMap"},"type":"Feature"}],"generator":"Trakke fetch_osm_poi.swift","timestamp":"2026-08-09T23:19:25Z","type":"FeatureCollection"}