{"type":"FeatureCollection","generator":"CCW OSM lagoon v1","timestamp":"2026-05-14T19:20:03.444Z","attribution":"OpenStreetMap contributors (ODbL)","features":[{"type":"Feature","id":"lagoon-osm-relation-10718009","geometry":{"type":"Point","coordinates":[7.341508,62.598695]},"properties":{"name":"Vågen","source":"OpenStreetMap","osm_ref":"relation-10718009"}},{"type":"Feature","id":"lagoon-osm-way-569454190","geometry":{"type":"Point","coordinates":[17.083742,69.359613]},"properties":{"name":"Lagune","source":"OpenStreetMap","osm_ref":"way-569454190"}},{"type":"Feature","id":"lagoon-osm-relation-14076078","geometry":{"type":"Point","coordinates":[14.264465,67.063738]},"properties":{"name":"Lagune","source":"OpenStreetMap","osm_ref":"relation-14076078"}},{"type":"Feature","id":"lagoon-osm-relation-15953660","geometry":{"type":"Point","coordinates":[17.058968,69.036456]},"properties":{"name":"Lagune","source":"OpenStreetMap","osm_ref":"relation-15953660"}},{"type":"Feature","id":"lagoon-osm-way-166876552","geometry":{"type":"Point","coordinates":[12.235837,66.586166]},"properties":{"name":"Lagune","source":"OpenStreetMap","osm_ref":"way-166876552"}},{"type":"Feature","id":"lagoon-osm-way-796947922","geometry":{"type":"Point","coordinates":[7.048015,57.981802]},"properties":{"name":"Lagune","source":"OpenStreetMap","osm_ref":"way-796947922"}},{"type":"Feature","id":"lagoon-osm-relation-16808993","geometry":{"type":"Point","coordinates":[10.281565,63.319651]},"properties":{"name":"Lagune","source":"OpenStreetMap","osm_ref":"relation-16808993"}},{"type":"Feature","id":"lagoon-osm-relation-20627071","geometry":{"type":"Point","coordinates":[10.255488,63.341289]},"properties":{"name":"Lagune","source":"OpenStreetMap","osm_ref":"relation-20627071"}},{"type":"Feature","id":"lagoon-osm-way-286176739","geometry":{"type":"Point","coordinates":[10.246583,63.340763]},"properties":{"name":"Lagune","source":"OpenStreetMap","osm_ref":"way-286176739"}},{"type":"Feature","id":"lagoon-osm-way-628514493","geometry":{"type":"Point","coordinates":[13.776182,67.162053]},"properties":{"name":"Lagune","source":"OpenStreetMap","osm_ref":"way-628514493"}},{"type":"Feature","id":"lagoon-osm-way-1178735219","geometry":{"type":"Point","coordinates":[9.31943,58.736092]},"properties":{"name":"Lagune","source":"OpenStreetMap","osm_ref":"way-1178735219"}}]}