{"attribution":"OpenStreetMap contributors (ODbL)","features":[{"geometry":{"coordinates":[9.7801189999999991,59.602460999999998],"type":"Point"},"id":"oxbow-osm-relation-11631581","properties":{"name":"Kroksjø","osm_ref":"relation-11631581","source":"OpenStreetMap"},"type":"Feature"},{"geometry":{"coordinates":[10.947193,62.322887000000001],"type":"Point"},"id":"oxbow-osm-relation-11718846","properties":{"name":"Kroksjø","osm_ref":"relation-11718846","source":"OpenStreetMap"},"type":"Feature"},{"geometry":{"coordinates":[10.764898000000001,62.274149999999999],"type":"Point"},"id":"oxbow-osm-relation-11734214","properties":{"name":"Kroksjø","osm_ref":"relation-11734214","source":"OpenStreetMap"},"type":"Feature"},{"geometry":{"coordinates":[6.8360000000000003,58.373933000000001],"type":"Point"},"id":"oxbow-osm-relation-12178511","properties":{"name":"Kroksjø","osm_ref":"relation-12178511","source":"OpenStreetMap"},"type":"Feature"},{"geometry":{"coordinates":[6.837567,58.375660000000003],"type":"Point"},"id":"oxbow-osm-relation-12178513","properties":{"name":"Kroksjø","osm_ref":"relation-12178513","source":"OpenStreetMap"},"type":"Feature"},{"geometry":{"coordinates":[10.944883000000001,62.321922000000001],"type":"Point"},"id":"oxbow-osm-relation-14957649","properties":{"name":"Kroksjø","osm_ref":"relation-14957649","source":"OpenStreetMap"},"type":"Feature"},{"geometry":{"coordinates":[10.944293,62.321232000000002],"type":"Point"},"id":"oxbow-osm-relation-14957650","properties":{"name":"Kroksjø","osm_ref":"relation-14957650","source":"OpenStreetMap"},"type":"Feature"},{"geometry":{"coordinates":[30.349892000000001,70.268523999999999],"type":"Point"},"id":"oxbow-osm-relation-14992758","properties":{"name":"Kroksjø","osm_ref":"relation-14992758","source":"OpenStreetMap"},"type":"Feature"},{"geometry":{"coordinates":[30.387108999999999,70.259715999999997],"type":"Point"},"id":"oxbow-osm-relation-14992896","properties":{"name":"Kroksjø","osm_ref":"relation-14992896","source":"OpenStreetMap"},"type":"Feature"},{"geometry":{"coordinates":[30.861225999999998,69.744255999999993],"type":"Point"},"id":"oxbow-osm-relation-15265420","properties":{"name":"Kroksjø","osm_ref":"relation-15265420","source":"OpenStreetMap"},"type":"Feature"},{"geometry":{"coordinates":[7.3440110000000001,58.125618000000003],"type":"Point"},"id":"oxbow-osm-relation-16353338","properties":{"name":"Kroksjø","osm_ref":"relation-16353338","source":"OpenStreetMap"},"type":"Feature"},{"geometry":{"coordinates":[10.257052,60.124372000000001],"type":"Point"},"id":"oxbow-osm-relation-16471347","properties":{"name":"Juveren","osm_ref":"relation-16471347","source":"OpenStreetMap"},"type":"Feature"},{"geometry":{"coordinates":[10.209854999999999,60.123384999999999],"type":"Point"},"id":"oxbow-osm-relation-16483414","properties":{"name":"Synneren","osm_ref":"relation-16483414","source":"OpenStreetMap"},"type":"Feature"},{"geometry":{"coordinates":[9.1753,59.569315000000003],"type":"Point"},"id":"oxbow-osm-relation-16525507","properties":{"name":"Kroksjø","osm_ref":"relation-16525507","source":"OpenStreetMap"},"type":"Feature"},{"geometry":{"coordinates":[28.023351999999999,70.033784999999995],"type":"Point"},"id":"oxbow-osm-relation-17200162","properties":{"name":"Kroksjø","osm_ref":"relation-17200162","source":"OpenStreetMap"},"type":"Feature"},{"geometry":{"coordinates":[28.025448999999998,70.030737999999999],"type":"Point"},"id":"oxbow-osm-relation-17200219","properties":{"name":"Kroksjø","osm_ref":"relation-17200219","source":"OpenStreetMap"},"type":"Feature"},{"geometry":{"coordinates":[28.037206999999999,70.040766000000005],"type":"Point"},"id":"oxbow-osm-relation-17201217","properties":{"name":"Kroksjø","osm_ref":"relation-17201217","source":"OpenStreetMap"},"type":"Feature"},{"geometry":{"coordinates":[28.028134999999999,70.042952999999997],"type":"Point"},"id":"oxbow-osm-relation-17201218","properties":{"name":"Kroksjø","osm_ref":"relation-17201218","source":"OpenStreetMap"},"type":"Feature"},{"geometry":{"coordinates":[28.035246000000001,70.043218999999993],"type":"Point"},"id":"oxbow-osm-relation-17201243","properties":{"name":"Vuolit Riŋgi","osm_ref":"relation-17201243","source":"OpenStreetMap"},"type":"Feature"},{"geometry":{"coordinates":[10.854933000000001,60.108449999999998],"type":"Point"},"id":"oxbow-osm-relation-1932346","properties":{"name":"Kroksjø","osm_ref":"relation-1932346","source":"OpenStreetMap"},"type":"Feature"},{"geometry":{"coordinates":[11.073570999999999,63.198495999999999],"type":"Point"},"id":"oxbow-osm-relation-19372935","properties":{"name":"Kroksjø","osm_ref":"relation-19372935","source":"OpenStreetMap"},"type":"Feature"},{"geometry":{"coordinates":[9.2811620000000001,60.010258],"type":"Point"},"id":"oxbow-osm-relation-20574499","properties":{"name":"Kroksjø","osm_ref":"relation-20574499","source":"OpenStreetMap"},"type":"Feature"},{"geometry":{"coordinates":[8.7134029999999996,62.119118],"type":"Point"},"id":"oxbow-osm-relation-4003415","properties":{"name":"Kroksjø","osm_ref":"relation-4003415","source":"OpenStreetMap"},"type":"Feature"},{"geometry":{"coordinates":[8.7294590000000003,62.115718999999999],"type":"Point"},"id":"oxbow-osm-relation-4003416","properties":{"name":"Kroksjø","osm_ref":"relation-4003416","source":"OpenStreetMap"},"type":"Feature"},{"geometry":{"coordinates":[8.6988669999999999,62.121727],"type":"Point"},"id":"oxbow-osm-relation-4004511","properties":{"name":"Kroksjø","osm_ref":"relation-4004511","source":"OpenStreetMap"},"type":"Feature"},{"geometry":{"coordinates":[9.8493010000000005,62.156452999999999],"type":"Point"},"id":"oxbow-osm-relation-4575189","properties":{"name":"Kroksjø","osm_ref":"relation-4575189","source":"OpenStreetMap"},"type":"Feature"},{"geometry":{"coordinates":[8.8475859999999997,61.133935999999999],"type":"Point"},"id":"oxbow-osm-relation-5135941","properties":{"name":"Kroksjø","osm_ref":"relation-5135941","source":"OpenStreetMap"},"type":"Feature"},{"geometry":{"coordinates":[9.7189110000000003,63.013438999999998],"type":"Point"},"id":"oxbow-osm-relation-5160495","properties":{"name":"Kroksjø","osm_ref":"relation-5160495","source":"OpenStreetMap"},"type":"Feature"},{"geometry":{"coordinates":[18.486927000000001,68.809469000000007],"type":"Point"},"id":"oxbow-osm-relation-5580100","properties":{"name":"Kroksjø","osm_ref":"relation-5580100","source":"OpenStreetMap"},"type":"Feature"},{"geometry":{"coordinates":[18.485880999999999,68.812551999999997],"type":"Point"},"id":"oxbow-osm-relation-5580139","properties":{"name":"Kroksjø","osm_ref":"relation-5580139","source":"OpenStreetMap"},"type":"Feature"},{"geometry":{"coordinates":[18.489115000000002,68.813432000000006],"type":"Point"},"id":"oxbow-osm-relation-5580170","properties":{"name":"Kroksjø","osm_ref":"relation-5580170","source":"OpenStreetMap"},"type":"Feature"},{"geometry":{"coordinates":[18.784272000000001,68.665046000000004],"type":"Point"},"id":"oxbow-osm-relation-5580437","properties":{"name":"Kroksjø","osm_ref":"relation-5580437","source":"OpenStreetMap"},"type":"Feature"},{"geometry":{"coordinates":[18.790693000000001,68.664845],"type":"Point"},"id":"oxbow-osm-relation-5580468","properties":{"name":"Kroksjø","osm_ref":"relation-5580468","source":"OpenStreetMap"},"type":"Feature"},{"geometry":{"coordinates":[18.501124000000001,68.819580999999999],"type":"Point"},"id":"oxbow-osm-relation-5582403","properties":{"name":"Kroksjø","osm_ref":"relation-5582403","source":"OpenStreetMap"},"type":"Feature"},{"geometry":{"coordinates":[18.458192,69.222060999999997],"type":"Point"},"id":"oxbow-osm-relation-5917795","properties":{"name":"Kroksjø","osm_ref":"relation-5917795","source":"OpenStreetMap"},"type":"Feature"},{"geometry":{"coordinates":[18.906310000000001,68.997879999999995],"type":"Point"},"id":"oxbow-osm-relation-5918021","properties":{"name":"Kroksjø","osm_ref":"relation-5918021","source":"OpenStreetMap"},"type":"Feature"},{"geometry":{"coordinates":[18.940792999999999,68.995414999999994],"type":"Point"},"id":"oxbow-osm-relation-5918028","properties":{"name":"Gjeddtjønna","osm_ref":"relation-5918028","source":"OpenStreetMap"},"type":"Feature"},{"geometry":{"coordinates":[12.233929,59.928266999999998],"type":"Point"},"id":"oxbow-osm-relation-8253886","properties":{"name":"Kroksjø","osm_ref":"relation-8253886","source":"OpenStreetMap"},"type":"Feature"},{"geometry":{"coordinates":[12.204625,59.938740000000003],"type":"Point"},"id":"oxbow-osm-relation-9601554","properties":{"name":"Kroksjø","osm_ref":"relation-9601554","source":"OpenStreetMap"},"type":"Feature"},{"geometry":{"coordinates":[30.379525999999998,70.258043000000001],"type":"Point"},"id":"oxbow-osm-way-1120913970","properties":{"name":"Kroksjø","osm_ref":"way-1120913970","source":"OpenStreetMap"},"type":"Feature"},{"geometry":{"coordinates":[30.866036000000001,69.74221],"type":"Point"},"id":"oxbow-osm-way-1131004607","properties":{"name":"Kroksjø","osm_ref":"way-1131004607","source":"OpenStreetMap"},"type":"Feature"},{"geometry":{"coordinates":[30.879532999999999,69.735168000000002],"type":"Point"},"id":"oxbow-osm-way-1131011190","properties":{"name":"Kroksjø","osm_ref":"way-1131011190","source":"OpenStreetMap"},"type":"Feature"},{"geometry":{"coordinates":[30.867135000000001,69.742868999999999],"type":"Point"},"id":"oxbow-osm-way-1131012469","properties":{"name":"Kroksjø","osm_ref":"way-1131012469","source":"OpenStreetMap"},"type":"Feature"},{"geometry":{"coordinates":[30.866617999999999,69.745137999999997],"type":"Point"},"id":"oxbow-osm-way-1131020090","properties":{"name":"Kroksjø","osm_ref":"way-1131020090","source":"OpenStreetMap"},"type":"Feature"},{"geometry":{"coordinates":[30.885401999999999,69.736542999999998],"type":"Point"},"id":"oxbow-osm-way-1131021948","properties":{"name":"Kroksjø","osm_ref":"way-1131021948","source":"OpenStreetMap"},"type":"Feature"},{"geometry":{"coordinates":[29.301929000000001,69.614683999999997],"type":"Point"},"id":"oxbow-osm-way-1131645579","properties":{"name":"Kroksjø","osm_ref":"way-1131645579","source":"OpenStreetMap"},"type":"Feature"},{"geometry":{"coordinates":[29.298618999999999,69.612556999999995],"type":"Point"},"id":"oxbow-osm-way-1131648784","properties":{"name":"Kroksjø","osm_ref":"way-1131648784","source":"OpenStreetMap"},"type":"Feature"},{"geometry":{"coordinates":[29.327871999999999,69.797585999999995],"type":"Point"},"id":"oxbow-osm-way-1131655099","properties":{"name":"Kroksjø","osm_ref":"way-1131655099","source":"OpenStreetMap"},"type":"Feature"},{"geometry":{"coordinates":[10.070895999999999,62.117612000000001],"type":"Point"},"id":"oxbow-osm-way-1158662565","properties":{"name":"Kroksjø","osm_ref":"way-1158662565","source":"OpenStreetMap"},"type":"Feature"},{"geometry":{"coordinates":[17.797395000000002,69.286528000000004],"type":"Point"},"id":"oxbow-osm-way-1164933862","properties":{"name":"Kroksjø","osm_ref":"way-1164933862","source":"OpenStreetMap"},"type":"Feature"},{"geometry":{"coordinates":[27.067336999999998,70.094157999999993],"type":"Point"},"id":"oxbow-osm-way-1249606219","properties":{"name":"Kroksjø","osm_ref":"way-1249606219","source":"OpenStreetMap"},"type":"Feature"},{"geometry":{"coordinates":[10.485442000000001,59.905391000000002],"type":"Point"},"id":"oxbow-osm-way-1366172342","properties":{"name":"Kroksjø","osm_ref":"way-1366172342","source":"OpenStreetMap"},"type":"Feature"},{"geometry":{"coordinates":[18.795133,68.662674999999993],"type":"Point"},"id":"oxbow-osm-way-1378855158","properties":{"name":"Kroksjø","osm_ref":"way-1378855158","source":"OpenStreetMap"},"type":"Feature"},{"geometry":{"coordinates":[18.767099999999999,69.267510999999999],"type":"Point"},"id":"oxbow-osm-way-1380581269","properties":{"name":"Råttkjosen","osm_ref":"way-1380581269","source":"OpenStreetMap"},"type":"Feature"},{"geometry":{"coordinates":[10.853049,60.110179000000002],"type":"Point"},"id":"oxbow-osm-way-142763170","properties":{"name":"Kroksjø","osm_ref":"way-142763170","source":"OpenStreetMap"},"type":"Feature"},{"geometry":{"coordinates":[10.844009,60.115858000000003],"type":"Point"},"id":"oxbow-osm-way-142763189","properties":{"name":"Kroksjø","osm_ref":"way-142763189","source":"OpenStreetMap"},"type":"Feature"},{"geometry":{"coordinates":[10.42914,62.427450999999998],"type":"Point"},"id":"oxbow-osm-way-1493883365","properties":{"name":"Kroksjø","osm_ref":"way-1493883365","source":"OpenStreetMap"},"type":"Feature"},{"geometry":{"coordinates":[22.835842,70.127565000000004],"type":"Point"},"id":"oxbow-osm-way-1495173406","properties":{"name":"Kroksjø","osm_ref":"way-1495173406","source":"OpenStreetMap"},"type":"Feature"},{"geometry":{"coordinates":[28.173815000000001,70.131090999999998],"type":"Point"},"id":"oxbow-osm-way-1495571275","properties":{"name":"Kroksjø","osm_ref":"way-1495571275","source":"OpenStreetMap"},"type":"Feature"},{"geometry":{"coordinates":[28.174954,70.130947000000006],"type":"Point"},"id":"oxbow-osm-way-1495571276","properties":{"name":"Kroksjø","osm_ref":"way-1495571276","source":"OpenStreetMap"},"type":"Feature"},{"geometry":{"coordinates":[11.112619,60.806493000000003],"type":"Point"},"id":"oxbow-osm-way-1498388663","properties":{"name":"Kroksjø","osm_ref":"way-1498388663","source":"OpenStreetMap"},"type":"Feature"},{"geometry":{"coordinates":[11.111091,60.806570999999998],"type":"Point"},"id":"oxbow-osm-way-1498388664","properties":{"name":"Kroksjø","osm_ref":"way-1498388664","source":"OpenStreetMap"},"type":"Feature"},{"geometry":{"coordinates":[11.110289,60.806963000000003],"type":"Point"},"id":"oxbow-osm-way-1498388665","properties":{"name":"Kroksjø","osm_ref":"way-1498388665","source":"OpenStreetMap"},"type":"Feature"},{"geometry":{"coordinates":[11.109453999999999,60.807281000000003],"type":"Point"},"id":"oxbow-osm-way-1498388666","properties":{"name":"Kroksjø","osm_ref":"way-1498388666","source":"OpenStreetMap"},"type":"Feature"},{"geometry":{"coordinates":[9.2810830000000006,60.010396999999998],"type":"Point"},"id":"oxbow-osm-way-1502523993","properties":{"name":"Kroksjø","osm_ref":"way-1502523993","source":"OpenStreetMap"},"type":"Feature"},{"geometry":{"coordinates":[9.2810970000000008,60.010050999999997],"type":"Point"},"id":"oxbow-osm-way-1502523994","properties":{"name":"Kroksjø","osm_ref":"way-1502523994","source":"OpenStreetMap"},"type":"Feature"},{"geometry":{"coordinates":[8.9749929999999996,61.717551999999998],"type":"Point"},"id":"oxbow-osm-way-1502875237","properties":{"name":"Kroksjø","osm_ref":"way-1502875237","source":"OpenStreetMap"},"type":"Feature"},{"geometry":{"coordinates":[8.9752209999999994,61.717359999999999],"type":"Point"},"id":"oxbow-osm-way-1502875238","properties":{"name":"Kroksjø","osm_ref":"way-1502875238","source":"OpenStreetMap"},"type":"Feature"},{"geometry":{"coordinates":[16.000803999999999,67.838350000000005],"type":"Point"},"id":"oxbow-osm-way-1504047155","properties":{"name":"Dammen","osm_ref":"way-1504047155","source":"OpenStreetMap"},"type":"Feature"},{"geometry":{"coordinates":[10.25128,59.855559],"type":"Point"},"id":"oxbow-osm-way-1505853104","properties":{"name":"Kroksjø","osm_ref":"way-1505853104","source":"OpenStreetMap"},"type":"Feature"},{"geometry":{"coordinates":[19.585512999999999,69.650264000000007],"type":"Point"},"id":"oxbow-osm-way-169883602","properties":{"name":"Kolbotn","osm_ref":"way-169883602","source":"OpenStreetMap"},"type":"Feature"},{"geometry":{"coordinates":[8.6800390000000007,60.953139999999998],"type":"Point"},"id":"oxbow-osm-way-241395563","properties":{"name":"Kroksjø","osm_ref":"way-241395563","source":"OpenStreetMap"},"type":"Feature"},{"geometry":{"coordinates":[8.7244089999999996,62.118093999999999],"type":"Point"},"id":"oxbow-osm-way-301162275","properties":{"name":"Kroksjø","osm_ref":"way-301162275","source":"OpenStreetMap"},"type":"Feature"},{"geometry":{"coordinates":[8.2067800000000002,62.249257],"type":"Point"},"id":"oxbow-osm-way-305777752","properties":{"name":"Kroksjø","osm_ref":"way-305777752","source":"OpenStreetMap"},"type":"Feature"},{"geometry":{"coordinates":[8.1988129999999995,62.254564999999999],"type":"Point"},"id":"oxbow-osm-way-305777753","properties":{"name":"Kroksjø","osm_ref":"way-305777753","source":"OpenStreetMap"},"type":"Feature"},{"geometry":{"coordinates":[8.1965219999999999,62.254536999999999],"type":"Point"},"id":"oxbow-osm-way-305777754","properties":{"name":"Kroksjø","osm_ref":"way-305777754","source":"OpenStreetMap"},"type":"Feature"},{"geometry":{"coordinates":[8.2112219999999994,62.246015999999997],"type":"Point"},"id":"oxbow-osm-way-305777755","properties":{"name":"Kroksjø","osm_ref":"way-305777755","source":"OpenStreetMap"},"type":"Feature"},{"geometry":{"coordinates":[8.2035660000000004,62.248775999999999],"type":"Point"},"id":"oxbow-osm-way-305777756","properties":{"name":"Kroksjø","osm_ref":"way-305777756","source":"OpenStreetMap"},"type":"Feature"},{"geometry":{"coordinates":[8.2047810000000005,62.246733999999996],"type":"Point"},"id":"oxbow-osm-way-305777757","properties":{"name":"Kroksjø","osm_ref":"way-305777757","source":"OpenStreetMap"},"type":"Feature"},{"geometry":{"coordinates":[8.1896620000000002,62.259846000000003],"type":"Point"},"id":"oxbow-osm-way-305777758","properties":{"name":"Kroksjø","osm_ref":"way-305777758","source":"OpenStreetMap"},"type":"Feature"},{"geometry":{"coordinates":[8.1961879999999994,62.255161999999999],"type":"Point"},"id":"oxbow-osm-way-305777762","properties":{"name":"Kroksjø","osm_ref":"way-305777762","source":"OpenStreetMap"},"type":"Feature"},{"geometry":{"coordinates":[8.2091060000000002,62.246720000000003],"type":"Point"},"id":"oxbow-osm-way-305777764","properties":{"name":"Kroksjø","osm_ref":"way-305777764","source":"OpenStreetMap"},"type":"Feature"},{"geometry":{"coordinates":[8.2071450000000006,62.265040999999997],"type":"Point"},"id":"oxbow-osm-way-306356058","properties":{"name":"Kroksjø","osm_ref":"way-306356058","source":"OpenStreetMap"},"type":"Feature"},{"geometry":{"coordinates":[9.1376830000000009,61.184570999999998],"type":"Point"},"id":"oxbow-osm-way-309991250","properties":{"name":"Kroksjø","osm_ref":"way-309991250","source":"OpenStreetMap"},"type":"Feature"},{"geometry":{"coordinates":[10.057798999999999,62.116509000000001],"type":"Point"},"id":"oxbow-osm-way-329183900","properties":{"name":"Kroksjø","osm_ref":"way-329183900","source":"OpenStreetMap"},"type":"Feature"},{"geometry":{"coordinates":[10.018378999999999,62.124842999999998],"type":"Point"},"id":"oxbow-osm-way-329183902","properties":{"name":"Kroksjø","osm_ref":"way-329183902","source":"OpenStreetMap"},"type":"Feature"},{"geometry":{"coordinates":[10.040380000000001,62.121952999999998],"type":"Point"},"id":"oxbow-osm-way-329183903","properties":{"name":"Kroksjø","osm_ref":"way-329183903","source":"OpenStreetMap"},"type":"Feature"},{"geometry":{"coordinates":[10.842511,60.117702000000001],"type":"Point"},"id":"oxbow-osm-way-332301108","properties":{"name":"Kroksjø","osm_ref":"way-332301108","source":"OpenStreetMap"},"type":"Feature"},{"geometry":{"coordinates":[9.2524490000000004,62.224134999999997],"type":"Point"},"id":"oxbow-osm-way-333648345","properties":{"name":"Kroksjø","osm_ref":"way-333648345","source":"OpenStreetMap"},"type":"Feature"},{"geometry":{"coordinates":[9.24864,62.222895999999999],"type":"Point"},"id":"oxbow-osm-way-333648348","properties":{"name":"Kroksjø","osm_ref":"way-333648348","source":"OpenStreetMap"},"type":"Feature"},{"geometry":{"coordinates":[7.686483,62.515583999999997],"type":"Point"},"id":"oxbow-osm-way-345345329","properties":{"name":"Kroksjø","osm_ref":"way-345345329","source":"OpenStreetMap"},"type":"Feature"},{"geometry":{"coordinates":[19.628304,69.391581000000002],"type":"Point"},"id":"oxbow-osm-way-354196088","properties":{"name":"Kroksjø","osm_ref":"way-354196088","source":"OpenStreetMap"},"type":"Feature"},{"geometry":{"coordinates":[17.714770999999999,68.644304000000005],"type":"Point"},"id":"oxbow-osm-way-374497992","properties":{"name":"Kroksjø","osm_ref":"way-374497992","source":"OpenStreetMap"},"type":"Feature"},{"geometry":{"coordinates":[17.715564000000001,68.643311999999995],"type":"Point"},"id":"oxbow-osm-way-374498001","properties":{"name":"Kroksjø","osm_ref":"way-374498001","source":"OpenStreetMap"},"type":"Feature"},{"geometry":{"coordinates":[17.708303999999998,68.646495000000002],"type":"Point"},"id":"oxbow-osm-way-374498014","properties":{"name":"Kroksjø","osm_ref":"way-374498014","source":"OpenStreetMap"},"type":"Feature"},{"geometry":{"coordinates":[17.704038000000001,68.648167999999998],"type":"Point"},"id":"oxbow-osm-way-374498019","properties":{"name":"Kroksjø","osm_ref":"way-374498019","source":"OpenStreetMap"},"type":"Feature"},{"geometry":{"coordinates":[17.713459,68.645208999999994],"type":"Point"},"id":"oxbow-osm-way-374498060","properties":{"name":"Kroksjø","osm_ref":"way-374498060","source":"OpenStreetMap"},"type":"Feature"},{"geometry":{"coordinates":[17.713235999999998,68.644045000000006],"type":"Point"},"id":"oxbow-osm-way-374498073","properties":{"name":"Kroksjø","osm_ref":"way-374498073","source":"OpenStreetMap"},"type":"Feature"},{"geometry":{"coordinates":[17.716028999999999,68.641929000000005],"type":"Point"},"id":"oxbow-osm-way-374498149","properties":{"name":"Kroksjø","osm_ref":"way-374498149","source":"OpenStreetMap"},"type":"Feature"},{"geometry":{"coordinates":[17.713481000000002,68.641458],"type":"Point"},"id":"oxbow-osm-way-374498217","properties":{"name":"Kroksjø","osm_ref":"way-374498217","source":"OpenStreetMap"},"type":"Feature"},{"geometry":{"coordinates":[18.491696000000001,68.808329999999998],"type":"Point"},"id":"oxbow-osm-way-375007404","properties":{"name":"Loken","osm_ref":"way-375007404","source":"OpenStreetMap"},"type":"Feature"},{"geometry":{"coordinates":[18.484348000000001,68.811274999999995],"type":"Point"},"id":"oxbow-osm-way-375007410","properties":{"name":"Kroksjø","osm_ref":"way-375007410","source":"OpenStreetMap"},"type":"Feature"},{"geometry":{"coordinates":[18.492052999999999,68.810509999999994],"type":"Point"},"id":"oxbow-osm-way-375007537","properties":{"name":"Loken","osm_ref":"way-375007537","source":"OpenStreetMap"},"type":"Feature"},{"geometry":{"coordinates":[18.498248,68.820623999999995],"type":"Point"},"id":"oxbow-osm-way-375007694","properties":{"name":"Kroksjø","osm_ref":"way-375007694","source":"OpenStreetMap"},"type":"Feature"},{"geometry":{"coordinates":[18.780398000000002,68.665978999999993],"type":"Point"},"id":"oxbow-osm-way-375016753","properties":{"name":"Kroksjø","osm_ref":"way-375016753","source":"OpenStreetMap"},"type":"Feature"},{"geometry":{"coordinates":[18.787037000000002,68.665716000000003],"type":"Point"},"id":"oxbow-osm-way-375016815","properties":{"name":"Kroksjø","osm_ref":"way-375016815","source":"OpenStreetMap"},"type":"Feature"},{"geometry":{"coordinates":[18.532333999999999,68.761340000000004],"type":"Point"},"id":"oxbow-osm-way-375144607","properties":{"name":"Kroksjø","osm_ref":"way-375144607","source":"OpenStreetMap"},"type":"Feature"},{"geometry":{"coordinates":[18.556767000000001,68.760337000000007],"type":"Point"},"id":"oxbow-osm-way-375144614","properties":{"name":"Baugloken","osm_ref":"way-375144614","source":"OpenStreetMap"},"type":"Feature"},{"geometry":{"coordinates":[10.324871999999999,62.106630000000003],"type":"Point"},"id":"oxbow-osm-way-383999453","properties":{"name":"Kroksjø","osm_ref":"way-383999453","source":"OpenStreetMap"},"type":"Feature"},{"geometry":{"coordinates":[10.354787,62.104827999999998],"type":"Point"},"id":"oxbow-osm-way-384294945","properties":{"name":"Kroksjø","osm_ref":"way-384294945","source":"OpenStreetMap"},"type":"Feature"},{"geometry":{"coordinates":[7.866187,60.087189000000002],"type":"Point"},"id":"oxbow-osm-way-384722503","properties":{"name":"Kroksjø","osm_ref":"way-384722503","source":"OpenStreetMap"},"type":"Feature"},{"geometry":{"coordinates":[10.492141999999999,62.043272999999999],"type":"Point"},"id":"oxbow-osm-way-385812008","properties":{"name":"Kroksjø","osm_ref":"way-385812008","source":"OpenStreetMap"},"type":"Feature"},{"geometry":{"coordinates":[9.9171069999999997,62.701791],"type":"Point"},"id":"oxbow-osm-way-386056820","properties":{"name":"Kroksjø","osm_ref":"way-386056820","source":"OpenStreetMap"},"type":"Feature"},{"geometry":{"coordinates":[10.620870999999999,62.100740000000002],"type":"Point"},"id":"oxbow-osm-way-386470845","properties":{"name":"Kroksjø","osm_ref":"way-386470845","source":"OpenStreetMap"},"type":"Feature"},{"geometry":{"coordinates":[10.545491,62.303657999999999],"type":"Point"},"id":"oxbow-osm-way-388897773","properties":{"name":"Kroksjø","osm_ref":"way-388897773","source":"OpenStreetMap"},"type":"Feature"},{"geometry":{"coordinates":[10.460706,62.33137],"type":"Point"},"id":"oxbow-osm-way-391553206","properties":{"name":"Kroksjø","osm_ref":"way-391553206","source":"OpenStreetMap"},"type":"Feature"},{"geometry":{"coordinates":[19.144957000000002,69.014657],"type":"Point"},"id":"oxbow-osm-way-394474425","properties":{"name":"Kroksjø","osm_ref":"way-394474425","source":"OpenStreetMap"},"type":"Feature"},{"geometry":{"coordinates":[28.032734999999999,70.046982],"type":"Point"},"id":"oxbow-osm-way-423448151","properties":{"name":"Kroksjø","osm_ref":"way-423448151","source":"OpenStreetMap"},"type":"Feature"},{"geometry":{"coordinates":[12.21143,59.933912999999997],"type":"Point"},"id":"oxbow-osm-way-689330670","properties":{"name":"Kroksjø","osm_ref":"way-689330670","source":"OpenStreetMap"},"type":"Feature"},{"geometry":{"coordinates":[24.737931,69.135120000000001],"type":"Point"},"id":"oxbow-osm-way-777324781","properties":{"name":"Kroksjø","osm_ref":"way-777324781","source":"OpenStreetMap"},"type":"Feature"},{"geometry":{"coordinates":[7.9053599999999999,62.580446999999999],"type":"Point"},"id":"oxbow-osm-way-847273362","properties":{"name":"Kroksjø","osm_ref":"way-847273362","source":"OpenStreetMap"},"type":"Feature"},{"geometry":{"coordinates":[10.948976,62.319144000000001],"type":"Point"},"id":"oxbow-osm-way-855608954","properties":{"name":"Kroksjø","osm_ref":"way-855608954","source":"OpenStreetMap"},"type":"Feature"},{"geometry":{"coordinates":[11.081194999999999,59.982506000000001],"type":"Point"},"id":"oxbow-osm-way-88729144","properties":{"name":"Tomtestilla","osm_ref":"way-88729144","source":"OpenStreetMap"},"type":"Feature"},{"geometry":{"coordinates":[17.810364,69.494370000000004],"type":"Point"},"id":"oxbow-osm-way-973623576","properties":{"name":"Kroksjø","osm_ref":"way-973623576","source":"OpenStreetMap"},"type":"Feature"},{"geometry":{"coordinates":[17.808358999999999,69.494290000000007],"type":"Point"},"id":"oxbow-osm-way-973623577","properties":{"name":"Kroksjø","osm_ref":"way-973623577","source":"OpenStreetMap"},"type":"Feature"}],"generator":"Trakke fetch_osm_poi.swift","timestamp":"2026-08-09T23:19:25Z","type":"FeatureCollection"}