{"attribution":"UT.no\/DNT","features":[{"geometry":{"coordinates":[10.175281999999999,62.144196000000001],"type":"Point"},"id":"recreation-ut-146889289","properties":{"description":"Strandområde for friluftsliv og rekreasjon ved Kroktjønna. Området er egnet for: Sykling, Tur - sommer Paradis er ett av over 2300 statlig sikrede friluftslivsområder i Norge. Les mer om statlig sikrede friluftslivsområder på Miljødirektora...","elevation":668,"name":"Paradis","source":"UT.no\/DNT"},"type":"Feature"},{"geometry":{"coordinates":[12.265497999999999,61.325449999999996],"type":"Point"},"id":"recreation-ut-146889290","properties":{"description":"Området er nærfriluftslivsområde nær sentrum i kommunen. Området er egnet til tur og opphold og ligger på et høydedrag nord for Innbygda sentrum. Området er tilrettelagt med parkering, lysløype og merkede tur- og sykkelstier. Området er egn...","elevation":436,"name":"Grimsåsen","source":"UT.no\/DNT"},"type":"Feature"},{"geometry":{"coordinates":[12.024697,60.608097000000001],"type":"Point"},"id":"recreation-ut-146889291","properties":{"description":"Myrmoen er et nærfriluftslivsområde i kommunesenteret Flisa, nær boligfelt, skoler og idrettsanlegg. Området er turaktivitet og opphold. Området er tilrettelagt med turvei og skal videre tilrettelegges med rasteplasser og informasjonstavler...","elevation":155,"name":"Myrmoen","source":"UT.no\/DNT"},"type":"Feature"},{"geometry":{"coordinates":[11.539339999999999,60.390915],"type":"Point"},"id":"recreation-ut-146889292","properties":{"description":"Friluftslivsområde i kommunesenteret Sand ved innsjøen Sandsjøen. Området er bl.a. tilrettelagt med parkering, turvei og badeplass. Området er egnet for opphold og allsidige friluftslivsaktiviteter. Området er egnet for: Egnet for bevegeses...","elevation":131,"name":"Sand","source":"UT.no\/DNT"},"type":"Feature"},{"geometry":{"coordinates":[11.077911,60.769351],"type":"Point"},"id":"recreation-ut-146889293","properties":{"description":"Rekreasjons- og badeområde ved Mjøsa, vis-a-vis Hias, ca 3,5 km til Hamar sentrum. Strandområde med naturlig vegetasjon - gammel granskog, fin høy furuskog og noe bjørk og or langs vannet. Skogen er dels blitt brukt som beitemark. Området e...","elevation":123,"name":"Nordsveodden","source":"UT.no\/DNT"},"type":"Feature"},{"geometry":{"coordinates":[10.920902,60.878939000000003],"type":"Point"},"id":"recreation-ut-146889294","properties":{"description":"Stort friluftsområdeområde som grenser til Mjøsa med beliggenhet ved Brumunddal sentrum. Området er egnet til opphold, lek, tur, bading mm. Området er tilrettelagt med turvei, badestrand og parkering og ulike friluftslivsaktiviteter. Område...","elevation":123,"name":"Strandsaga (Mjøsparken)","source":"UT.no\/DNT"},"type":"Feature"},{"geometry":{"coordinates":[10.940495,60.751756999999998],"type":"Point"},"id":"recreation-ut-146889295","properties":{"description":"Skurven er ett av over 2300 statlig sikrede friluftslivsområder i Norge. Les mer om statlig sikrede friluftslivsområder på Miljødirektoratet sine nettsider her .","elevation":123,"name":"Skurven","source":"UT.no\/DNT"},"type":"Feature"},{"geometry":{"coordinates":[10.871188999999999,60.715411000000003],"type":"Point"},"id":"recreation-ut-146889296","properties":{"description":"Friluftslivsområde bestående av to enkeltområder med beliggenhet i tettstedet Kapp 6 km fra kommunesenteret Lena. Området er egnet for tur, opphold, bading og fritidsfiske. Undesløs er ett av over 2300 statlig sikrede friluftslivsområder i ...","elevation":141,"name":"Undesløs","source":"UT.no\/DNT"},"type":"Feature"},{"geometry":{"coordinates":[9.2351989999999997,60.981214000000001],"type":"Point"},"id":"recreation-ut-146889297","properties":{"description":"Området er egnet for: Tur - sommer, Bading og strandbaserte aktiviteter i ferskvann, Lek og allsidige aktiviteter Veslefjordområdet er ett av over 2300 statlig sikrede friluftslivsområder i Norge. Les mer om statlig sikrede friluftslivsområ...","elevation":356,"name":"Veslefjordområdet","source":"UT.no\/DNT"},"type":"Feature"},{"geometry":{"coordinates":[6.4666629999999996,62.515183],"type":"Point"},"id":"recreation-ut-146889298","properties":{"description":"Smalt sund mellom Ellingsøyfjorden og Grytafjorden. Viktige aktivitetar er fiske, bading, turar og båtliv. Området som er på omlag 200 da er kjøpt inn av staten og fleire opparbeidingstiltak er utført,- mellom anna stiar. Det er bygd toalet...","elevation":26,"name":"Mauren","source":"UT.no\/DNT"},"type":"Feature"},{"geometry":{"coordinates":[6.4407329999999998,62.429682],"type":"Point"},"id":"recreation-ut-146889299","properties":{"description":"Utlagt som sentralbadeplass for Ålesund kommune. Dels sandstrand, dels svaberg, tilsaman fleire hundre meter strandline. Sørvendt og lunt. Delar av Austreimselva, som renn ut i badeplassen, høyrer til friluftsområdet. 92 da er erverva ved s...","elevation":4,"name":"Emblemsanden-Klebergneset","source":"UT.no\/DNT"},"type":"Feature"},{"geometry":{"coordinates":[6.0939160000000001,62.466991],"type":"Point"},"id":"recreation-ut-146889300","properties":{"description":"Området omfattar vestsida av Heissa. Landskapet er prega av småkupert kystlynghei med svaberg ut mot havet. Sentralt i området ligg likevel ei fin sandstrand, opparbeidd og mykje nytta som badeplass. Innafor området ligg også \"Atlanterhavsp...","name":"Tueneset-Stavneset","source":"UT.no\/DNT"},"type":"Feature"},{"geometry":{"coordinates":[6.8096439999999996,62.478873],"type":"Point"},"id":"recreation-ut-146889301","properties":{"description":"Nes i Ørskogvika like ved kyrkja. Omfatta av reguleringsplan for Sjøholt syd, godkjent 22.11.1990. Ørskog kommune står som eigar av området (gnr. 91 bnr. 1). Tilrettelagt med kai, stier, benker. Området er egnet for: Bading og strandbaserte...","elevation":12,"name":"Oseberget","source":"UT.no\/DNT"},"type":"Feature"},{"geometry":{"coordinates":[6.5470790000000001,62.408071999999997],"type":"Point"},"id":"recreation-ut-146889302","properties":{"description":"Aursneset (Ørsnesodden) ligg like ved kaia til eitt av dei viktigaste ferjesambanda i fylket. Det sikra området er på 27, 6 da landareal og 8 da fjøregrunn. Mest lauvskogvegetasjon. Her er registrerte fortidsminne, og det er fine fiskeplass...","elevation":3,"name":"Aursnes","source":"UT.no\/DNT"},"type":"Feature"},{"geometry":{"coordinates":[8.5088179999999998,62.836775000000003],"type":"Point"},"id":"recreation-ut-146889303","properties":{"description":"Indre delen av Ålvundfjorden rundt utløpet av Ålvunda. Langgrunne sandstrender med omkringliggande strandsoner og strandenger. Slette\/plen langs sjøen og i vestleg del av området. Høg furuskog i innste del av området. Leikeapparat i skogen....","name":"Fuglvågen","source":"UT.no\/DNT"},"type":"Feature"},{"geometry":{"coordinates":[6.0759910000000001,62.360596000000001],"type":"Point"},"id":"recreation-ut-146889304","properties":{"description":"Langgrunt strandområde (55 dekar),- omlag 2 km aust for Hareid sentrum. Utfartsområde med badeplass og høve til fiske. Ei framifrå fin sandstrand. Fleire opparbeidingstiltak,- som mellom anna plen. Området er rikt på fornminne. Strandstrekn...","name":"Overåsanden-Plassane","source":"UT.no\/DNT"},"type":"Feature"},{"geometry":{"coordinates":[7.2234939999999996,62.422156000000001],"type":"Point"},"id":"recreation-ut-146889305","properties":{"description":"Friluftslivsområdet Øyna i Øvre Stordal er attraktivt for bading, grilling, fiske, teltplass, som sosial møteplass og mykje meir. Toalett på staden. Stor kommunal parkeringsplass i lett gåavstand. I nærleiken er det eit nettverk av varierte...","elevation":380,"name":"Øyna Langsætrane","source":"UT.no\/DNT"},"type":"Feature"},{"geometry":{"coordinates":[4.9203960000000002,60.688381],"type":"Point"},"id":"recreation-ut-146889306","properties":{"description":"Fint område ved Byngjevågen med lyngmark, gamalt beiteland og knausar. Frå området er det utsikt 11X)t Uttoska, og Hjeltefjorden i nord. Det ligg eit vatn (1,5 moh.) på området. Badepoll og sandbotn i Byngjevågen. Parkeringsplass for 23 bil...","elevation":3,"name":"Byngja","source":"UT.no\/DNT"},"type":"Feature"},{"geometry":{"coordinates":[5.0020249999999997,60.570580999999997],"type":"Point"},"id":"recreation-ut-146889307","properties":{"description":"Området gir høve til turgåing, fiske, bading og telting. Stor teltplass med kommunalt vatn og toalett like ved parkeringsplassen. Parkeringsplass for 40 bilar. Ca. 600 m gangveg frå p-plassen og stig vidare im i onrådet. Deler av friluftsom...","elevation":10,"name":"Io","source":"UT.no\/DNT"},"type":"Feature"},{"geometry":{"coordinates":[5.2303379999999997,60.507148000000001],"type":"Point"},"id":"recreation-ut-146889308","properties":{"description":"Romsleg område med omlag 500m strandline frå botnen av Elvavika sør til Halte-Johansvika og Galteneset. Fleire små badefjører og rasteplasser. Området er småkupert og delvis skogkledd med barskog. Turveg ned i området. Gapahuk, toalett og b...","name":"Elvavika - Galtaneset","source":"UT.no\/DNT"},"type":"Feature"},{"geometry":{"coordinates":[5.2465200000000003,60.513061],"type":"Point"},"id":"recreation-ut-146889309","properties":{"description":"Skogsområde og populær lokal badevik, godt egnet for mindre barn. Opparbeidet bakland med gresslette. Toalett, bord, benk og fast grill. Sandvolleyballbane. Baderampe for bevegelseshemmede. Gangvei ned i området fra parkeringsplass. Mot syd...","elevation":1,"name":"Varnappen","source":"UT.no\/DNT"},"type":"Feature"},{"geometry":{"coordinates":[5.2420590000000002,60.544393999999997],"type":"Point"},"id":"recreation-ut-146889310","properties":{"description":"Området er vakkert og romsleg, ligg fint midt i leia og er ein populær utfartsplass for heile regionen. Tidlegare militært område ned mange verneverdige krigsminne. Den gamle forvaltarbustaden er ein viktig del av miljøet. Gangveg til utsik...","elevation":59,"name":"Håøya","source":"UT.no\/DNT"},"type":"Feature"},{"geometry":{"coordinates":[4.9474349999999996,60.577618000000001],"type":"Point"},"id":"recreation-ut-146889311","properties":{"description":"Området har store opplevelseskvaliteter som gjør det ettertraktet for utfart hele året. Blant annet kvartærgeoligiske avsetninger, kulturminner, landskap og kystlinje. I tillegg til friluftslivsinteressene er det sterke naturverninteresser ...","elevation":26,"name":"Herdla fort","source":"UT.no\/DNT"},"type":"Feature"},{"geometry":{"coordinates":[5.1134199999999996,60.451323000000002],"type":"Point"},"id":"recreation-ut-146889312","properties":{"description":"Kollevågen var fra gammelt av bossfyllingsplass for Bergen kommune. Senere ble området totalt renovert og er nå et av de største og best tilrettelagte friluftsområdene i Bergensregionen. Området består av to våger, Meavågen og Vestrevågen m...","elevation":15,"name":"Kollevåg","source":"UT.no\/DNT"},"type":"Feature"},{"geometry":{"coordinates":[5.233212,60.453811999999999],"type":"Point"},"id":"recreation-ut-146889313","properties":{"description":"Vakkert område med romslig barnevennlig badepoll. Langs ene siden av badepollen er det gangbroer. Stupebrett og fine svaberg, med fortøyningsbolter på utsiden. Toalett langs gangveien ned til badeplassen. Flere turveier og stier i området. ...","elevation":1,"name":"Solnes","source":"UT.no\/DNT"},"type":"Feature"},{"geometry":{"coordinates":[5.1087530000000001,60.130850000000002],"type":"Point"},"id":"recreation-ut-146889314","properties":{"description":"Friluftsområde ved brupillaren til Storekalsøy. Badevik med skjelsand innerst i vågen. På utsiden er det plassert ut fast grill og bord og benk. Trekai i vågen og fendret betongkai på utsida. Flytebrygge for utsetting av kajakk og toalett s...","elevation":2,"name":"Sveholmen","source":"UT.no\/DNT"},"type":"Feature"},{"geometry":{"coordinates":[4.8614620000000004,60.800116000000003],"type":"Point"},"id":"recreation-ut-146889315","properties":{"description":"Tur- og badeområde med sjøutsikt og ettermiddagsol. Parkering etter småbåtopplag og slipp og turveg herifrå vidare inn i området. Toalett og informasjonstavle ved parkeringsplassen. Fleire turstiar og gangvegar går gjennom friluftsområdet. ...","name":"Øksnes","source":"UT.no\/DNT"},"type":"Feature"},{"geometry":{"coordinates":[5.4589650000000001,60.450766000000002],"type":"Point"},"id":"recreation-ut-146889316","properties":{"description":"Mye benyttet område ned stor, barnevennlig strand og romslig bakland. Parkeringsplass for 60 biler. Toalett ved parkeringsplassen. Informasjonstavle. Gangstier fra parkeringsplassen og inn i området. Stor gapahuk med bålplass\/grill i bakkan...","name":"Garnes","source":"UT.no\/DNT"},"type":"Feature"},{"geometry":{"coordinates":[5.3278270000000001,60.311605],"type":"Point"},"id":"recreation-ut-146889317","properties":{"description":"Skjoldabukta er en badeplass ned fin og flat gressmark. Området har en landgrunn badevik som er egnet for barn. Bord og benk er satt ut flere steder i området. Toalett i eget bygg i bakkant av området. Stupebrett ute på kaien. Baderampe for...","name":"Skjoldbukta","source":"UT.no\/DNT"},"type":"Feature"},{"geometry":{"coordinates":[5.313517,60.441195999999998],"type":"Point"},"id":"recreation-ut-146889318","properties":{"description":"Vollane er en romlig og populær badeplass med stor gressbakke som bakland. Området har landgrunn sandfjære, svaberg, stupebrett, badestige, handikaprampe, redningssett, toalett og infornusjonstavle. Fra badeviken er det gangvei ut på neset,...","name":"Vollane","source":"UT.no\/DNT"},"type":"Feature"},{"geometry":{"coordinates":[5.2941279999999997,60.427543],"type":"Point"},"id":"recreation-ut-146889319","properties":{"description":"Tidligere del av Bergen festning som nå er turområde med veier, stier og gamle forsvarsanlegg. Flott utsikt. Sti mot Eidsvågsfjellet. Informasjonstavle med friluftsinformasjon og forsvarshistorie. Hinderløype med 17 hindre, \"uteklasserom\" s...","elevation":55,"name":"Øvre Hellen","source":"UT.no\/DNT"},"type":"Feature"},{"geometry":{"coordinates":[5.245298,60.245322000000002],"type":"Point"},"id":"recreation-ut-146889320","properties":{"description":"Idyllisk naturormråde ned flere fine badeviker. Badefjære for barn. Mulighet for telting i bakkant av badeviken. Friluftsområdet er godt egnet som overnatting eller rasteplass på padleturen rundt Hjellestadhalvøyen. Forslag til padlerute og...","elevation":1,"name":"Steingardsvikane","source":"UT.no\/DNT"},"type":"Feature"},{"geometry":{"coordinates":[5.2810329999999999,60.256919000000003],"type":"Point"},"id":"recreation-ut-146889321","properties":{"description":"Bade og turområde velegnet for barn. En innelukket poll på 2,3 dekar er utgravd og opparbeidet tilfriluftsbasseng. Området er tilgjengelig for bevegelseshemmede med ledsager. Toalett, brønn med pumpe. Parkering som for Grønevika. Hytten i S...","name":"Sandholna","source":"UT.no\/DNT"},"type":"Feature"},{"geometry":{"coordinates":[5.3021830000000003,60.440871999999999],"type":"Point"},"id":"recreation-ut-146889322","properties":{"description":"Rommelig område med barnevennlig badestrand. Fin gressslette til lek og opphold. Stier og gangveier, toalett og informasjonstavle. Fortøyningsplasser for småbåter som leies ut av Friluftsrådet. Vestre del av området disponeres av Njørd ro o...","name":"Tømmervågen","source":"UT.no\/DNT"},"type":"Feature"},{"geometry":{"coordinates":[5.2797650000000003,60.435059000000003],"type":"Point"},"id":"recreation-ut-146889323","properties":{"description":"Helleneset friluftsområde er en av Bergen og Omland Friluftsråds (BOF) mest sentrale og best utbygde badeplasser. Området er godkjent under Blått Flagg-ordningen, som er en kvalitetsgodkjenning for strender og badeplasser. Mer informasjon f...","elevation":4,"name":"Helleneset","source":"UT.no\/DNT"},"type":"Feature"},{"geometry":{"coordinates":[5.2900619999999998,60.320304999999998],"type":"Point"},"id":"recreation-ut-146889324","properties":{"description":"Kyrkjetangen er et av BOFs mest populære og best tilrettelagte områder. Området er godt egnet for barn, med landgrunn strandfjære, klatretrær og huskestativ. I området er det flere små sandstrender, svaberg, gapahuk, gressmarker, stupebrett...","name":"Kyrkjetangen","source":"UT.no\/DNT"},"type":"Feature"},{"geometry":{"coordinates":[5.2575729999999998,60.485216999999999],"type":"Point"},"id":"recreation-ut-146889325","properties":{"description":"Liten lokal badevik for svømmedyktige, med svaberg, stupebrett, en liten strand og bakland. Det er plassert ut bord og benk og fast grill. Bro over bekken og inn til badeviken. Liten parkeringsplass i nordre enden av Lokketovegen. Bratt atk...","name":"Toppesanden","source":"UT.no\/DNT"},"type":"Feature"},{"geometry":{"coordinates":[5.2824289999999996,60.438605000000003],"type":"Point"},"id":"recreation-ut-146889326","properties":{"description":"Rommelig område på Lønborg i Ytre Sandviken, med stort bakland og gode grusete, gangveier ned varierende god utsikt utover Byfjorden rmt Askøy. Området er i stor grad omgitt av hus og høyblokker i bakkant. Flere tilkomstpunkt til turveien. ...","elevation":17,"name":"Breidalen - Midtneset","source":"UT.no\/DNT"},"type":"Feature"},{"geometry":{"coordinates":[5.6874459999999996,60.163460000000001],"type":"Point"},"id":"recreation-ut-146889327","properties":{"description":"Badeplass med badeoøre, svaberg, grasmark og stupebrett. Romsleg parkeringsplass i bakkant av området gangveg ned til badevikane. Toalett, vandring, fleire bord og benk og informasjonstavle. Skjelavikjo er og ei fin uthamn, området er skilt...","name":"Skjelavikjo","source":"UT.no\/DNT"},"type":"Feature"},{"geometry":{"coordinates":[5.3230469999999999,60.154682999999999],"type":"Point"},"id":"recreation-ut-146889328","properties":{"description":"Ervikane er eit av dei finaste friluftsområda i Bergensregionen. Frå Krabbeviksvegen går det ein ca. 400 m lang køyreveg til to asfalterte parkeringsplassar for til saman ca. 110 bilar (oppmerka plassar, inkludering nokre plassar for handik...","elevation":1,"name":"Ervikane","source":"UT.no\/DNT"},"type":"Feature"},{"geometry":{"coordinates":[5.1453139999999999,59.748984],"type":"Point"},"id":"recreation-ut-146889329","properties":{"description":"Hiskjo er ei øy på vestsida av Bømlo, like vest for utløpet av Kulleseidkanalen. Friluftsområdet dekker store arealer på øya og er egnet til en rekke friluftsformål. Området er egnet for: Tur - sommer, Fiske i saltvann, Sykling, Lek og alls...","elevation":12,"name":"Nordre Hiskjo","source":"UT.no\/DNT"},"type":"Feature"},{"geometry":{"coordinates":[5.1714089999999997,59.878196000000003],"type":"Point"},"id":"recreation-ut-146889330","properties":{"description":"Øy sentralt i båtleia mellom Bømlo og Fitjarøyene. Om lag 200 meter frå kai på Bømlo (Rolvsnes). Beskytta farvatn i alle vindretningar. Øya ligg som ein grøn oase mellom dei andre lyngkledde øyene og holmane omkring. Tilplanta med ulike tre...","elevation":9,"name":"Hisøya","source":"UT.no\/DNT"},"type":"Feature"},{"geometry":{"coordinates":[5.9303439999999998,59.733668000000002],"type":"Point"},"id":"recreation-ut-146889331","properties":{"description":"Friluftsområdet Peparen er en liten holme like ved Skånevik sentrum, nærmest parkmessig opparbeidet og med gangbru til fastlandet. Dette er primært en badeplass, men brukes året rundt til ulike friluftsaktiviteter. Området er egnet for: Tur...","elevation":3,"name":"Pepparholmen","source":"UT.no\/DNT"},"type":"Feature"},{"geometry":{"coordinates":[5.8453390000000001,59.719915],"type":"Point"},"id":"recreation-ut-146889332","properties":{"description":"Denne flotte, skogkledde øya ligger i Skåneviksfjorden, ca. 6 km vest for Skånevik sentrum. Taraldsøya er et populært tur- og båtutfartsområde, med spennende natur- og kulturlandskap, mektig bar- og lauvskog og gode havneforhold. Området er...","elevation":26,"name":"Taraldsøy","source":"UT.no\/DNT"},"type":"Feature"},{"geometry":{"coordinates":[5.2734459999999999,59.922038000000001],"type":"Point"},"id":"recreation-ut-146889333","properties":{"description":"Denne flotte øya ligger like vest for Fitjar sentrum og kan tilby en fin blanding av tradisjonell kystkultur og typisk vestlandsk kystlandskap. Smedaholmen er et av de viktigste båtutfartsområdene i Fitjarøyene. Området er egnet for: Bading...","elevation":12,"name":"Smedholmen og Svelto","source":"UT.no\/DNT"},"type":"Feature"},{"geometry":{"coordinates":[5.2914079999999997,61.172384000000001],"type":"Point"},"id":"recreation-ut-146889334","properties":{"description":"Området ligg i Hyllestad sentrum og er nærområdet for ca. 300 personar busatt i sentrum, for barnehagen og skulen. Småbåthamn grenser mot området. Området er egnet for: Bading og strandbaserte aktiviteter i saltvann, Båtutfart i saltvann, L...","elevation":4,"name":"Myklebustneset","source":"UT.no\/DNT"},"type":"Feature"},{"geometry":{"coordinates":[5.0865619999999998,62.000849000000002],"type":"Point"},"id":"recreation-ut-146889335","properties":{"description":"Stranden er en unik perle i et fantastisk område, omkranset av utrolig flott fjell. Stranden er et populært feriested og utfartssted for tilreisende og flott rekreasjonsområde for nærområdet som Måløy m.m. gjennom hele året, men spesielt so...","elevation":1,"name":"Refviksanden","source":"UT.no\/DNT"},"type":"Feature"},{"geometry":{"coordinates":[5.1189850000000003,61.927975000000004],"type":"Point"},"id":"recreation-ut-146889336","properties":{"description":"Området omfattar søre delen av Moldøen, det vil seie området sør for brua som går tvers over øya. Moldøen ligg midt i Ulvesundet, med byen Måløy på landsida i vest. Friluftsområdet er kupert og prega av tidlegare beitelandskap, og dei tyske...","elevation":11,"name":"Moldøen (Broparken) ved Måløy","source":"UT.no\/DNT"},"type":"Feature"},{"geometry":{"coordinates":[6.1728059999999996,60.299033999999999],"type":"Point"},"id":"recreation-ut-146889337","properties":{"description":"Badeplass med romslig bakland og strandfjære. Området er godt egnet for barnefamilier. Stor gresslette for ballspill, lek og soling. Stupebrett i ytre del av viken. Flere bord og benker er satt ut i området. Liten parkeringsplass ved inngan...","elevation":3,"name":"Fredvik - Ståvik","source":"UT.no\/DNT"},"type":"Feature"},{"geometry":{"coordinates":[6.1734749999999998,60.362811000000001],"type":"Point"},"id":"recreation-ut-146889338","properties":{"description":"Godt tilrettelagt friluftsområde med to badeviker med landgrunn sandstrand. Romslig gressmark og fine svaberg på utsiden. Området har toalett, bord og benker, og fast grill. Eldre fotballbane i øvre del av området. Parkeringsplass. Området ...","name":"Holmsund\/Nyatræet","source":"UT.no\/DNT"},"type":"Feature"},{"geometry":{"coordinates":[6.010332,59.980781999999998],"type":"Point"},"id":"recreation-ut-146889339","properties":{"description":"Området er egnet for: Bading og strandbaserte aktiviteter i saltvann, Lek og allsidige aktiviteter, Båtutfart i saltvann, Andre vannbaserte friluftslivsaktiviteter Malmangervikjo er ett av over 2300 statlig sikrede friluftslivsområder i Nor...","elevation":1,"name":"Malmangervikjo","source":"UT.no\/DNT"},"type":"Feature"},{"geometry":{"coordinates":[5.5133570000000001,60.597966],"type":"Point"},"id":"recreation-ut-146889340","properties":{"description":"Hanstveitholmen \/ Hanstveitholmane (lokalt kalla Holmane) er ei halvøy liggjande på Hanstveit i Fotlandsvågen. Området har blandingsskog med blåbærlyng og annan undervegetasjon. Sjølve holmane inneheld flotte stader for bading, med skjerma ...","name":"Hanstveitholmen","source":"UT.no\/DNT"},"type":"Feature"},{"geometry":{"coordinates":[5.4939730000000004,60.455388999999997],"type":"Point"},"id":"recreation-ut-146889341","properties":{"description":"Sanatoriet er et rekreasjonsområde som ble opprinnelig utarbeidet på starten av 1900 tallet, men vil sette i stand igjen i løpet av 2021. På dette friluftsområdet finner du muligheter for bading, fisking og flotte blomster\/trær. Området er ...","elevation":2,"name":"Sanatoriet - Haus","source":"UT.no\/DNT"},"type":"Feature"},{"geometry":{"coordinates":[5.7290809999999999,60.400258000000001],"type":"Point"},"id":"recreation-ut-146889342","properties":{"description":"Badeområde sentralt i Samnanger kommune. Lett tilgjengeleg frå Samnangervegen og senteret på Bjørkheim, båe til fots, med sykkel eller andre transportmiddel. Svaberg, naust, treplatting, gråsteinsmuring ned i sjøen, fleirbruksflate \/opphold...","elevation":1,"name":"Bjørkheim badevik","source":"UT.no\/DNT"},"type":"Feature"},{"geometry":{"coordinates":[5.6296400000000002,60.321463999999999],"type":"Point"},"id":"recreation-ut-146889343","properties":{"description":"Romsleg friluftsområde med badevik, svaberg og kai. Området har god tilkomst, er skilta frå hovudveg og er godt eigna for småbarnsfamiliar. Lokalt mykje nytta. Gangveg og sti gjennom området til utkikkspunkt, badevik og svaberg på nordsida....","elevation":7,"name":"Rolvsvåg","source":"UT.no\/DNT"},"type":"Feature"},{"geometry":{"coordinates":[5.3858730000000001,61.929219000000003],"type":"Point"},"id":"recreation-ut-146889344","properties":{"description":"Søholmen friluftslivsområde ligg på Totland ved Bryggja i Stad kommune. Søholmen ble sikra som friluftslivsområde med statlege midlar i 1976. På kartet kan vi sjå at både Søholmen og delar av Totlandsholmane er sikra, men det er berre sjølv...","elevation":1,"name":"Søholmen","source":"UT.no\/DNT"},"type":"Feature"},{"geometry":{"coordinates":[5.5375030000000001,59.791330000000002],"type":"Point"},"id":"recreation-ut-146889345","properties":{"description":"Friluftsområdet Hystadmarkjo, som ligger like nordøst for Leirvik sentrum (2,5 km), er et av de viktigste og mest spennende turområda i regionen. Her finner du naturreservat, verna svartorskog, fine badeviker og mange kulturminner. Området ...","name":"Hystad","source":"UT.no\/DNT"},"type":"Feature"},{"geometry":{"coordinates":[6.6631340000000003,61.922196999999997],"type":"Point"},"id":"recreation-ut-146889346","properties":{"description":"Området gjer at det er eit samanhengande stinett frå Tonningleirene og opp til Tonningsetra. Nærområde med lokal og regional bruk i nær tilknytning til Stryn idrettspark. 2-3000 fastbuande kan nå området til fots eller med sykkel. Området e...","elevation":417,"name":"Tonningleirane-Ullsheim turstier","source":"UT.no\/DNT"},"type":"Feature"},{"geometry":{"coordinates":[6.711849,61.905495999999999],"type":"Point"},"id":"recreation-ut-146889347","properties":{"description":"Området sentralt inne i Stryn sentrum. Naturområde, dels våtmarksområde, med ein turveg rundt som dannar ei rundløype. Rikt artsmangfald og svært rikt fugleliv. Fugletårn i austenden. Området er egnet for: Tur - sommer, Tur - vinter, Syklin...","name":"Kjeldeflata","source":"UT.no\/DNT"},"type":"Feature"},{"geometry":{"coordinates":[5.7150129999999999,61.506681999999998],"type":"Point"},"id":"recreation-ut-146889348","properties":{"description":"Friluftslivsområdet Sanden er et bade og rekreasjonsområde som ligger ved utløpet av elva Nausta i Naustdal. Området er egnet for: Lek og allsidige aktiviteter, Fiske i saltvann, Tur - sommer, Båtutfart i saltvann, Bading og strandbaserte a...","name":"Sjøsanden \/ Sanden","source":"UT.no\/DNT"},"type":"Feature"},{"geometry":{"coordinates":[4.9878710000000002,60.404679999999999],"type":"Point"},"id":"recreation-ut-146889349","properties":{"description":"Område for bading og fiske. Fin og lun badevik med sandstrand og svaberg. Badestranda er tilrettelagt med skjelsand og er vel eigna for born. Stupebrett. Toalett og gapahuk. Informasjonstavle på toalettbygget. Parkeringsplass ved riksvegen,...","elevation":2,"name":"Kårtveitpollen","source":"UT.no\/DNT"},"type":"Feature"},{"geometry":{"coordinates":[4.9221000000000004,60.493591000000002],"type":"Point"},"id":"recreation-ut-146889350","properties":{"description":"Romslig område med stor barnevennlig badefjære, gressletter og fine svaberg. Badefjæren ligger mot en stor dam med sjøvann, som får friskt vann når det flør. Godt stangfiske langs svabergene. Landskapet er karakteristisk med hellende terren...","name":"Ormhilleren","source":"UT.no\/DNT"},"type":"Feature"},{"geometry":{"coordinates":[4.803585,60.549500999999999],"type":"Point"},"id":"recreation-ut-146889351","properties":{"description":"Friluftsområdet har viker med badefjører og svaberg som ligg i ly for vind og Vér frå nord og vest. Utanfor ligg ei rekkje holmar, sund, viker og grunne sjøområde. Gode tilhøve for fiske. Tilrettelegging I søndre del av området er det gode ...","name":"Søre Skogsøy","source":"UT.no\/DNT"},"type":"Feature"},{"geometry":{"coordinates":[4.9382640000000002,60.305639999999997],"type":"Point"},"id":"recreation-ut-146889352","properties":{"description":"Hissøyna ligg vest for Møvik i Øygarden kommune. Øya har ei god hamn - Kylderen - på søraustsida, med offentleg brygge og felles veg opp til husa. Utsida av kaien er kun til ombord- og ilandstiging. Båtar skal fortøyast ved moloen eller ved...","elevation":22,"name":"Hissøyna \/ Hitsøy","source":"UT.no\/DNT"},"type":"Feature"},{"geometry":{"coordinates":[5.1261479999999997,60.346353999999998],"type":"Point"},"id":"recreation-ut-146889353","properties":{"description":"Stort friluftsområde sentralt plassert i høve kommunesenteret Straume. Det er kun handicapparkering ved inngangen til området. All anna parkering i Kystbygarasjen like bak Sartor senter. Det er bussforbindelse til Straume idrettspark, og en...","name":"Geitvika","source":"UT.no\/DNT"},"type":"Feature"},{"geometry":{"coordinates":[5.1933129999999998,60.222208000000002],"type":"Point"},"id":"recreation-ut-146889354","properties":{"description":"Øyen Iigger meget sentralt i den nest bynære skjægården. Plasseringen nær de viktigste båthavnene i Bergensområdet gjør at dette er et av de viktigste utfartsmålene for båtfolket. Avstanden til tett befolkede nærområder gjør at også kajakkf...","elevation":16,"name":"Buarøy fort","source":"UT.no\/DNT"},"type":"Feature"},{"geometry":{"coordinates":[11.381781999999999,63.777075000000004],"type":"Point"},"id":"recreation-ut-146889355","properties":{"description":"By- og tettstedsnære friluftsområder. Området ligger i den nordøst liggende delen av Levanger kommune. Deler av område består av skog, vesentlig gran og løvtrær. Strandlinjen består av stein og er dermed lite egnet til bading. Skånes er et ...","elevation":21,"name":"Skånes","source":"UT.no\/DNT"},"type":"Feature"},{"geometry":{"coordinates":[10.725175999999999,63.434061],"type":"Point"},"id":"recreation-ut-146889356","properties":{"description":"Området er en tidligere forsvarseiendom og ligger i et befolkningstyngdepunkt på aksen Trondheim-Stjørdal. Området er lett tilgjengelig med bil \/buss for en stor befolkning innenfor en times kjøreavstand. Tilrettelagt gang-\/sykkelveg går fo...","name":"Midtsandtangen","source":"UT.no\/DNT"},"type":"Feature"},{"geometry":{"coordinates":[9.6753119999999999,62.588712000000001],"type":"Point"},"id":"recreation-ut-146889357","properties":{"description":"Kullsjøen friluftsområde ligger i Oppdal sentrum, ervervet som friluftsområde i 1975, og er et nærområde for sentrumsnær bebyggelse og selve sentrum. I 1985 forelå det reguleringsplan for Kullsjøen friluftsområde, med ny regulering i 1992. ...","elevation":539,"name":"Kullsjøen","source":"UT.no\/DNT"},"type":"Feature"},{"geometry":{"coordinates":[9.6519709999999996,63.608361000000002],"type":"Point"},"id":"recreation-ut-146889358","properties":{"description":"Området ligger noen kilometer vest for Selva sentrum og har tilkomst via offentlig vei. Det er opparbeidet plen ned mot ei veldig fin sandstrand. Det er også satt opp et toalettbygg med tilkomst for rullestol. Området er egnet for: Arealet ...","elevation":5,"name":"Storvatnet friområde","source":"UT.no\/DNT"},"type":"Feature"},{"geometry":{"coordinates":[10.020523000000001,62.845581000000003],"type":"Point"},"id":"recreation-ut-146889359","properties":{"description":"Buvatnet ligger på 418,5 m over havet og er langt og smalt - 1.750 meter langt og fra 130 m bredt i nordlige deler til 230 meter bredt i sørlige deler av vatnet. Det er hovedsaklig skogsmark i områdene rundt Buvatnet, men i både nord- og sø...","elevation":419,"name":"Buvatnet","source":"UT.no\/DNT"},"type":"Feature"},{"geometry":{"coordinates":[9.2213999999999992,63.058174000000001],"type":"Point"},"id":"recreation-ut-146889360","properties":{"description":"Vatn ved Rindal sentrum som er omkransa av myr og skogsmark. Godt opparbeid og veldrevet friluftsområde med mellom anna toalett, parkering, badeflåte, plen og bålplass. Det ligg eit bygdemuseum på den andre sida av den offentlege hovudtilko...","elevation":148,"name":"Igltjønna","source":"UT.no\/DNT"},"type":"Feature"},{"geometry":{"coordinates":[11.373291999999999,62.577913000000002],"type":"Point"},"id":"recreation-ut-146889361","properties":{"description":"Friluftsområdet ligger i sentrum av Røros. Området består av Doktortjønna og en friluftspark der Rørosmuseet tilbyr friluftsaktiviteter, og et seteranlegg nord for museumsbygningene. Området beites og slås, og brukes i undervisningssammenhe...","elevation":629,"name":"Doktortjønna","source":"UT.no\/DNT"},"type":"Feature"},{"geometry":{"coordinates":[11.007825,63.227060999999999],"type":"Point"},"id":"recreation-ut-146889362","properties":{"description":"Vikaengene ligger ved Selbusjøen nært kommunesenteret i Selbu kommune. Vikaengene er Selbus mest benyttede sandstrand og er et populært utfartsområde. Området har store landskaps- og naturkvaliteter. Området er mye besøkt av folk fra andre ...","elevation":159,"name":"Vikaengene","source":"UT.no\/DNT"},"type":"Feature"},{"geometry":{"coordinates":[10.139245000000001,63.215836000000003],"type":"Point"},"id":"recreation-ut-146889363","properties":{"description":"Grønneset ligger ved Ånøya i Skaun kommune. Friluftsområdet er lett tilgjengelig mellom rv. 708 og innsjøen. Grønneset har varierte skogsområder og store grassletter. I dette inngår stier og veier, hvor man kan fiske, drive med ballek, gril...","elevation":160,"name":"Grønneset","source":"UT.no\/DNT"},"type":"Feature"},{"geometry":{"coordinates":[12.367081000000001,64.251966999999993],"type":"Point"},"id":"recreation-ut-146889364","properties":{"description":"Viosen friluftslivsområde består for det meste av sandstrand med grasdekke og bjørkeallé bakenfor, og er et populært område for rekreasjon både for kommunens innbyggere og tilreisende. Småbåthavna grenser inn mot området. Sommerstid er dett...","elevation":23,"name":"Viosen","source":"UT.no\/DNT"},"type":"Feature"},{"geometry":{"coordinates":[11.441985000000001,64.015469999999993],"type":"Point"},"id":"recreation-ut-146889365","properties":{"description":"Sentrumsnært friluftslivsområde som grenser til sjøen. Området omfatter en attraktiv badestrand og er særlig egnet til bading og strandbaserte aktiviteter i saltvann. Området er egnet for tur og opphold hele året. Området er egnet for: Badi...","elevation":15,"name":"Paradisbukta\/Skåtangen","source":"UT.no\/DNT"},"type":"Feature"},{"geometry":{"coordinates":[10.885872000000001,63.472616000000002],"type":"Point"},"id":"recreation-ut-146889366","properties":{"description":"Storvika friluftsområde er kjent som Stjørdals mest besøkte strand og badeplass. Den ligger idyllisk til i ei lun vik mellom strandberg ikke langt fra Stjørdal sentrum. Storvika friluftsområde er på godværsdager full av badegjester, men er ...","elevation":17,"name":"Storvika","source":"UT.no\/DNT"},"type":"Feature"},{"geometry":{"coordinates":[10.446536999999999,63.456074000000001],"type":"Point"},"id":"recreation-ut-146889367","properties":{"description":"Friluftslivsområde ved sjøen som omfatter deler av Ladestien og Ladekaia serveringssted. Natur- og kulturminner i form av bygninger og krigsminner gjør området attraktivt for besøkende. Området er egnet for: Båtutfart i saltvann, Lek og all...","elevation":22,"name":"Østmarkneset","source":"UT.no\/DNT"},"type":"Feature"},{"geometry":{"coordinates":[10.542745,63.431074000000002],"type":"Point"},"id":"recreation-ut-146889368","properties":{"description":"Badeplass på Ranheim som er godt tilrettelagt for funksjonshemmede. P-plass for 50 plasser. Området er tilrettelagt for aktivitet i hele det statlig sikra friområdet langs sjøen. Sentralt for aktiviteten i området er Ladestien. Innenfor omr...","elevation":5,"name":"Ranheim strandområde \/Hansbakkfjæra","source":"UT.no\/DNT"},"type":"Feature"},{"geometry":{"coordinates":[9.7013180000000006,63.713073000000001],"type":"Point"},"id":"recreation-ut-146889369","properties":{"description":"Turvei som delvis omfatter gang- og sykkelvei mellom Brekstad og Austrått som er knyttet til Rusasetvatnet. Området er de historiske veiløpene mellom herregården Austrått og Rusasetvatnet og langs vassdraget Stamselva og Balsneselva. Total ...","elevation":9,"name":"Turveier i Ørland","source":"UT.no\/DNT"},"type":"Feature"},{"geometry":{"coordinates":[9.6766640000000006,63.699663999999999],"type":"Point"},"id":"recreation-ut-146889370","properties":{"description":"Bruholmen friluftsområde ligger like øst for Brekstad sentrum og består opprinnelig av to holmer, men den største er nå landfast. På den største av holmene er det i dag parkering, toalett, rasteplasser og tursti på 600-700 m. Det er forbind...","name":"Bruholmen","source":"UT.no\/DNT"},"type":"Feature"},{"geometry":{"coordinates":[10.791921,59.188218999999997],"type":"Point"},"id":"recreation-ut-146889371","properties":{"description":"Området er barnevennlig med en stor lun gresslette utstyrt med lekeapparater, og en langgrunn vik inn mot Gjetøya. Fine vestvendte svaberg med gode bademuligheter. Disse svabergene er populære fiskeplasser for stangfiske. Med sin rike veget...","elevation":9,"name":"Mærrapanna","source":"UT.no\/DNT"},"type":"Feature"},{"geometry":{"coordinates":[10.953011,59.142347000000001],"type":"Point"},"id":"recreation-ut-146889372","properties":{"description":"Stort friluftslivsområde med vesentlig furuskog på grunnlendt grannittmark. På øya finnes Kjøkøy fort, som ble bygget under andre verdenskrig av den tyske okkupasjonsmakten og var i aktiv tjeneste i det norske forsvaret frem til slutten av ...","elevation":14,"name":"Kjøkøy fort","source":"UT.no\/DNT"},"type":"Feature"},{"geometry":{"coordinates":[10.827139000000001,59.169445000000003],"type":"Point"},"id":"recreation-ut-146889373","properties":{"description":"Foten er et barnevennlig badeområde med en lun sandstrand. Også store muligheter å bade fra svabergene, med brygger og hoppetårn. Det lekeplass, sandvolleyballbane, stupebrett og brygge for besøkende. Det er kafè og stor parkeringsplass. Fo...","elevation":6,"name":"Foten","source":"UT.no\/DNT"},"type":"Feature"},{"geometry":{"coordinates":[11.034701999999999,59.132044],"type":"Point"},"id":"recreation-ut-146889374","properties":{"description":"Et område med mange små bukter og viker som innbyr til bading. Bukta innenfor Torskeskjær har en lun, fin og barnevennlig sandstrand. Over til Torskeskjær er det mulig å vasse. Campingplass med lekeapparater og kiosk. Arealet syd for campin...","elevation":5,"name":"Bevø","source":"UT.no\/DNT"},"type":"Feature"},{"geometry":{"coordinates":[11.412006,59.057699999999997],"type":"Point"},"id":"recreation-ut-146889375","properties":{"description":"Ca. 300 daa stor halvøy i Iddefjordlandskapet med forekomster av rødlistearter, kategorisert som viktig (Bittergrønn, Strandkryp, Tusengylden, Strandrødtopp, Dverggylden). På halvøya er det et steinuttak\/brudd hvor det tas ut monumenstein. ...","elevation":5,"name":"Skriverøya","source":"UT.no\/DNT"},"type":"Feature"},{"geometry":{"coordinates":[10.843617,59.084201999999998],"type":"Point"},"id":"recreation-ut-146889376","properties":{"description":"Søndre Vesterøy har store områder med skrinn og værhard kystlinje. Innimellom er det store og små viker og kiler. De viktigste av dem er Kuvauen, Guttormsvauen og Kilen (Utgårdskilen). Svabergene i det ytre området består av glattskurt fjel...","elevation":10,"name":"Guttormsvauen 1-3","source":"UT.no\/DNT"},"type":"Feature"},{"geometry":{"coordinates":[10.838594000000001,59.092539000000002],"type":"Point"},"id":"recreation-ut-146889377","properties":{"description":"Søndre Vesterøy har store områder med skrinn og værhard kystlinje. Innimellom tangene er det store og små viker og kiler. De viktigste av dem er Kuvauen, Guttormsvauen og Kilen (Utgårdskilen). Svabergene i det ytre området består av glattsk...","elevation":11,"name":"Kuvauen","source":"UT.no\/DNT"},"type":"Feature"},{"geometry":{"coordinates":[10.920513,59.055688000000004],"type":"Point"},"id":"recreation-ut-146889378","properties":{"description":"Området ligger sør vest på Asmaløy. Sørvestre Asmaløy har lenge vært kjent som et meget verdifullt naturområde med spesiell geologi, rullesteiner, vegetasjon, mange sjeldne insekter og våtmarksfugler. Her finner du områder med kystlynghei, ...","elevation":2,"name":"Huser 3-4","source":"UT.no\/DNT"},"type":"Feature"},{"geometry":{"coordinates":[10.991749,59.028592000000003],"type":"Point"},"id":"recreation-ut-146889379","properties":{"description":"Storrød, Grønne Bakke og Rødshodet utgjør et sammenhengende område (1140 daa) på vestsiden av Kirkøy, praktisk talt fra Hasselvika i nord til et stykke forbi Rødshue i sør. Området er dels snaufjell\/svaberg og dels skog. Innimellom finnes e...","elevation":3,"name":"Rødshodet","source":"UT.no\/DNT"},"type":"Feature"},{"geometry":{"coordinates":[10.989535999999999,59.040317999999999],"type":"Point"},"id":"recreation-ut-146889380","properties":{"description":"Storrød og Rødshodet utgjør et sammenhengende område på vestsiden av Kirkøy, praktisk talt fra Hasselvika i nord til et stykke forbi Rødshue i sør. Det strekker seg fra 300m til 600m innover i landet. Spor etter stenhuggervirksomhet og skul...","elevation":4,"name":"Storrød","source":"UT.no\/DNT"},"type":"Feature"},{"geometry":{"coordinates":[10.988125,59.038212999999999],"type":"Point"},"id":"recreation-ut-146889381","properties":{"description":"Storrød, Grønne Bakke og Rødshodet utgjør et sammenhengende område (1140 daa) på vestsiden av Kirkøy, praktisk talt fra Hasselvika i nord til et stykke forbi Rødshue i sør. Grønne Bakke er en tidligere forsvarseiendom, dels gressbevokst og ...","name":"Grønne Bakke","source":"UT.no\/DNT"},"type":"Feature"},{"geometry":{"coordinates":[11.014488,59.020868999999998],"type":"Point"},"id":"recreation-ut-146889382","properties":{"description":"Storesand ligger på Kirkøy og er på ca 300 daa. Området har furuskog og en stor strandlinje på 3340 m som består av sandstrender og svaberg. Her finnes en rekke fortidsminner og en interessant flora. Området er barnevennlig og er et av de v...","elevation":15,"name":"Storesand i Hvaler","source":"UT.no\/DNT"},"type":"Feature"},{"geometry":{"coordinates":[11.070046,59.680416000000001],"type":"Point"},"id":"recreation-ut-146889383","properties":{"description":"Tilrettelagt badestrand med stor åpen grasslette, åpent skogsområde, badeflåte, kiosk og separat parkering. Bussmuligheter på virkedager. Området er egnet for: Bading og strandbaserte aktiviteter i ferskvann, Fiske i ferskvann, Lek og allsi...","elevation":169,"name":"Hallerud bad","source":"UT.no\/DNT"},"type":"Feature"},{"geometry":{"coordinates":[10.630521999999999,59.481437999999997],"type":"Point"},"id":"recreation-ut-146889384","properties":{"description":"Området byr på sandstrand, knauser, sletter og skog. Nord på området ligger den lune, skjermede Heyerdahlbukta med badestrand. Spaserer man sørover gjennom skogen kommer man til Sørstranda; en virkelig perle. Området har en rik vegetasjon o...","elevation":5,"name":"Vestre Nes","source":"UT.no\/DNT"},"type":"Feature"},{"geometry":{"coordinates":[11.233238,59.469734000000003],"type":"Point"},"id":"recreation-ut-146889385","properties":{"description":"Suteren ligger flott til ved Glomma. 3 gapahuker samlet på ett lite tun som fritt kan benyttes. Det er også en gapahuk nede på svabergene med nydelig utsikt over Glomma. Det kan være beitedyr i inngjerningen, adkomst med gjerdeklyv. Røsæg s...","elevation":48,"name":"Suteren","source":"UT.no\/DNT"},"type":"Feature"},{"geometry":{"coordinates":[10.864169,59.361911999999997],"type":"Point"},"id":"recreation-ut-146889386","properties":{"description":"Karlshusskogen har beliggenhet ved kommunesenteret i Råde. Det er egnet for tur, opphold og aktiviteter som blant annet bading og fisking. Området omfatter variert natur (skog, berg, og sjø) med godt turstisystem og lysløype, som videre er ...","elevation":40,"name":"Karlshusskogen","source":"UT.no\/DNT"},"type":"Feature"},{"geometry":{"coordinates":[11.186102999999999,59.186245],"type":"Point"},"id":"recreation-ut-146889387","properties":{"description":"Sandvika er den største og viktigste badeplassen ved kysten i Sarpsborg kommune. Området har med sine 55 daa stor kapasitet til å ta imot besøkende. Området er egnet til bading og strandbaserte aktiviteter, båtutfart, fiske, ferdsel og opph...","elevation":11,"name":"Sandvika","source":"UT.no\/DNT"},"type":"Feature"},{"geometry":{"coordinates":[11.175086,59.133594000000002],"type":"Point"},"id":"recreation-ut-146889388","properties":{"description":"Dusa er et mye brukt utfartsfriluftslivsområde bruk med beliggenhet i Skjebergkilen. Området består blant annet av flere øyer som bindes sammen med bruer. Området er tilrettelagt for funksjonshemmede med blant annet nesten nytt toalettbygg....","name":"Dusa","source":"UT.no\/DNT"},"type":"Feature"},{"geometry":{"coordinates":[11.121541000000001,59.292546999999999],"type":"Point"},"id":"recreation-ut-146889389","properties":{"description":"Området ligger helt ned til Glomma. I søndre del av Glengshølen er det satt opp aktivitetsapparater, og det er mulig med diverse ballspill og frisbeegolf. Fra Bryggestien er det mulig å ta avstikkere opp og inn i skogen, på stier hvor man f...","elevation":23,"name":"Glengshølen","source":"UT.no\/DNT"},"type":"Feature"},{"geometry":{"coordinates":[11.192828,59.117303999999997],"type":"Point"},"id":"recreation-ut-146889390","properties":{"description":"Det er gode parkeringsmuligheter og god plass på området. Kålvikholmen er godt tilgjengelig - HC toalett og baderampe. Del av et stort sammenhengenede friområde fra Øketangen til Kålvika og Kålvikholmen. Området har flere mindre sandstrende...","name":"Kålvikholmen","source":"UT.no\/DNT"},"type":"Feature"},{"geometry":{"coordinates":[11.187493,59.118997],"type":"Point"},"id":"recreation-ut-146889391","properties":{"description":"Stort sammenhengenede friområde fra Øketangen til Kålvika og Kålvikholmen. Området har flere mindre sandstrender og områder med svaberg og kystfuruskog. Det er gode parkeringsmuligheter og god plass på området. Området er egnet for: Bading ...","name":"Økestranda - Hvitsand","source":"UT.no\/DNT"},"type":"Feature"},{"geometry":{"coordinates":[10.767185,59.461179999999999],"type":"Point"},"id":"recreation-ut-146889392","properties":{"description":"Badeplass i tilknytning til en rasteplass med stor parkering ved fylkesvei 120. En liten strand med gresslette i bakkant. Mulig å sette ut båt, og å fiske fra et gammelt brokar. Vinterbrøytet skøytebane på Lødengfjorden innenfor Rødsundbroa...","elevation":26,"name":"Rødsund bro","source":"UT.no\/DNT"},"type":"Feature"},{"geometry":{"coordinates":[10.902144,59.444839000000002],"type":"Point"},"id":"recreation-ut-146889393","properties":{"description":"Gammelt småbruk med strand, enger og skog. Svært viktig friluftslivsområde med særlige kvaliteter. Tilgang til Vansjø for padling, skøyting og andre friluftslivsaktiviteter. Området er spesielt egnet for bading, fisking og utsetting av båte...","elevation":29,"name":"Mellom-Ros","source":"UT.no\/DNT"},"type":"Feature"},{"geometry":{"coordinates":[12.932838,66.063492999999994],"type":"Point"},"id":"recreation-ut-146889394","properties":{"description":"Skogområde ervervet til friareal i forbindelse med Liland sentrum. Deler av området inngår i en idrettsplass. Området er egnet for: Lek og allsidige aktiviteter Lysåsen er ett av over 2300 statlig sikrede friluftslivsområder i Norge. Les me...","elevation":52,"name":"Lysåsen","source":"UT.no\/DNT"},"type":"Feature"},{"geometry":{"coordinates":[14.525357,67.297442000000004],"type":"Point"},"id":"recreation-ut-146889395","properties":{"description":"Området er en tidligere forsvarseiendom som ligger ca. 6 km fra Bodø sentrum. Området er en del av et større marka-, nærtur- og turområde for hele Bodøs befolkning. Området inngår i en sammenheng hvor det er tilrettelagt med skianlegg, skyt...","elevation":119,"name":"Bestemorenga","source":"UT.no\/DNT"},"type":"Feature"},{"geometry":{"coordinates":[13.649594,66.894572999999994],"type":"Point"},"id":"recreation-ut-146889396","properties":{"description":"Badeplass med fin badestrand like ved nasjonal turistvei. Området er tilrettelagt med parkering og toalett. Området er planlagt tilrettelagt med adkomstvei fra p-plass til strandområdet. Området er egnet for: Arealet er parkeringsplass i ti...","name":"Stia","source":"UT.no\/DNT"},"type":"Feature"},{"geometry":{"coordinates":[14.491593,67.336611000000005],"type":"Point"},"id":"recreation-ut-146889397","properties":{"description":"Ausvika er ei av Bodø kommunes mest brukte strender. Forholdsvis nær byen, mye brukt året rundt. Også store botaniske verdier. Stor parkeringsplass, toalett tilpassa rullestolbruk, opparbeida gangvei ned til stranda og flere bord\/stolgruppe...","elevation":13,"name":"Ausvika","source":"UT.no\/DNT"},"type":"Feature"},{"geometry":{"coordinates":[14.633436,67.425428999999994],"type":"Point"},"id":"recreation-ut-146889398","properties":{"description":"Stort strandområde nord for Bodø. Mye brukt spesielt om sommeren. Stor parkeringsplass. Toalett, søppelstativ og infotavle i tilknytning til parkeringsplassen. Første del av strandområde har opparbeida gangvei for rullestolbruk. Adkomst til...","name":"Mjelle","source":"UT.no\/DNT"},"type":"Feature"},{"geometry":{"coordinates":[14.515382000000001,67.340834000000001],"type":"Point"},"id":"recreation-ut-146889399","properties":{"description":"Geitvågen ligger ca. syv km nord for Bodø og består av en campingplass, et stort saltvannsbadebasseng med demning og store arealer for rekreasjon og friluftsliv. Geitvågen har i over 70 år vært Bodøværingenes foretrukne badeplass. Floa og e...","elevation":2,"name":"Geitvågen","source":"UT.no\/DNT"},"type":"Feature"},{"geometry":{"coordinates":[13.962762,66.812808000000004],"type":"Point"},"id":"recreation-ut-146889400","properties":{"description":"Nærmiljøområde med sentral beliggenhet i tettstedet Glomfjord. God adkomst for de fleste deriblant bevegelseshemmede\/rullestolbrukere. Området har tursti, lysløype, tuftepark og fotball‐ kunstgressbane. Området har en særlig fin badeplass. ...","elevation":109,"name":"Lille Glomvatn","source":"UT.no\/DNT"},"type":"Feature"},{"geometry":{"coordinates":[13.303875,65.904711000000006],"type":"Point"},"id":"recreation-ut-146889401","properties":{"description":"Nes ved utløpet av Baåga. Vakker beliggenehet ned mot Fustvatnet, god tilgjengelighet fra E6. Har vært benyttet til badeplass og utfartsområde av kommunens innbyggere i en årrekke. Representerer en av de få mulighetene til badeliv. Mange ak...","elevation":39,"name":"Baångneset","source":"UT.no\/DNT"},"type":"Feature"},{"geometry":{"coordinates":[16.075503999999999,68.035516999999999],"type":"Point"},"id":"recreation-ut-146889402","properties":{"description":"Drag aktivitetspark. Tiltak som skal iverksettes på omsøkt areal er grøntanlegg\/parkaanlegg, turløype tilrettelagt for funksjonshemmede, sjøsamisk storgamme, naust og parkeringsareal. Området er egnet for: Arealet er parkeringsplass i tilkn...","elevation":6,"name":"Drag aktivitetspark","source":"UT.no\/DNT"},"type":"Feature"},{"geometry":{"coordinates":[15.416539,67.103005999999993],"type":"Point"},"id":"recreation-ut-146889403","properties":{"description":"Øst for Rognan sentrum. Strandområde, øyr i Saltdalselva. Stort sandstrandområde. Grustaket er avsluttet. Kommunen planlegger å opparbeide området som et attraktivt bade- og friluftsområde i nærområdet til Rognan, jf reguleringsplan 14.juni...","elevation":3,"name":"Skansenøra","source":"UT.no\/DNT"},"type":"Feature"},{"geometry":{"coordinates":[13.529443000000001,68.198409999999996],"type":"Point"},"id":"recreation-ut-146889404","properties":{"description":"Området er et attraktivt friluftslivsområde egnet for opphold, bading og strandbaserte aktiviteter i saltvann. Området ligger er et utfartsområde med beliggenhet nordvest på Vestvågøya mellom tettstedene Vik og Haukeland. Området har stor b...","elevation":1,"name":"Hauklandstranda","source":"UT.no\/DNT"},"type":"Feature"},{"geometry":{"coordinates":[11.799927,65.669711000000007],"type":"Point"},"id":"recreation-ut-146889405","properties":{"description":"Området har beliggenhet ved sjøen på vestsiden av Vega. Området består blant annet av rullesteinstrender med spesielle steiner med store og små blokker av bergarten Vegagranitt. Området er egnet til opphold og turer i nærliggende område. Om...","elevation":4,"name":"Sundsvollstranda","source":"UT.no\/DNT"},"type":"Feature"},{"geometry":{"coordinates":[14.329834999999999,68.183905999999993],"type":"Point"},"id":"recreation-ut-146889406","properties":{"description":"Området er i dag et lokalt, regionalt og nasjonalt viktig frilufisområde som benyttes av allmennheten og reiselivsnæringa. Det er et inngrepsfritt område med store naturkvaliteter og omfatter om lag 4200 m strandlinje, elv\/innsjø, grotter, ...","elevation":20,"name":"Kalle","source":"UT.no\/DNT"},"type":"Feature"},{"geometry":{"coordinates":[14.632806,67.324776999999997],"type":"Point"},"id":"recreation-ut-146889407","properties":{"description":"Sti- og skiløype mellom Heia og Furumoen i Bodø kommune. Det skal etableres en skiløypetrase på 3,5 meters bredde med gruset midtparti for sommerbruk. Området er regulert gjennom en reguleringsplan fra 2012. Området er egnet for: Tur - somm...","elevation":79,"name":"Frosktjønn-Heia-Furumoen turløype","source":"UT.no\/DNT"},"type":"Feature"},{"geometry":{"coordinates":[14.233521,68.204075000000003],"type":"Point"},"id":"recreation-ut-146889408","properties":{"description":"Rørvika friluftslivsområde består i hovedsak av Rørvikstranda som er et populær område for lokalbefolkning og tilreisende. Området grenser til sjøen og ligger nær E10 og fylkesvei til Henningsvær. Området er svært godt egnet til bading og a...","elevation":5,"name":"Rørvika","source":"UT.no\/DNT"},"type":"Feature"},{"geometry":{"coordinates":[14.774907000000001,68.662184999999994],"type":"Point"},"id":"recreation-ut-146889409","properties":{"description":"Oksneset er lokalisert i Eidsfjorden ved tettstedet Guvåg i Bø kommune. Området er på grunn av natur- og kulturverdier et attraktivt område. Området har mange kulturminner, og i området Guvåghytta som driftes av Vesterålen turlag. Området e...","elevation":7,"name":"Oksneset\/Guvåg","source":"UT.no\/DNT"},"type":"Feature"},{"geometry":{"coordinates":[14.596641999999999,67.288646],"type":"Point"},"id":"recreation-ut-146889410","properties":{"description":"Området er del av Futelva elvepark. Dette er en godt tilrettelagt elvesti av 1,2 meters bredde. Her er badeplass og parkering. Futelva elvepark er et mye brukt nærturområde for Mørkved, Støver og Bertnes. Naturen preges av meandrerende elve...","elevation":26,"name":"Futelva - 154-3","source":"UT.no\/DNT"},"type":"Feature"},{"geometry":{"coordinates":[13.182893999999999,65.862216000000004],"type":"Point"},"id":"recreation-ut-146889411","properties":{"description":"Friluftslivsområde ved sjøen kommunesenteret Mosjøen egnet til tur, opphold, bading og strandbaserte aktiviteter. Området er tilrettelagt med blant annet parkering, turvei, oppholdplass med bord og benker tilrettelagt for bål og grilling, b...","elevation":7,"name":"Finnvika","source":"UT.no\/DNT"},"type":"Feature"},{"geometry":{"coordinates":[9.8854629999999997,59.915056999999997],"type":"Point"},"id":"recreation-ut-146889412","properties":{"description":"Området ligger på Blaafarveværket, på andre siden av elven i forhold til bygningene nede på Værket. Området består av en gressvold med to små gamle hus, det ene har vært fjøs og det andre bolighus. I bakkant er det et beiteområde. Hele områ...","elevation":32,"name":"Greteplassen","source":"UT.no\/DNT"},"type":"Feature"},{"geometry":{"coordinates":[8.5695230000000002,60.630279000000002],"type":"Point"},"id":"recreation-ut-146889413","properties":{"description":"Sundreøya omfatter en universelt utformet og sentrumsnær turvei (Elvelangs) med oppholdsareal på Bråta, fiskeplass langs Hallingdalselva, og badeplass ved Oppsjø. Det er flere rasteplasser langs turveien. Sundreøya ligger ellers i tilknytni...","elevation":434,"name":"Bråta turveg","source":"UT.no\/DNT"},"type":"Feature"},{"geometry":{"coordinates":[8.9301519999999996,60.694735000000001],"type":"Point"},"id":"recreation-ut-146889414","properties":{"description":"Området er et rekreasjonsområde som ligger tett inntil Hallingdalselva på den ene siden og rv 7 på den andre siden. Det er mye svaberg og små kulper i den vestlige delen av området, mens det er gressplen og mer \"parkareal\" i den østlige del...","elevation":210,"name":"Glitre","source":"UT.no\/DNT"},"type":"Feature"},{"geometry":{"coordinates":[9.6397600000000008,59.685251999999998],"type":"Point"},"id":"recreation-ut-146889415","properties":{"description":"Nærområde i Kongsberg sentrum som grenser til elva Lågen. Området er egnet til tur, opphold og sykling og er tilrettelagt med blant annet parkering, turveier og toalett. Store deler av området er universelt utformet, og det er en hundepark ...","elevation":157,"name":"Skavanger flyplass","source":"UT.no\/DNT"},"type":"Feature"},{"geometry":{"coordinates":[9.8428679999999993,59.698143999999999],"type":"Point"},"id":"recreation-ut-146889416","properties":{"description":"Sundhaugen er en vakker halvøy i sundet mellom Eikeren og Fiskumvannet. Området har fine sandstrender som vender både mot Fiskumvannet og Eikeren, og det har store gressletter som kan brukes til lek og rekreasjon. Det er også fine grusede t...","elevation":37,"name":"Sundhaugen","source":"UT.no\/DNT"},"type":"Feature"},{"geometry":{"coordinates":[10.220738000000001,59.740367999999997],"type":"Point"},"id":"recreation-ut-146889417","properties":{"description":"Elveparken er en del av en grøntkorridor som er opparbeidet med turvei på begge sider av Drammenselva. Langs turveien er det sittebenker, lekeplasser, badeplasser med toalettanlegg, balløkker, brygger, fiskeplasser, skulpturer mm. Området b...","elevation":2,"name":"Drammen Elvepark","source":"UT.no\/DNT"},"type":"Feature"},{"geometry":{"coordinates":[10.288292,59.766421000000001],"type":"Point"},"id":"recreation-ut-146889418","properties":{"description":"Dette er en av distriktets mest populære turveier og benyttes både av gående og syklende. Deler av traseen er også ski- og labbeløype om vinteren. Langs traseen er det satt opp informasjonstavler og benker, som gir mulighet for en hyggelig ...","elevation":28,"name":"Gamle Drammensbanen Lier","source":"UT.no\/DNT"},"type":"Feature"},{"geometry":{"coordinates":[11.164187999999999,60.154980999999999],"type":"Point"},"id":"recreation-ut-146889419","properties":{"description":"Et svært mye brukt friluftslivsområde som brukes til ulike former for rekreasjon og friluftslivsaktiviteter. Området brukes mye til bading, soling og ulike former for fysisk trening og turgåing. Det er opparbeidet en badeplass med brygger, ...","elevation":188,"name":"Nordbytjernet","source":"UT.no\/DNT"},"type":"Feature"},{"geometry":{"coordinates":[11.150584,59.920563000000001],"type":"Point"},"id":"recreation-ut-146889420","properties":{"description":"Området er statlig sikret for at det skal forbli tilrettelagt og tilgjengelige for allmennheten, og være beskyttet mot utbygging og naturinngrep. Fetsund lenser ble sikret i 1994. Området ligger nært Fetsund sentrum og har flere kultur- og ...","elevation":105,"name":"Fetsund lenser","source":"UT.no\/DNT"},"type":"Feature"},{"geometry":{"coordinates":[11.163161000000001,59.926754000000003],"type":"Point"},"id":"recreation-ut-146889421","properties":{"description":"Bynært parkområde med gressplen, turvei, badestrand, grillplass, lekeplass og brygge. Brygga er bygget på fundamentene til en gammel dampskipsbrygge. Et område som er godt universelt utformet, med bl.a. rullevennlig dekke på turvei. Et loka...","elevation":104,"name":"Stasjonsstranda","source":"UT.no\/DNT"},"type":"Feature"},{"geometry":{"coordinates":[11.079741,59.862499],"type":"Point"},"id":"recreation-ut-146889422","properties":{"description":"Myrdammen ble sikret som statlig friluftslivsområde i 1973. Området blir brukt til bading og som rekreasjonsområde, som utgangspunkt for turer til fots eller på ski i skogen, samt fiske i vannet. Det er lagt ned mye arbeid i tilrettelegging...","elevation":195,"name":"Myrdammen.","source":"UT.no\/DNT"},"type":"Feature"},{"geometry":{"coordinates":[10.489686000000001,59.843116000000002],"type":"Point"},"id":"recreation-ut-146889423","properties":{"description":"Flott badestrand med egen parkering, sandstrand, sletter og knauser. Her finner du også, toalett og piknikbord. Stranden er godt tilrettelagt med badetrapp, handicap-rampe, molo og brygge. Hvalstrand har stupetårn med tre plattformer på 10,...","elevation":14,"name":"Hval gård\/Hvalstrand Bad","source":"UT.no\/DNT"},"type":"Feature"},{"geometry":{"coordinates":[10.512256000000001,59.732622999999997],"type":"Point"},"id":"recreation-ut-146889424","properties":{"description":"Høvikvolden er et stort friluftsområde med store gressletter, 4 isdammer, skogsområder, et par små sandstrender og en del svaberg ned mot Oslofjorden. Området ligger mellom Nærsnes og Båtstø. Det er mange turmuligheter herifra med bla Kysts...","elevation":10,"name":"Høvikvollen","source":"UT.no\/DNT"},"type":"Feature"},{"geometry":{"coordinates":[10.396221000000001,59.690573999999998],"type":"Point"},"id":"recreation-ut-146889425","properties":{"description":"Hernestangen er et relativt stort friluftsområde som stikker ut i Drammensfjorden og ligger sør for Hyggen tettsted. Området er en del av en morenerygg og består av et gårdstun, amfiscene, store gressletter, luftige bjørkelunder, furuskog o...","elevation":15,"name":"Hernestangen","source":"UT.no\/DNT"},"type":"Feature"},{"geometry":{"coordinates":[10.738201,59.551355999999998],"type":"Point"},"id":"recreation-ut-146889426","properties":{"description":"Smaalensbanens vestre kystlinje er en del av den gamle jernbanetraseen gjennom Vestby kommune. Området strekker seg fra Kjenn og Kjennstjernet i nord, gjennom Hølen tettsted over Hølenviadukten, til Sonsveien stasjon i sør. Området egner se...","elevation":52,"name":"Smaalensbanen","source":"UT.no\/DNT"},"type":"Feature"},{"geometry":{"coordinates":[10.727213000000001,59.736339999999998],"type":"Point"},"id":"recreation-ut-146889427","properties":{"description":"Breivoll ligger innerst på østsiden av Bunnefjorden, som en del av Oslofjorden. Landskapet på Breivoll er variert med mange ulike naturkvaliteter: som plener og parkarealer, flere ulike skogtyper, strand, svaberg, slåttemark, mange eiketrær...","elevation":3,"name":"Breivoll","source":"UT.no\/DNT"},"type":"Feature"},{"geometry":{"coordinates":[11.238588999999999,60.461545000000001],"type":"Point"},"id":"recreation-ut-146889428","properties":{"description":"Det statlige sikrede friluftslivsområdet er sammensatt av flere deler. Morskogen og Ørbekkstranda\/Støjordet. De henger sammen med en gammel jernbanetrase som er sikret som en turvei fra Minnesund i sør til kommunegrensa til Stange i nord. T...","elevation":123,"name":"Mjøstråkk\/Ørbekkstranda\/Støjordet","source":"UT.no\/DNT"},"type":"Feature"},{"geometry":{"coordinates":[11.575139999999999,59.883645000000001],"type":"Point"},"id":"recreation-ut-146889429","properties":{"description":"Bjørkelangen stasjonspark er et statlig sikret friluftsområde i hjertet av Bjørkelangen. Område er på 33 000 m² og er et grøntområde som har en historisk betydning, da den ligger på området til Bjørkelangen stasjon. Her gikk den gamle Ursko...","elevation":126,"name":"Bjørkelangen stasjonspark","source":"UT.no\/DNT"},"type":"Feature"},{"geometry":{"coordinates":[10.412050000000001,59.054310999999998],"type":"Point"},"id":"recreation-ut-146889430","properties":{"description":"Verdens Ende ligger helt sør på hovedøya Tjøme. Området domineres av fjell i dagen, frodig løvskog i klover og svaberg mot havet. Et 30-talls holmer og skjær inngår i friområdet. Verdens Ende er et landskjent begrep og et meget benyttet utf...","name":"Verdens Ende","source":"UT.no\/DNT"},"type":"Feature"},{"geometry":{"coordinates":[10.41344,59.074519000000002],"type":"Point"},"id":"recreation-ut-146889431","properties":{"description":"Området er en tidligere forsvarseiendom og består av et høydedrag, småskog og gressbevokste områder. Landskapet er kupert og er preget av svaberg. Det går en vei gjennom eiendommen i nord-sørlig retning, samt en veisløyfe til høydedraget. O...","elevation":39,"name":"Torås","source":"UT.no\/DNT"},"type":"Feature"},{"geometry":{"coordinates":[10.452133999999999,59.077547000000003],"type":"Point"},"id":"recreation-ut-146889432","properties":{"description":"Område som ligger i direkte tilknytning til og nord for Østgården friområde. Østgården og Kruke - Mellombakken ligger rett sør for Sandøsund. Området består av en sammenhengende, meget god, langgrunn sandstrand med en bakenforliggende siv- ...","elevation":1,"name":"Kruke og Mellombakken","source":"UT.no\/DNT"},"type":"Feature"},{"geometry":{"coordinates":[10.440993000000001,59.154223999999999],"type":"Point"},"id":"recreation-ut-146889433","properties":{"description":"Mågerø er et flott friluftslivsområde som har vært i forsvarets eie som luftforsvarsstasjon fram til 2023. Her er flere strender, skogsområder og høydedrag med utsikt over Vrengensundet, skjærgården og Færder nasjonalpark. Her kan man gå fi...","elevation":28,"name":"Mågerø","source":"UT.no\/DNT"},"type":"Feature"},{"geometry":{"coordinates":[10.395711,59.066153999999997],"type":"Point"},"id":"recreation-ut-146889434","properties":{"description":"Moutmarka er et stort sammenhengende friluftsområde med mange naturkvaliteter på Tjømes sørvestside, like nord for Verdens Ende. Området er lett å ta seg fram i. Et svært populært tur- og rekreasjonsområde. Det er et omfattende stinett på M...","elevation":3,"name":"Moutmarka","source":"UT.no\/DNT"},"type":"Feature"},{"geometry":{"coordinates":[10.570302999999999,59.203677999999996],"type":"Point"},"id":"recreation-ut-146889435","properties":{"description":"Østre Bolærne ble sikret som friluftsområde for allmennheten på 2000-tallet. Øya har variert natur; furuskog nord på øya, sandstender nord, sør og øst på øya, ellers består mye av strandlinja av svaberg. Den vindutsatte sørenden har røsslyn...","elevation":30,"name":"Østre Bolærne","source":"UT.no\/DNT"},"type":"Feature"},{"geometry":{"coordinates":[10.382906999999999,59.228616000000002],"type":"Point"},"id":"recreation-ut-146889436","properties":{"description":"Søndre Hella er en del av området Hella som ligger vest på Nøtterøy, ca 500 meter sør for de tettest befolkede områdene på Nøtterøy. Skogkledd område med svaberg og sandstrand. Vestvendt. Søndre Hella er en del av området Hella, som ligger ...","elevation":3,"name":"Søndre Hella","source":"UT.no\/DNT"},"type":"Feature"},{"geometry":{"coordinates":[10.464682,59.227179],"type":"Point"},"id":"recreation-ut-146889437","properties":{"description":"Dunholmen er en odde sørøst på landfaste Føynland. Stranden består av svaberg og spredte, barnevennelige sandstrender. En stor gresslette danner baklandet i nordvest, i sydøst et skogvokst kolleparti. Rullestolvennlige stier. Boligområder, ...","elevation":4,"name":"Dunholmen","source":"UT.no\/DNT"},"type":"Feature"},{"geometry":{"coordinates":[10.448418,59.092303000000001],"type":"Point"},"id":"recreation-ut-146889438","properties":{"description":"Lilleskagen er et intensivt benyttet tur- og badeområde. I sommerhalvåret også en del telting. Ligger på nordøstsiden av Hvasser. I vest grenser området til hyttebebyggelse. Området har en variert topgrafi og vegetasjon som veksler mellom s...","elevation":2,"name":"Nordhavna (Lilleskagen)","source":"UT.no\/DNT"},"type":"Feature"},{"geometry":{"coordinates":[10.428909000000001,59.266992000000002],"type":"Point"},"id":"recreation-ut-146889439","properties":{"description":"Området ligger ved Presterødkilen naturreservat. Stort sett eng og siv- vegetasjon. Her er god mulighet til å studere fuglelivet i reservatet uten å bevege seg inn i det fredede området. Området er tilrettelagt med turvei. Området er egnet ...","elevation":1,"name":"Presterødkilen (Trælebergodden)","source":"UT.no\/DNT"},"type":"Feature"},{"geometry":{"coordinates":[10.498198,59.277137000000003],"type":"Point"},"id":"recreation-ut-146889440","properties":{"description":"En 700 meter lang sandstrand 6 km nordøst for Tønsberg sentrum. Ligger i Ringshaugbukta ved Ringshaug bad. En av vestfolds mest brukte badestrender, intensivt i bruk som turområde store deler av året. I øst består strandpartiet av blokk-\/ru...","name":"Ringshaugstranda","source":"UT.no\/DNT"},"type":"Feature"},{"geometry":{"coordinates":[10.501946,59.292195999999997],"type":"Point"},"id":"recreation-ut-146889441","properties":{"description":"Området ligger i Skallevoldbukta sør for Slagentangen, ca 7 km sørøst for sentrum. Merket sykkelrute fra sentrum (nasjonal sykkelrute nr 1). Området består av et langstrakt fint strandparti med sandstrand. Boligområde og campingplass i bakk...","name":"Skallevoldstranda","source":"UT.no\/DNT"},"type":"Feature"},{"geometry":{"coordinates":[10.515404999999999,59.293923999999997],"type":"Point"},"id":"recreation-ut-146889442","properties":{"description":"Karlsvika ligger ca 8 km nord for Tønsberg sentrum. Lokaliteten ligger øst, nord-øst for Skallevold og rett sør for turområdet Essoskogen. Stranda i bukta i sør er en sand- og rullesteinstrand med en bakenforliggende, skrånende gresslette. ...","name":"Karlsvika","source":"UT.no\/DNT"},"type":"Feature"},{"geometry":{"coordinates":[10.065992,59.396585999999999],"type":"Point"},"id":"recreation-ut-146889443","properties":{"description":"Merkedamsområdet ligger i vestre del av Vivestad og er en del av de store skogsområdene i Indre Vestfold. Området er et mye benyttet turområde med mulighet for bading og fiske. Om vinteren er det oppkjørte skiløyper knyttet opp mot større l...","elevation":325,"name":"Merkedammen","source":"UT.no\/DNT"},"type":"Feature"},{"geometry":{"coordinates":[10.201264999999999,59.355943000000003],"type":"Point"},"id":"recreation-ut-146889444","properties":{"description":"Langevatn\/Fjeleboden er et skogområde ca 150 m.o.h. vest for Ramnes sentrum. I området er det store partier med lett framkommelig blåbærgranskog (Bakkeskogen i nord og Brattås). Partier med tett lauvskog, bl.a bøk. Preparerte og merkede ski...","elevation":140,"name":"Langevatn\/Fjeleboden","source":"UT.no\/DNT"},"type":"Feature"},{"geometry":{"coordinates":[10.496594,59.420430000000003],"type":"Point"},"id":"recreation-ut-146889445","properties":{"description":"Området er en tidligere forsvarseiendom, del av Karljohansvern, og ligger nær Horten sentrum. Området består av parkskog med en rekke nasjonalt sjeldne og truede arter av insekter og sopp knyttet til gamle trær, spesielt eik. Skogen er kjer...","elevation":3,"name":"Hortenskogen","source":"UT.no\/DNT"},"type":"Feature"},{"geometry":{"coordinates":[10.481807,59.398296999999999],"type":"Point"},"id":"recreation-ut-146889446","properties":{"description":"Rørestrand er en mye brukt badeplass øst i Horten, rett sør for sentrum. Gåavstand fra de sørlige delene av Horten sentrum. Stor opparbeidet gresslette med steinsatt sjøside. En stor del av området består av tidligere utfyllinger. Baklandet...","name":"Rørestrand","source":"UT.no\/DNT"},"type":"Feature"},{"geometry":{"coordinates":[10.039815000000001,59.594687999999998],"type":"Point"},"id":"recreation-ut-146889447","properties":{"description":"Eiendommen består av et lengere og sammenhengende turveisystem som går gjennom Eidsfoss (gammelt jernverksområde, spennende industrihistorie) og både langs Bergsvannet og Eikern. Området har variert rikt skogbilde. Veksling mellom rike edel...","elevation":31,"name":"Eidsfoss","source":"UT.no\/DNT"},"type":"Feature"},{"geometry":{"coordinates":[10.290639000000001,59.513696000000003],"type":"Point"},"id":"recreation-ut-146889448","properties":{"description":"Ca 7 km nedlagt jernbanelinje mellom Holmestrand og Sande som er tilrettelagt som kyststi Området er egnet for: Bading og strandbaserte aktiviteter i saltvann, Fiske i saltvann, Lek og allsidige aktiviteter, Sykling, Tur - sommer, Tur - vin...","elevation":30,"name":"Kyststien Holmestrand-Sande","source":"UT.no\/DNT"},"type":"Feature"},{"geometry":{"coordinates":[10.255011,59.565193000000001],"type":"Point"},"id":"recreation-ut-146889449","properties":{"description":"Lersbryggen ligger på østsida av Sandebukta, like ved boligområdet Selvik ca. 4 km sør for Sande, ved RV 319. Området utgjør et kupert, delvis skogkledd areal ned mot Sandebukta der strandsonen er mest attraktiv. Beliggenheten og befolkning...","elevation":22,"name":"Lersbryggen","source":"UT.no\/DNT"},"type":"Feature"},{"geometry":{"coordinates":[10.311935999999999,59.531253],"type":"Point"},"id":"recreation-ut-146889450","properties":{"description":"Kommersøya ble ervervet i 1973 og er en stor ubebodd øy i Oslofjorden. Øya er 2,7 km lang og ligger i ytre del av Sandebukta. Øyas vestside og delvis sørøstsida er bratt og ulendt, men den er likevel lett tilgjengelig. Det er gode landingsp...","elevation":6,"name":"Kommersøya","source":"UT.no\/DNT"},"type":"Feature"},{"geometry":{"coordinates":[10.171469999999999,59.509509999999999],"type":"Point"},"id":"recreation-ut-146889451","properties":{"description":"Nesvangen ligger ved den sørøstre enden av Hillestadvanet. Lokaliteten er skogbevokst bortsett fra enkelte felter med fjell i degen. Vegetasjonen består av blåbær,granskog og lav-furuskog. Ned mot vannet kommer innslag av svartor og takrør ...","elevation":45,"name":"Nesvangen","source":"UT.no\/DNT"},"type":"Feature"},{"geometry":{"coordinates":[10.331519999999999,59.178992999999998],"type":"Point"},"id":"recreation-ut-146889452","properties":{"description":"Bogen-Nallberg friområde ligger i Tønsbergfjorden, sør i Stokke kommune, ca 5 km sørøst for Stokke sentrum. Området består av svaberg, gressplen, stein- og sandstrand. Parkering for 75 biler nord for Bogen, liten parkering ved Nalbergodden....","elevation":2,"name":"Bogen-Nallberg","source":"UT.no\/DNT"},"type":"Feature"},{"geometry":{"coordinates":[10.243802000000001,59.100557000000002],"type":"Point"},"id":"recreation-ut-146889453","properties":{"description":"Lang sandstrand, svaberg med furu- og blandingsskog i baklandet. Slitasjepåvirket eng\/gress. Et nettverk av stier kobler området sammen med friområdet Asnes i sør. Dagsbesøkende med sykkel, bil og båt. Fotballslette og egen brygge på område...","name":"Korsvika - Asnes","source":"UT.no\/DNT"},"type":"Feature"},{"geometry":{"coordinates":[10.277965,59.067619000000001],"type":"Point"},"id":"recreation-ut-146889454","properties":{"description":"Området ligger på østsiden av Vesterøya, dvs ute i Mefjorden. Det ligger en flott 100 meter langs sandstrand i friområdet og det er også flere mindre strender med sand og rullestein. Baklandet består av furuskog med grasvegetasjon. Mot sør ...","elevation":15,"name":"Grubesand","source":"UT.no\/DNT"},"type":"Feature"},{"geometry":{"coordinates":[10.306984,59.065367999999999],"type":"Point"},"id":"recreation-ut-146889455","properties":{"description":"Området ligger ytterst på Østerøya, og er et av de største ubebygde områdene langs Vestfoldkysten og omfatter også øyer og holmer. Topografisk er området variert med skrinne kollepartier, trange fuktige og vegetasjonsrike drag. Området har ...","elevation":36,"name":"Yxnøy","source":"UT.no\/DNT"},"type":"Feature"},{"geometry":{"coordinates":[10.258803,59.072183000000003],"type":"Point"},"id":"recreation-ut-146889456","properties":{"description":"Langgrunn og 150 meter lang barnevennlig vestvendt sandstrand. En av Sandefjords mest populære badestrender. Området bærer preg av en intensiv bruk. Markvegetasjonen har karakter av plen eller er slitt bort. Spredt vokser store gran- og fur...","name":"Vøra\/Hagaskogen","source":"UT.no\/DNT"},"type":"Feature"},{"geometry":{"coordinates":[10.098483,59.012681999999998],"type":"Point"},"id":"recreation-ut-146889457","properties":{"description":"Malmøya representerer stor landskapsvariasjon og gir rom for mange ulike friluftslivsaktiviteter. Kystsonen har svaberg og rullesteinsstrender. De indre delene har frodige lunder av edelløvskog, tett ensartet plantet granskog, skogkledde ås...","elevation":20,"name":"Malmøya","source":"UT.no\/DNT"},"type":"Feature"},{"geometry":{"coordinates":[10.128622,59.007353999999999],"type":"Point"},"id":"recreation-ut-146889458","properties":{"description":"Svært mye brukt utfarts- og friluftsområdet ytterst på Eftanghalvøya, sør-øst for Viksfjorden. I området finnes ei fin og barnevennlig sandstrand som ligger i le for pålandsvær. Stranda har tørreng-samfunn som bakland. Tørrengene bærer preg...","elevation":11,"name":"Ølbergholmen","source":"UT.no\/DNT"},"type":"Feature"},{"geometry":{"coordinates":[10.074978,59.018776000000003],"type":"Point"},"id":"recreation-ut-146889459","properties":{"description":"Et stort og variert og ikke sammenhengende friområde. Friområdet omkranser flere fritidseiendommer. Bukt med sandstrand ved Gon grenser inn til Gon camping. Ellers strandparti bestående av berg og fjellstrand. Baklandet i vest utgjøres av e...","elevation":25,"name":"Gon\/Hummermyra","source":"UT.no\/DNT"},"type":"Feature"},{"geometry":{"coordinates":[10.025183,58.979585],"type":"Point"},"id":"recreation-ut-146889460","properties":{"description":"Området er en tidligere forsvarseiendom og består av åpne svaberg og frodige drag som er sterkt preget av sjøen. Kyststien tangerer området. Det er god atkomst hele året, med asfaltert vei både fram til området og inne i området. Rakke ligg...","elevation":20,"name":"Vestre Rakke","source":"UT.no\/DNT"},"type":"Feature"},{"geometry":{"coordinates":[9.912839,59.344557999999999],"type":"Point"},"id":"recreation-ut-146889461","properties":{"description":"Friluftsområdet kalles for Kjærra, og er et til rettelagt tur- og badeområde ved Lågen. Kjent fiskeplass for laks. Stedet brukes til arrangementer. Ble kåret til årets friluftsområde i Vestfold i 1995 og 2001. Aktivitetsområde og rullestols...","elevation":37,"name":"Lågendalen friluftsmuseum","source":"UT.no\/DNT"},"type":"Feature"},{"geometry":{"coordinates":[10.017961,59.064897000000002],"type":"Point"},"id":"recreation-ut-146889462","properties":{"description":"Svært mye brukt friområde som ligger langs den sørøstre delen av Farris. Området kalles lokalt Kilen. Variert turområde med skjøttede gressletter, koller og løvskog. En undergang under E 18 kobler friområdet med Bøkeskogen. Lengst nord i Ki...","elevation":23,"name":"Farrisvannet","source":"UT.no\/DNT"},"type":"Feature"},{"geometry":{"coordinates":[9.8503830000000008,59.013767999999999],"type":"Point"},"id":"recreation-ut-146889463","properties":{"description":"Området er omgitt av bratte koller og åspartier. Strandpartiet består av fjell- og bergstrand. Vegetasjonen består av lav furuskog på kollene med løvskog i glover og drag. Tidligere bebyggelse i området er revet og innmarka gror igjen. I sø...","elevation":1,"name":"Ødegården","source":"UT.no\/DNT"},"type":"Feature"},{"geometry":{"coordinates":[9.8483210000000003,58.970858999999997],"type":"Point"},"id":"recreation-ut-146889464","properties":{"description":"Svært viktig tur- og rekreasjonsområde med variert kystnatur. Tørrbakkeeng ved Oddane camping (Tørbunken) som begynner å gro igjen. Vestover svaberg, rullesteinsstrand, klover med frodig vegetasjon. Baklandet preget av tett løvtrevegetasjon...","elevation":11,"name":"Mølen-Nevlungen","source":"UT.no\/DNT"},"type":"Feature"},{"geometry":{"coordinates":[9.9200660000000003,58.972847000000002],"type":"Point"},"id":"recreation-ut-146889465","properties":{"description":"Friluftslivsområdets kystlinje består av til dels bratte svaberg og bergstrand med mindre partier med sandstrand. I øst, Sandvika, ligger en større og lun sandstrand mye brukt av lokale hyttefolk. Baklandet består av skrinne fjellkoller med...","elevation":14,"name":"Guslandutmarka","source":"UT.no\/DNT"},"type":"Feature"},{"geometry":{"coordinates":[9.2370099999999997,58.723956000000001],"type":"Point"},"id":"recreation-ut-146889466","properties":{"description":"Sentrumsnært friluftslivsområde med turveger og fantastiske utsiktspunkter. Området har bademuligheter, kultursti og et gammelt kystfort fra annen verdenskrig. Universelt tilrettelagt ved sørenden av Barbulia-bassenget. Statlig sikra fra Ur...","elevation":60,"name":"Urheia","source":"UT.no\/DNT"},"type":"Feature"},{"geometry":{"coordinates":[8.9239709999999999,58.625700999999999],"type":"Point"},"id":"recreation-ut-146889467","properties":{"description":"Friluftslivsområde sentralt i Tvedestrand. Gratis badepark om sommeren med aktivitetselementer og utlån av SUP, kano og kajakk. Området har en stor plen med lekeapparat, bord\/benkesett og grill samt toaletter og skiftebu. Det er gode parker...","elevation":38,"name":"Tjennaparken","source":"UT.no\/DNT"},"type":"Feature"},{"geometry":{"coordinates":[8.8563130000000001,58.443989999999999],"type":"Point"},"id":"recreation-ut-146889468","properties":{"description":"Flott område, særegent for Raet nasjonalpark, med åpent rullesteinslandskap og svaberg ved sjøen. Dette er en av innfallsportene til nasjonalparken. Parkeringsplass med god kapasitet i tilknytning til området. Ved parkeringsplassen er det o...","elevation":2,"name":"Spornes","source":"UT.no\/DNT"},"type":"Feature"},{"geometry":{"coordinates":[8.5810870000000001,58.326830000000001],"type":"Point"},"id":"recreation-ut-146889469","properties":{"description":"Groos er et meget attraktivt utfartsmål for dagsturer, familievennlig for unge og eldre. Det er fine sandstrender og langgrunt og de beste muligheter for allsidige strandbaserte aktiviteter. Store sletter med grasbakke for opphold og lek. S...","elevation":3,"name":"Groosstranda","source":"UT.no\/DNT"},"type":"Feature"},{"geometry":{"coordinates":[8.5860059999999994,58.500022999999999],"type":"Point"},"id":"recreation-ut-146889470","properties":{"description":"Området med nærhet til Trevann, badeplass og parkarealer, samt Frolands Verk kultursenter med vernede bygninger. Naturskjønt friluftslivsområde med gamle trær og rikt fugleliv. God parkeringskapasitet og toalett. Området er også et fint utg...","elevation":56,"name":"Froland verk","source":"UT.no\/DNT"},"type":"Feature"},{"geometry":{"coordinates":[8.3704750000000008,58.247912999999997],"type":"Point"},"id":"recreation-ut-146889471","properties":{"description":"Flott turområde i byen med tilrettelagte turstier og utkikkspunkt. Flere små vann med bademuligheter. Det er skiltet til området fra sentrum. Området er egnet for: Tur - sommer, Egnet for bevegeseshemmede, Bading og strandbaserte aktivitete...","elevation":45,"name":"Reveråsen og Springvannsstemmen","source":"UT.no\/DNT"},"type":"Feature"},{"geometry":{"coordinates":[8.8667040000000004,58.750525000000003],"type":"Point"},"id":"recreation-ut-146889472","properties":{"description":"Området ligger naturskjønt til ved Storelva. Området er primært en badeplass, og har brygge, stupebrett, grillplass, gapahuk, sandvolleyballbane og toalett. Parkeringsplass tilknyttet området. Området er universelt utformet og ligger rett v...","elevation":167,"name":"Vaskarplassen","source":"UT.no\/DNT"},"type":"Feature"},{"geometry":{"coordinates":[8.0088439999999999,58.132817000000003],"type":"Point"},"id":"recreation-ut-146889473","properties":{"description":"Sentrumsnær stor øy i Byfjorden mellom Østerhavna og Vesterhavna. Øya er knyttet sammen med kvadraturen via flere broer over kanalen i Gravane og havna. Vakker, vekslende natur med blankskurte fjell på sørspissen, stupbratte fjell med forbl...","elevation":31,"name":"Odderøya","source":"UT.no\/DNT"},"type":"Feature"},{"geometry":{"coordinates":[7.4371289999999997,58.022879000000003],"type":"Point"},"id":"recreation-ut-146889474","properties":{"description":"Et stort område med store friluftslivsverdier i form av en rekke badestrender, turstier, turveier, lekeplasser og toaletter. Bunkerser, skyttergraver og maskingeværstillinger fra 2. verdenskrig finnes flere steder i Furulunden. Furulunden e...","elevation":12,"name":"Furulunden","source":"UT.no\/DNT"},"type":"Feature"},{"geometry":{"coordinates":[7.4361750000000004,58.016393999999998],"type":"Point"},"id":"recreation-ut-146889475","properties":{"description":"Stort og attraktivt friluftsområde rett sør for Mandal sentrum. Med unntak av Hobdeheia, en rygg mellom Risøbank og Sjøsanden, er området temmelig plant. Her er store og små sandstrender langs hele sjøsiden, bare stykket opp av mindre kolle...","elevation":4,"name":"Risøbank","source":"UT.no\/DNT"},"type":"Feature"},{"geometry":{"coordinates":[7.0363389999999999,58.137196000000003],"type":"Point"},"id":"recreation-ut-146889476","properties":{"description":"Kvaviksanden er en flott, sammenhengende og vestvendt sandstrand, som ligger ved utløpet av Lygna ca. 2 km fra sentrum. Stranda har lave sandyner\/hauger med marehalm og gras ytterst. Sandstranda er lang med god plass, og her er fint å bade ...","elevation":2,"name":"Kvaviksanden","source":"UT.no\/DNT"},"type":"Feature"},{"geometry":{"coordinates":[7.9531850000000004,58.248801999999998],"type":"Point"},"id":"recreation-ut-146889477","properties":{"description":"Området ligger nær Vikeland like sør for Vennesla sentrum og er et stort og sentralt kultur-, natur- og parkområde for allmennheten i et sentrumsnært område nær bredden av Otra. Fiskeplass som skal bli universelt utformet er under arbeid (p...","elevation":4,"name":"Vigeland hovedgård fiskeplass","source":"UT.no\/DNT"},"type":"Feature"},{"geometry":{"coordinates":[8.2308719999999997,58.343021999999998],"type":"Point"},"id":"recreation-ut-146889478","properties":{"description":"Området er en sentral del av Tovdalselva og ligger like ved Birkeland sentrum og Birkenesparken med idrettsanlegg, lysløype mm. Det går tursti fra Birkenesparken til området og er også parkeringsmuligheter for bil. Området er valgt til komm...","elevation":32,"name":"Teinefoss\/Tovdalselva","source":"UT.no\/DNT"},"type":"Feature"},{"geometry":{"coordinates":[18.197963999999999,69.460064000000003],"type":"Point"},"id":"recreation-ut-146889479","properties":{"description":"Området ligger vest for Aglapsvik mellom Gisundet og Malangen. Sørvika er et skog- og strandområde som kjennetegnes med ei ca 400 meter bred, hvit, langgrunn sandstrand. Sandtranda er fantastisk flott, og er ypperlig til lek- og badeaktivit...","elevation":6,"name":"Sørvika","source":"UT.no\/DNT"},"type":"Feature"},{"geometry":{"coordinates":[17.986370999999998,69.230307999999994],"type":"Point"},"id":"recreation-ut-146889480","properties":{"description":"Finnsnesvatnet ligger midt i sentrum av Finnsnes. Området er en av byens viktigste grønne lommer og gir bysenteret et idyllisk preg. Det går en godt tilrettelagt turvei rundt vannet med benker og sittegrupper. Området egner seg svært godt f...","elevation":5,"name":"Finnsnesvatnet","source":"UT.no\/DNT"},"type":"Feature"},{"geometry":{"coordinates":[18.914028999999999,69.628398000000004],"type":"Point"},"id":"recreation-ut-146889481","properties":{"description":"Godt tilrettelagt turveg på sydspissen av Tromsøya med benker, bålplasser og informasjonsskilt. Turvegen ligger i tilknytning til Telegrafbukta og Langesodden med tilgang til attraktive fjære- og strandområder. Området brukes hele året. Omr...","elevation":13,"name":"Sydspissen","source":"UT.no\/DNT"},"type":"Feature"},{"geometry":{"coordinates":[18.908940999999999,69.635530000000003],"type":"Point"},"id":"recreation-ut-146889482","properties":{"description":"Attraktivt nærområde sør på Tromsøya som omfatter både Folkeparken og Telegrafbukta. Telegrafbukta byr på store gressletter, bergknauser, svaberg og hvite strender, og blir også brukt mye gjennom hele året. Området er en populær møteplass f...","elevation":21,"name":"Folkeparken","source":"UT.no\/DNT"},"type":"Feature"},{"geometry":{"coordinates":[18.728180999999999,69.558466999999993],"type":"Point"},"id":"recreation-ut-146889483","properties":{"description":"Hella ligger ved Rystraumen, ca. 30 km sør for Tromsø by. Området er et kjært utfartssted om sommeren for folk i hele kommunen, så vel som en betydningsfull turistattraksjon. Stedet kan beskrives som et unikt friområde med fine svaberg ut m...","elevation":24,"name":"Straumhella","source":"UT.no\/DNT"},"type":"Feature"},{"geometry":{"coordinates":[19.020962999999998,69.641767000000002],"type":"Point"},"id":"recreation-ut-146889484","properties":{"description":"Stort, helårig turområde i Tromsdalen. Området er lett tilgjengelig og er svært mye brukt til rekreasjon og trening. Området har et stort nettverk av turstier og -veier, og et utstrakt lysløype-nettverk som prepareres vinterstid. Området er...","elevation":16,"name":"Tromsdalen","source":"UT.no\/DNT"},"type":"Feature"},{"geometry":{"coordinates":[19.220397999999999,69.146924999999996],"type":"Point"},"id":"recreation-ut-146889485","properties":{"description":"Juksavatnet er regionens største statlig sikrede friluftsområde, og ble sikret på grunn av sine spesielle natur-, kultur- og opplevelsesverdier. Området er tilrettelagt med gapahuk, båtutsett, rullestoltilpasset flytebrygge, grill, dansepla...","elevation":244,"name":"Strupen","source":"UT.no\/DNT"},"type":"Feature"},{"geometry":{"coordinates":[18.981192,70.090085000000002],"type":"Point"},"id":"recreation-ut-146889486","properties":{"description":"Haugland gård på Hersøya er en fraflyttet fiskarbondegård sørvest på Hersøya. Vanlig ankomst er med fritidsbåt eller kajakk. Tilknyttet gården finnes en flytebrygge, sjøbu, tre naust\/sjåer, brønn, grillplass, utedo og flere kulturminner som...","name":"Haugland gård","source":"UT.no\/DNT"},"type":"Feature"},{"geometry":{"coordinates":[20.354299999999999,69.670845],"type":"Point"},"id":"recreation-ut-146889487","properties":{"description":"Øya ligger vakkert til og er hovedturmålet for båtfolket i tre kommuner, og for båtfriluftsliv av ulike slag, inkludert kajakkpadlere. Årøya ligger ca. 1 sjømil fra kommunesenteret Lyngseidet. Ved kaiområdet på Bertholmen er det godt tilret...","elevation":22,"name":"Årøya","source":"UT.no\/DNT"},"type":"Feature"},{"geometry":{"coordinates":[20.956085000000002,70.033449000000005],"type":"Point"},"id":"recreation-ut-146889488","properties":{"description":"Eidevannet er et populært og godt tilrettelagt nærturområde. Rundt vannet går det en tilrettelagt turvei egnet for rullestolbrukere. Området byr på bålplasser, sittegrupper, brygge, strand, bademuligheter, sanitæranlegg og utendørs trenings...","elevation":51,"name":"Eidevannet friluftsområde","source":"UT.no\/DNT"},"type":"Feature"},{"geometry":{"coordinates":[12.313333,61.268281000000002],"type":"Point"},"id":"recreation-ut-146889842","properties":{"description":"Badeplass ved siden av Kongsparken, like nord for Nybergsund sentrum. Området er egnet for: Lek og allsidige aktiviteter, Sykling Tjønna er ett av over 2300 statlig sikrede friluftslivsområder i Norge. Les mer om statlig sikrede friluftsliv...","elevation":352,"name":"Tjønna","source":"UT.no\/DNT"},"type":"Feature"},{"geometry":{"coordinates":[8.9288299999999996,61.233849999999997],"type":"Point"},"id":"recreation-ut-146889843","properties":{"description":"Beitostølen er ett av over 2300 statlig sikrede friluftslivsområder i Norge. Les mer om statlig sikrede friluftslivsområder på Miljødirektoratet sine nettsider her .","elevation":815,"name":"Beitostølen","source":"UT.no\/DNT"},"type":"Feature"},{"geometry":{"coordinates":[9.7274860000000007,61.611434000000003],"type":"Point"},"id":"recreation-ut-146889844","properties":{"description":"Lokalt utfartssted ved Lågen egnet til bading, lek og fiske. Fin sandstrand. Hovedsakelig til lokal bruk. Området har enkel tilrettelegging. Tidligere prestegårdsgrunn solgt av Statskog gjennom Opplysningsvesenets fond til Nord-Fron kommune...","elevation":246,"name":"Eidesand","source":"UT.no\/DNT"},"type":"Feature"}],"generator":"Trakke fetch_utno_poi.swift","timestamp":"2026-08-10T00:27:31Z","type":"FeatureCollection"}