{"attribution":"UT.no\/DNT","features":[{"geometry":{"coordinates":[11.678660000000001,63.034562999999999],"type":"Point"},"id":"setr-ut-141745","properties":{"description":"Høyløe trolig bygd i 1761. Den ble brukt til å lagre høy i. Løa er typisk av sitt slag med en glugge som åpning oppå veggen. I 2011 ble den restaurert. Nytt tak ble lagt og råtne stokker skiftet ut.","elevation":429,"name":"Høyløddu","source":"UT.no\/DNT"},"type":"Feature"},{"geometry":{"coordinates":[11.387737,62.486348],"type":"Point"},"id":"setr-ut-141809","properties":{"description":"Åpen bu som eies av Nøra Østre Grunneierlag. Passer fint å ta turen innom på ski, til fots eller på sykkel langs stien mellom Røros og Bredalslien \/ Narjordet. Det er ikke tillatt å overnatte i bua, og dermed ikke tilrettelagt for det.","elevation":983,"name":"Bredalslibua","source":"UT.no\/DNT"},"type":"Feature"},{"geometry":{"coordinates":[10.750165000000001,64.202910000000003],"type":"Point"},"id":"setr-ut-141813","properties":{"description":"Osen Fjellstyres utleiehytte med 6 sengeplasser. Mulighet for snøscootertransport om vinteren.","elevation":351,"name":"Austvasshytta","source":"UT.no\/DNT"},"type":"Feature"},{"geometry":{"coordinates":[6.65794,59.910125999999998],"type":"Point"},"id":"setr-ut-141855","properties":{"description":"Støl som nås fra Løyning. Flott terreng på grei sti.","elevation":879,"name":"Torekovstølen 880 M","source":"UT.no\/DNT"},"type":"Feature"},{"geometry":{"coordinates":[11.213404000000001,61.14629],"type":"Point"},"id":"setr-ut-141862","properties":{"description":"Søljebekkbua er en laftet trehytte som ble oppført under krigen mellom 1940 og 1950. Den markerer starten på en merket tursti som går opp til Hemmelfjellet.","elevation":592,"name":"Søljebekkbua","source":"UT.no\/DNT"},"type":"Feature"},{"geometry":{"coordinates":[5.5505230000000001,61.656962],"type":"Point"},"id":"setr-ut-142009","properties":{"description":"Turposten Midtbøstøylen ligg ved eit grindbygg som er åpent for alle, 317 moh. Midbøstøylen er namnet på kartet. Fint turmål for barnefamiliar. På Midtbøstøylen er det grill som ein kan bruke Eit støylshus blei flytta til \"Støylen nord om f...","elevation":317,"name":"Midtbøstøylen","source":"UT.no\/DNT"},"type":"Feature"},{"geometry":{"coordinates":[5.9168000000000003,59.8414],"type":"Point"},"id":"setr-ut-142057","properties":{"description":"Stad : Ovanfor Tveitedalen, Utåker Gardering av tursti hit : BLÅ - Middels tur . OMTALE Dyrrinda er eit fint turmål. Det er merkt sti hit frå Tveitedalen (merkt Ulvanosa - gradert RAUD). Det er ca 1 times gange til Dyrrinda frå der stien st...","elevation":583,"name":"Dyrrinda","source":"UT.no\/DNT"},"type":"Feature"},{"geometry":{"coordinates":[5.819121,59.850071999999997],"type":"Point"},"id":"setr-ut-142068","properties":{"description":"Stad : Mellom Valen og Husnes Gradering av tursti hit : BLÅ - Middels tur . OMTALE Vardhaugselet er eit turmål som blir svært mykje nytta. Selet er alltid ope for alle, så der kan ein koma under tak dersom veret ikkje er det beste. VARDHAUG...","elevation":646,"name":"Vardhaugselet","source":"UT.no\/DNT"},"type":"Feature"},{"geometry":{"coordinates":[5.8071970000000004,59.839371],"type":"Point"},"id":"setr-ut-142070","properties":{"description":"Stad : Valen Gradering av tursti hit : BLÅ - Middels tur . OMTALE Legg gjerne turen til Olderbotn . Her er det ei fin og moderne rastehytte som vart reist i 2024\/2025 etter den gamle hundre år gamle hytta som vart totalskada av brann i 2022...","elevation":355,"name":"Olderbotn","source":"UT.no\/DNT"},"type":"Feature"},{"geometry":{"coordinates":[5.3507819999999997,60.420896999999997],"type":"Point"},"id":"setr-ut-142215","properties":{"description":"En av mange Byfjellshytter - denne med et artig navn og skult beliggenhet bak steiner.","elevation":501,"name":"Uren Luren","source":"UT.no\/DNT"},"type":"Feature"},{"geometry":{"coordinates":[6.5771309999999996,59.859977999999998],"type":"Point"},"id":"setr-ut-142247","properties":{"description":"1060 M. Turmål sommer og vinter, enten fra Korlevoll eller fra Vintertun.","elevation":1062,"name":"Bua ved Steinavatnet","source":"UT.no\/DNT"},"type":"Feature"},{"geometry":{"coordinates":[11.414056,60.767679999999999],"type":"Point"},"id":"setr-ut-142287111","properties":{"description":"Koie som ligger på en åpen setervoll","elevation":276,"name":"Baståskoia","source":"UT.no\/DNT"},"type":"Feature"},{"geometry":{"coordinates":[11.581642,60.738878],"type":"Point"},"id":"setr-ut-142287115","properties":{"elevation":450,"name":"Totbergsætra","source":"UT.no\/DNT"},"type":"Feature"},{"geometry":{"coordinates":[5.3098080000000003,60.499595999999997],"type":"Point"},"id":"setr-ut-142320264","properties":{"description":"I Rimmaskaret langs den trondhjemske postvei ligger et restaurert bygg, laget til som et fjellkapell.","elevation":269,"name":"Magnusløen ved Rimmaskaret i Åsane","source":"UT.no\/DNT"},"type":"Feature"},{"geometry":{"coordinates":[6.5415109999999999,59.996164],"type":"Point"},"id":"setr-ut-142330","properties":{"description":"Stølsplass for folket på Sandvin. Noe bratt tur opp lia, men å komme opp er verdt slitet. 570 moh.","elevation":563,"name":"Lauvås støl","source":"UT.no\/DNT"},"type":"Feature"},{"geometry":{"coordinates":[5.8303459999999996,59.891154999999998],"type":"Point"},"id":"setr-ut-142331","properties":{"description":"Stad: Mellom Husnes og Herøysund Gradering av turstiar hit : RAUD - Krevjande tur . OMTALE Svartavatnet er eit fint turmål i fjellet mellom Herøysund, Uskedalen og Husnes. Ved Svartavatnet er det kvilebu som er open for alle. Herfrå er det ...","elevation":778,"name":"Svartavatnet Husnes","source":"UT.no\/DNT"},"type":"Feature"},{"geometry":{"coordinates":[5.9045129999999997,59.855966000000002],"type":"Point"},"id":"setr-ut-142332","properties":{"description":"Stad : I Børsdalen mellom Tveitedalen og Uskedalen Gradering for tursti hit : BLÅ - Middels tur . OMTALE Til Børsdalshytta er det merkt sti frå Tveitedalen, og det er ca 3 km inn til hytta frå der stien startar. Stien er kronglete, men flot...","elevation":430,"name":"Børsdalshytta","source":"UT.no\/DNT"},"type":"Feature"},{"geometry":{"coordinates":[11.455368,60.827559000000001],"type":"Point"},"id":"setr-ut-142355","properties":{"description":"Turforslaget finner du her: Sletthellkoia Sletthellkoia er ei gammel tømmerkoie som ligger i Mosjømarka. Koia eies av Løiten Almenning.","elevation":316,"name":"Sletthellkoia","source":"UT.no\/DNT"},"type":"Feature"},{"geometry":{"coordinates":[11.260505,61.012514000000003],"type":"Point"},"id":"setr-ut-14243322","properties":{"description":"Dette er en nyrestaurert ljørkoie, der det passer med en rast. Turforslaget finner du her.","elevation":650,"name":"Ingeborgvolla ljørkoie","source":"UT.no\/DNT"},"type":"Feature"},{"geometry":{"coordinates":[6.6300990000000004,60.003405999999998],"type":"Point"},"id":"setr-ut-142500","properties":{"description":"Flott støl med delvis restaurerte sel. Fin spaser tur på grusvei og sti, også grei å nå på vinteren med ski.","elevation":676,"name":"Inste Hildalstølen 675 M","source":"UT.no\/DNT"},"type":"Feature"},{"geometry":{"coordinates":[11.254218,60.673278000000003],"type":"Point"},"id":"setr-ut-142519722","properties":{"description":"Koie langs Stasjonsstien mellom Tangen og Stange","elevation":226,"name":"Røhnekoia","source":"UT.no\/DNT"},"type":"Feature"},{"geometry":{"coordinates":[11.089543000000001,60.933109999999999],"type":"Point"},"id":"setr-ut-142519753","properties":{"description":"Seter. Turmål fra Vollkoia eller St.Olav\/Tørbustilen både sommer og vinter","elevation":592,"name":"Bjørsætra","source":"UT.no\/DNT"},"type":"Feature"},{"geometry":{"coordinates":[10.979746,61.095291000000003],"type":"Point"},"id":"setr-ut-142519755","properties":{"description":"Rauskjørkoia er en ny koie og gapahuk som er satt opp på samme sted som den som brukt når tyskerne ble for nærgående. Nær Hamarsæterhøgda.","elevation":649,"name":"Rauskjørkoia","source":"UT.no\/DNT"},"type":"Feature"},{"geometry":{"coordinates":[5.4702039999999998,59.853512000000002],"type":"Point"},"id":"setr-ut-142856","properties":{"description":"Tårnet er i dag ein stad å ete nista, sjå på utsikta og varme seg. Tårnet vert drifta av Stord-Fitjar Turlag og er eigd av SKL. Velkommen inn! Dette var tidlegare ein gammal trafostasjon som no er resturert. For å komme til Tårnet kan ein g...","elevation":691,"name":"Tårnet på Stovegolvet","source":"UT.no\/DNT"},"type":"Feature"},{"geometry":{"coordinates":[10.97283,60.133380000000002],"type":"Point"},"id":"setr-ut-143082","properties":{"description":"Nybergskoia ved Harstadvangen Vi anbefaler også disse ljørkoiene. Vi har Honsjøhytta på Nordåsen, Nybergskoia ved Harstadvangen og Fevikskoia i Holter Almenning. I disse ljørkoiene finner du ly mens du raster. Det er også et ildsted i koia ...","elevation":268,"name":"Nybergskoia (Ljørkoie)","source":"UT.no\/DNT"},"type":"Feature"},{"geometry":{"coordinates":[10.952389999999999,60.168030000000002],"type":"Point"},"id":"setr-ut-143084","properties":{"description":"Vi anbefaler også disse ljørkoieene. Honsjøhytta på Nordåsen, Nybergskoia ved Harstadvangen og Fevikskoia i Holter Almenning. I disse ljørkoiene finner du ly mens du raster. Det er også et ildsted i koia som du fritt kan benytte. Du må selv...","elevation":379,"name":" Fevikskoia (ljørkoie)","source":"UT.no\/DNT"},"type":"Feature"},{"geometry":{"coordinates":[10.995010000000001,60.307479999999998],"type":"Point"},"id":"setr-ut-143085","properties":{"description":"Ljørkoier anbefaler også disse ljørkoiene. Honsjøhytta på Nordåsen, Nybergskoia ved Harstadvangen og Fevikskoia i Holter Almenning. I disse ljørkoiene finner du ly mens du raster. Det er også et ildsted i koia som du fritt kan benytte. Du m...","elevation":450,"name":" Honsjøhytta (ljørkoie)","source":"UT.no\/DNT"},"type":"Feature"},{"geometry":{"coordinates":[5.5119179999999997,59.800904000000003],"type":"Point"},"id":"setr-ut-143482","properties":{"description":"Hytta på Sonjas Plass i Prestegadsskogen, vart i 1991 gjeven til Stord kommune som gåve frå Lions Club Stord Fitjar. Klubben har opp gjennom åra teke på seg vedlikehald av hytta og plassen. Det har vore ein fin vårdugnad i klubben. Sist me ...","elevation":71,"name":"Prestegardskogen Dronning Sonja plass","source":"UT.no\/DNT"},"type":"Feature"},{"geometry":{"coordinates":[10.731953000000001,61.136367999999997],"type":"Point"},"id":"setr-ut-143658","properties":{"description":"Skiløypenettet i Sjusjøområdet er stort og gir mange muligheter. Vi anbefaler parkering på Sjusjøen langrennsarena (p-avgift). Ljørkoia ligger langs løypa som bla. går rundt Sjusjøvannet (i sørøst). Følg f.eks. Birkebeinerløypa østover til ...","elevation":839,"name":"Ljørkoia, Sjusjøen","source":"UT.no\/DNT"},"type":"Feature"},{"geometry":{"coordinates":[5.7936139999999998,60.950561999999998],"type":"Point"},"id":"setr-ut-143703","properties":{"description":"Ubetjent hytte med fire sengeplasser og vedovn.","elevation":860,"name":"Fjellvassbu","source":"UT.no\/DNT"},"type":"Feature"},{"geometry":{"coordinates":[11.237769,59.837707999999999],"type":"Point"},"id":"setr-ut-14370391","properties":{"description":"Postkasse med turbok står ved Bukkåskoia.","elevation":234,"name":"Bukkåskoia","source":"UT.no\/DNT"},"type":"Feature"},{"geometry":{"coordinates":[11.377592999999999,60.653277000000003],"type":"Point"},"id":"setr-ut-143907","properties":{"description":"Se hele turforslaget: https:\/\/www.ut.no\/tur\/2.22348\/","elevation":328,"name":"Bloksberg","source":"UT.no\/DNT"},"type":"Feature"},{"geometry":{"coordinates":[9.3436149999999998,63.169448000000003],"type":"Point"},"id":"setr-ut-144256","properties":{"description":"Steinhytte","elevation":754,"name":"Steinhytta","source":"UT.no\/DNT"},"type":"Feature"},{"geometry":{"coordinates":[4.8085779999999998,61.794224999999997],"type":"Point"},"id":"setr-ut-144295","properties":{"description":"Her jobbes det med bygging av en turhytte med fantastisk utsikt over hav, fugleliv og vær. Hytten er planlagt ferdig Påske 2019","elevation":257,"name":"Dosabu","source":"UT.no\/DNT"},"type":"Feature"},{"geometry":{"coordinates":[10.890981999999999,61.249682],"type":"Point"},"id":"setr-ut-144764956","properties":{"description":"Godlidalshytta er et turmål som ligger over tregrensa og er et fint utsiktspunkt.","elevation":941,"name":"Godlidalshytta","source":"UT.no\/DNT"},"type":"Feature"},{"geometry":{"coordinates":[7.6660680000000001,58.519716000000003],"type":"Point"},"id":"setr-ut-144834251","properties":{"description":"Lieløa er en gammel høyløe som er omgjort til turmål og rasteplass for turgåere. Det er Fjellestad hyttegrend som eier løa og det er en egen komité som har det daglige ansvaret for vedlikehold. Lieløa har mange sitteplasser både ute og inne...","elevation":465,"name":"Lieløa","source":"UT.no\/DNT"},"type":"Feature"},{"geometry":{"coordinates":[6.0968059999999999,59.839063000000003],"type":"Point"},"id":"setr-ut-144876559","properties":{"description":"Stad : Fjellhaugområdet Gradering av tursti hit : BLÅ - Middels tur . OMTALE Fagnabu dagsturhytte og Nautavatnet er eit fint turmål. Fagnabu vart reist i 2021 i eit samarbeid mellom Kvinnherad kommune og Kvinnherad Turlag. Stien innover frå...","elevation":681,"name":"Nautavatnet - Fagnabu dagsturhytte","source":"UT.no\/DNT"},"type":"Feature"},{"geometry":{"coordinates":[6.5351379999999999,61.221020000000003],"type":"Point"},"id":"setr-ut-144882995","properties":{"description":"Dagsturhytte ved Mastene.","elevation":372,"name":"Kløyvd","source":"UT.no\/DNT"},"type":"Feature"},{"geometry":{"coordinates":[6.4999900000000004,61.132739999999998],"type":"Point"},"id":"setr-ut-144882996","properties":{"description":"Dagsturhytte nær Kvamsøy. Hytta ligg ved pilgrimsleia, merka sti, mellom Kvamsøy og Kallestad.","elevation":63,"name":"Glipe","source":"UT.no\/DNT"},"type":"Feature"},{"geometry":{"coordinates":[11.458337,60.855407],"type":"Point"},"id":"setr-ut-144883005","properties":{"description":"Dette er ei ulåst koie i Mosjømarka.","elevation":262,"name":"Smalmyrkoia","source":"UT.no\/DNT"},"type":"Feature"},{"geometry":{"coordinates":[11.416171,60.815516000000002],"type":"Point"},"id":"setr-ut-144962076","properties":{"description":"Utenfor Hølmyrkoia er det satt opp rastebenker av HHT Løten krets i 2021. Koia eies av Løiten Almenning. Turforslag finner du her.","elevation":247,"name":"Hølmyrkoia","source":"UT.no\/DNT"},"type":"Feature"},{"geometry":{"coordinates":[9.2672749999999997,63.054313999999998],"type":"Point"},"id":"setr-ut-144962083","properties":{"elevation":361,"name":"Haraldhøtta","source":"UT.no\/DNT"},"type":"Feature"},{"geometry":{"coordinates":[11.315492000000001,60.483528999999997],"type":"Point"},"id":"setr-ut-144993733","properties":{"description":"Den nye Pilegrimsbua på Granerud ble høytidelig åpnet av statsforvalter Knut Storberget 6. juni 2021. Dette er ei servicebu for alle turgåere i distriktet . Det er Nasjonalt Pilegrimssenter og Stange Kommune som sammen med Stange Almenning ...","elevation":365,"name":"Pilegrimsbu ved Granerudsjøen","source":"UT.no\/DNT"},"type":"Feature"},{"geometry":{"coordinates":[10.847219000000001,60.004727000000003],"type":"Point"},"id":"setr-ut-145030553","properties":{"description":"Sørlandshytta ligger idyllisk ved Vennervann i Lillomarka og eies av Sørlandslaget.","elevation":395,"name":"Sørlandshytta","source":"UT.no\/DNT"},"type":"Feature"},{"geometry":{"coordinates":[7.8281260000000001,62.624721000000001],"type":"Point"},"id":"setr-ut-145042980","properties":{"elevation":1072,"name":"Hytta \"Vår\"","source":"UT.no\/DNT"},"type":"Feature"},{"geometry":{"coordinates":[10.855086999999999,60.022972000000003],"type":"Point"},"id":"setr-ut-145057938","properties":{"description":"Musebu er en gammel hytte som ligger i Sveskedalen. Hytta var tenkt som en anleggsbrakke for veiarbeidere som skulle lage vei opp mot Sinober, men veien ble aldri noe av.","elevation":384,"name":"Musebu","source":"UT.no\/DNT"},"type":"Feature"},{"geometry":{"coordinates":[11.739779,60.545763000000001],"type":"Point"},"id":"setr-ut-145265816","properties":{"elevation":435,"name":"Hofferbua","source":"UT.no\/DNT"},"type":"Feature"},{"geometry":{"coordinates":[10.494907,59.311982999999998],"type":"Point"},"id":"setr-ut-145275947","properties":{"description":"DNT utleie av kajakker. Må bestilles på nettet. Utleiebokser.","elevation":14,"name":"DNT Padling Tønsberg og Omegn","source":"UT.no\/DNT"},"type":"Feature"},{"geometry":{"coordinates":[11.359382,60.818406000000003],"type":"Point"},"id":"setr-ut-145313813","properties":{"description":"Dette er et turmål i Løten. Turforslaget finner du her .","elevation":241,"name":"Lillehovsrunden","source":"UT.no\/DNT"},"type":"Feature"},{"geometry":{"coordinates":[15.074297,66.843379999999996],"type":"Point"},"id":"setr-ut-145345070","properties":{"description":"På østsida av Bjellåvatnet, ligger denne bua - Denne bua består av et båtnaust og en liten bodel for 3-4 personer. Fin plass for en dukkert ved by\\ua eller på den store stranda rett ved.","elevation":711,"name":"SJF-bua","source":"UT.no\/DNT"},"type":"Feature"},{"geometry":{"coordinates":[10.342415000000001,63.261544999999998],"type":"Point"},"id":"setr-ut-145345902","properties":{"description":"Vassfjellhytta ligger litt nedenfor toppen av Vassfjellet, på vestsiden. Det er Melhus Trim som eier hytta, og den er åpen for servering noen helger i sesong.","elevation":505,"name":"Vassfjellhytta","source":"UT.no\/DNT"},"type":"Feature"},{"geometry":{"coordinates":[10.009734999999999,59.095748],"type":"Point"},"id":"setr-ut-145352641","properties":{"description":"Sommerfjøset, også kalt Litago, en enkel \"hytte\" som ligger i lia ovenfor gården Nedre Ono på østsiden av Farris. Farrisstien som starter ved Bøkeskogen, går forbi Sommerfjøset og det er åpent og kan fritt brukes av turfolk. Her passer det ...","elevation":57,"name":"Sommerfjøset - Litago, Nedre Ono","source":"UT.no\/DNT"},"type":"Feature"},{"geometry":{"coordinates":[11.979008,63.106287999999999],"type":"Point"},"id":"setr-ut-145403174","properties":{"description":"På Storerikvollen er det kanoutleie, og kanoene ligger i båthuset nede ved Esandsjøen. Ta kontakt med betjeningen på hytta om du ønsker å leie kano.","elevation":733,"name":"Båthus ved Storerikvollen","source":"UT.no\/DNT"},"type":"Feature"},{"geometry":{"coordinates":[5.3655660000000003,59.877540000000003],"type":"Point"},"id":"setr-ut-145410190","properties":{"description":"Dagsturhytte - Fitjar Kommune","elevation":160,"name":"Tveitaslottet","source":"UT.no\/DNT"},"type":"Feature"},{"geometry":{"coordinates":[5.3655650000000001,59.877580000000002],"type":"Point"},"id":"setr-ut-145410191","properties":{"description":"Dagsturhytte.","elevation":160,"name":"Tveitaslottet Dagsturhytte","source":"UT.no\/DNT"},"type":"Feature"},{"geometry":{"coordinates":[10.323694,61.024422999999999],"type":"Point"},"id":"setr-ut-145557455","properties":{"description":"Flott åpen tømmerbu i svært barnevennlig turområde. Tilkomst fra Dempesætra 1,9 km, slakt oppover fra P-plass til man kommer oppe på myra, deretter er det flatt inn til hytta. Turen kan gjøres som en runde ved å ta turen innom Kalverudsætra...","elevation":745,"name":"Gråsteinsbua","source":"UT.no\/DNT"},"type":"Feature"},{"geometry":{"coordinates":[11.152704,60.658279999999998],"type":"Point"},"id":"setr-ut-145658631","properties":{"description":"Dagsturhytta i Stange ligger flott plassert på Pløya i Sollimarka med utsyn utover Mjøsa. Her kan du søke ly, ta en pause, spise matpakka di og få litt varme i deg. Senk skuldrene og nyt naturen. Du kan tilbringe hele dagen her om du vil, m...","elevation":270,"name":"Dagsturhytta i Stange kommune","source":"UT.no\/DNT"},"type":"Feature"},{"geometry":{"coordinates":[6.1593049999999998,59.93139],"type":"Point"},"id":"setr-ut-145660035","properties":{"description":"Blådalshytta vart offisielt opna i 2016 og vart etablert som eit samarbeidsprosjekt administrert av Interesselaget for Vardhaugselet . Hytta ligg ved Grøneviksvatnet (på kartet står det Svartavatnet). Det går sti dit frå Blåfalli IV ved end...","elevation":793,"name":"Blådalshytta","source":"UT.no\/DNT"},"type":"Feature"},{"geometry":{"coordinates":[12.264108,61.323875999999998],"type":"Point"},"id":"setr-ut-146154974","properties":{"description":"Dagsturhytta ligger på en liten kolle som heter Grimstad rett innunder Grimsåsen. Her er det en bålplass utenfor som kan benyttes. Man må ha med egen ved. Dagsturhytta står alltid åpen. Inne er en liten vedovn og solscelle-lys. Her kan du s...","elevation":410,"name":"Dagsturhytta Grimsåsen","source":"UT.no\/DNT"},"type":"Feature"},{"geometry":{"coordinates":[5.4717330000000004,61.598253],"type":"Point"},"id":"setr-ut-146285668","properties":{"description":"21. juni 2023 hadde Eikefjord Idrettslag offisiell opning av Kvilehytta . Den ligg omkring midt mellom Eikefjordstøylen og Hovlandsstølane og er open til bruk for allmenta. Skiltet OPEN HYTTE viser veg til hytta som ligg på 419 moh. Plassen...","elevation":419,"name":"Kvilehytta mellom Eikefjordstøylen og Hovlandsstølane","source":"UT.no\/DNT"},"type":"Feature"},{"geometry":{"coordinates":[9.1181260000000002,59.702724000000003],"type":"Point"},"id":"setr-ut-146374867","properties":{"elevation":357,"name":"Ei gammal stule på Kåsa","source":"UT.no\/DNT"},"type":"Feature"},{"geometry":{"coordinates":[7.8180019999999999,62.307884000000001],"type":"Point"},"id":"setr-ut-146415637","properties":{"description":"Lita hytte somm hører til Grytten fjellstyre. Brukes av sauegjetere på sommeren.","elevation":1114,"name":"Jervebua","source":"UT.no\/DNT"},"type":"Feature"},{"geometry":{"coordinates":[7.4051739999999997,62.319245000000002],"type":"Point"},"id":"setr-ut-146517816","properties":{"description":"Heggesetra","elevation":581,"name":"Heggesetra","source":"UT.no\/DNT"},"type":"Feature"},{"geometry":{"coordinates":[6.5645759999999997,62.016725000000001],"type":"Point"},"id":"setr-ut-146517828","properties":{"description":"Bruasetra","elevation":408,"name":"Bruasetra","source":"UT.no\/DNT"},"type":"Feature"},{"geometry":{"coordinates":[6.5616839999999996,62.020085000000002],"type":"Point"},"id":"setr-ut-146517829","properties":{"description":"Storesetra","elevation":448,"name":"Storesetra","source":"UT.no\/DNT"},"type":"Feature"},{"geometry":{"coordinates":[6.5798100000000002,62.017426],"type":"Point"},"id":"setr-ut-146517830","properties":{"description":"Hjortedalsetra","elevation":468,"name":"Hjortedalsetra","source":"UT.no\/DNT"},"type":"Feature"},{"geometry":{"coordinates":[6.7184140000000001,61.978861999999999],"type":"Point"},"id":"setr-ut-146517831","properties":{"description":"Strynesetra","elevation":566,"name":"Strynesetra","source":"UT.no\/DNT"},"type":"Feature"},{"geometry":{"coordinates":[6.4462809999999999,62.081626],"type":"Point"},"id":"setr-ut-146517846","properties":{"description":"Skjåstadsetra","elevation":336,"name":"Skjåstadsetra","source":"UT.no\/DNT"},"type":"Feature"},{"geometry":{"coordinates":[6.4431079999999996,62.082386999999997],"type":"Point"},"id":"setr-ut-146517847","properties":{"description":"Saurssetra","elevation":353,"name":"Saurssetra","source":"UT.no\/DNT"},"type":"Feature"},{"geometry":{"coordinates":[6.446771,62.084964999999997],"type":"Point"},"id":"setr-ut-146517848","properties":{"description":"Bjørkesetra","elevation":356,"name":"Bjørkesetra","source":"UT.no\/DNT"},"type":"Feature"},{"geometry":{"coordinates":[11.341735,60.992708],"type":"Point"},"id":"setr-ut-146527940","properties":{"description":"Guttelaget Mjølner eier og drifter Ingerstua. Hytta ligger i naturskjønne omgivelser rett øst for speiderhytta Borgen ved grensen mellom Løten og Elverum. Hytta har sengeplass til ca 11 personer (3 familiekøyer med 3 plasser og 2 plasser på...","elevation":752,"name":"Ingerstua","source":"UT.no\/DNT"},"type":"Feature"},{"geometry":{"coordinates":[7.3482890000000003,62.304259999999999],"type":"Point"},"id":"setr-ut-146527942","properties":{"description":"Nyt utsikten til fjorden fra Nysætra. Her er det satt ut flere benker. Beitedyr i sesong.","elevation":761,"name":"Nysætra","source":"UT.no\/DNT"},"type":"Feature"},{"geometry":{"coordinates":[11.340218999999999,60.992766000000003],"type":"Point"},"id":"setr-ut-146527943","properties":{"description":"Speiderhytta Borgen eies og driftes av Guttelaget Mjølner og ligger i naturskjønne omgivelser på grensen mellom Løten og Elverum. Hytta har sengeplass til ca 40 personer. For mer informasjon om hytta og avtale om leie av Borgen trykk deg in...","elevation":767,"name":"Borgen","source":"UT.no\/DNT"},"type":"Feature"},{"geometry":{"coordinates":[10.391816,59.872135999999998],"type":"Point"},"id":"setr-ut-146623822","properties":{"description":"Tveitersetra har historie som seter og boplass helt tilbake til 1750 tallet. Frem til 1953 var det fast bosetting på setra. Turmålet er en del av Topp er Toppers i Asker .","elevation":346,"name":"Tveitersetra","source":"UT.no\/DNT"},"type":"Feature"},{"geometry":{"coordinates":[11.321115000000001,60.742320999999997],"type":"Point"},"id":"setr-ut-146639226","properties":{"description":"Turforslaget finner du her: Busvolkoia i Romedal","elevation":278,"name":"Busvolkoia","source":"UT.no\/DNT"},"type":"Feature"},{"geometry":{"coordinates":[11.367743000000001,60.548141999999999],"type":"Point"},"id":"setr-ut-146639230","properties":{"description":"Turforslaget finner du her: Navarhaugkoia i Stange allmenning På Romedal Almenning og Stange Almennings eiendommer er det flere koier som står åpne for allmenn benyttelse. Navarhaugen, eller Navarhaugkoia ble bygd høsten 1936. Det er den si...","elevation":481,"name":"Navarhaugkoia","source":"UT.no\/DNT"},"type":"Feature"},{"geometry":{"coordinates":[11.478929000000001,60.707265999999997],"type":"Point"},"id":"setr-ut-146639231","properties":{"description":"Turforslaget finner du her: Storholtkoia i Romedal allmenning Storholtkoia er ei tømmerkoie fra før 1936. 4 brisker gjør det mulig å overnatte. Bord og intakt ovn er på plass. RASA ønsker deg og dine venner velkommen til å benytte dere av d...","elevation":325,"name":"Storholtkoia","source":"UT.no\/DNT"},"type":"Feature"},{"geometry":{"coordinates":[8.9349279999999993,59.578237000000001],"type":"Point"},"id":"setr-ut-146661093","properties":{"description":"Ett par hundre meter etter stolpe D28 finner du plassen Listulen.","elevation":357,"name":"Listulen","source":"UT.no\/DNT"},"type":"Feature"},{"geometry":{"coordinates":[6.6801240000000002,58.215274000000001],"type":"Point"},"id":"setr-ut-146687994","properties":{"description":"Kystledhytte oppført i 2023. Adkomst sjøveien til offentlig brygge rett ved eller på sti fra tettbebyggelsen på Andabeløy. Stien er skilta og merka fra fotballbanen på øya, den ligger helt sørøst for tettbebyggelsen. Det går båt til Andabel...","elevation":5,"name":"Tarmevika kystledhytte","source":"UT.no\/DNT"},"type":"Feature"},{"geometry":{"coordinates":[6.7869210000000004,58.249423],"type":"Point"},"id":"setr-ut-146687995","properties":{"description":"Kystledhytter i Haugelandstrand. Haugelandstrand ligger lunt til i en liten vik på vestsiden av Fedafjorden i Kvinesdal. Dette er antakelig en av de tidligste boplasser i distriktet hvor det har blitt gjort funn fra eldre steinalder. Haugel...","elevation":6,"name":"Haugelandstrand","source":"UT.no\/DNT"},"type":"Feature"},{"geometry":{"coordinates":[11.408728,60.536496999999997],"type":"Point"},"id":"setr-ut-146740170","properties":{"description":"På Romedal Almenning og Stange Almennings eiendommer er det flere koier som står åpne for allmenn benyttelse. Dagfinrudkoia er en gammel tømmerkoie med mange minner i sine vegger. Koia har intakt ovn som du kan fyre på, samtidig er det 2 br...","elevation":380,"name":"Dagfinrudkoia","source":"UT.no\/DNT"},"type":"Feature"},{"geometry":{"coordinates":[11.318785,60.462485000000001],"type":"Point"},"id":"setr-ut-146740171","properties":{"description":"På Romedal Almenning og Stange Almennings eiendommer er det flere koier som står åpne for allmenn benyttelse. Digeraukoia er ei gammel tømmerkoie, hvor byggeår er ukjent. Koia har bare brisker, men det er mulig for 3-4 personer å ligge ei n...","elevation":417,"name":"Digeraugkoia","source":"UT.no\/DNT"},"type":"Feature"},{"geometry":{"coordinates":[11.293525000000001,60.556263999999999],"type":"Point"},"id":"setr-ut-146740172","properties":{"description":"På Romedal Almenning og Stange Almennings eiendommer er det flere koier som står åpne for allmenn benyttelse. Josefkoia er ei gammel koie med særegen byggeskikk. Dette er Stange Almennings eneste \"luskoie”. Navnet stammer fra den spesielle ...","elevation":421,"name":"Josefkoia","source":"UT.no\/DNT"},"type":"Feature"},{"geometry":{"coordinates":[11.332561999999999,60.518692000000001],"type":"Point"},"id":"setr-ut-146740175","properties":{"description":"På Romedal Almenning og Stange Almennings eiendommer er det flere koier som står åpne for allmenn benyttelse. Knappkoia er ei tømmerkoie fra begynnelsen av 1900-tallet. Koia ligger så å si midt i Stange Almenning. Du må beregne å gå om lag ...","elevation":506,"name":"Knappkoia","source":"UT.no\/DNT"},"type":"Feature"},{"geometry":{"coordinates":[11.439330999999999,60.511674999999997],"type":"Point"},"id":"setr-ut-146740176","properties":{"description":"På Romedal Almenning og Stange Almennings eiendommer er det flere koier som står åpne for allmenn benyttelse. Dette er antakelig Stange Almennings eldste koie. Koia ble restaurert i 2017. Den har beholdt sitt opprinnelige preg tross utskift...","elevation":423,"name":"Gamle Kjølkoia","source":"UT.no\/DNT"},"type":"Feature"},{"geometry":{"coordinates":[11.528124,60.659609000000003],"type":"Point"},"id":"setr-ut-146740177","properties":{"description":"På Romedal Almenning og Stange Almennings eiendommer er det flere koier som står åpne for allmenn benyttelse. Denne tømmerkoia er gammel, kartoteket vårt sier at den er bygd i 1920. Koia har brisker slik at det er mulig for 4 personer å lig...","elevation":498,"name":"Bingmyrkoia","source":"UT.no\/DNT"},"type":"Feature"},{"geometry":{"coordinates":[7.935079,60.833477000000002],"type":"Point"},"id":"setr-ut-146740187","properties":{"description":"Bu, fin rasteplass","elevation":1285,"name":"Klevahytta","source":"UT.no\/DNT"},"type":"Feature"},{"geometry":{"coordinates":[11.491077000000001,60.65748],"type":"Point"},"id":"setr-ut-146740196","properties":{"description":"På Romedal Almenning og Stange Almennings eiendommer er det flere koier som står åpne for allmenn benyttelse. Dette er den eneste ljørkoia som er igjen i Romedal Almenning. Koia er gammel. Koia egner seg kun for korte raster. Det er kun bri...","elevation":437,"name":"Holmtjernsbekken ljørkoie","source":"UT.no\/DNT"},"type":"Feature"},{"geometry":{"coordinates":[11.5937,60.584603000000001],"type":"Point"},"id":"setr-ut-146740198","properties":{"description":"På Romedal Almenning og Stange Almennings eiendommer er det flere koier som står åpne for allmenn benyttelse. Kjølkoia er ei tømmerkoie i Romedal allmenning som ble oppført 1942. Koia ligger inne i barskogreservatet på Årkjølen. Du må bereg...","elevation":564,"name":"Kjølkoia","source":"UT.no\/DNT"},"type":"Feature"},{"geometry":{"coordinates":[11.4993,60.632399999999997],"type":"Point"},"id":"setr-ut-146740199","properties":{"description":"På Romedal Almenning og Stange Almennings eiendommer er det flere koier som står åpne for allmenn benyttelse. Dette er en av de eldste koiene som er igjen i Romedal Almenning, oppført 1923. Koia har brisker. Bord og intakt ovn er på plass. ...","elevation":498,"name":"Kvitbergskoia","source":"UT.no\/DNT"},"type":"Feature"},{"geometry":{"coordinates":[11.541728000000001,60.617437000000002],"type":"Point"},"id":"setr-ut-146740200","properties":{"description":"På Romedal Almenning og Stange Almennings eiendommer er det flere koier som står åpne for allmenn benyttelse. Dette er Romedal Almennings eneste intakte tårnkoie oppført i rundtømmer gran. Modellen er dels fra ei gammel koie som sto i nærhe...","elevation":490,"name":"Målåvasskoia i Romedal","source":"UT.no\/DNT"},"type":"Feature"},{"geometry":{"coordinates":[11.427421000000001,60.576557999999999],"type":"Point"},"id":"setr-ut-146740201","properties":{"description":"På Romedal Almenning og Stange Almennings eiendommer er det flere koier som står åpne for allmenn benyttelse. Denne tømmerkoia ble oppført i 1945. Koia har 4 senger, bord og intakt ovn er på plass. Vi ønsker deg og dine venner velkommen til...","elevation":443,"name":"Puttsæterkoia","source":"UT.no\/DNT"},"type":"Feature"},{"geometry":{"coordinates":[11.529180999999999,60.644686999999998],"type":"Point"},"id":"setr-ut-146740203","properties":{"description":"På Romedal Almenning og Stange Almennings eiendommer er det flere koier som står åpne for allmenn benyttelse. Kvilebu oppført i lemsystem. Byggeår 1938. Bua er ei ren kvilebu med to benker, bord og ovn. Egner seg ikke for overnatting.","elevation":497,"name":"Raubua","source":"UT.no\/DNT"},"type":"Feature"},{"geometry":{"coordinates":[11.594659999999999,60.622500000000002],"type":"Point"},"id":"setr-ut-146740205","properties":{"description":"På Romedal Almenning og Stange Almennings eiendommer er det flere koier som står åpne for allmenn benyttelse. Dette er ei tømmerkoie på Romedal allmenning. Byggeår ukjent, men dette er en av Romedal allmennings aller eldste bevarte koier. K...","elevation":565,"name":"Sekserholskoia","source":"UT.no\/DNT"},"type":"Feature"},{"geometry":{"coordinates":[11.460025999999999,60.555543],"type":"Point"},"id":"setr-ut-146740206","properties":{"description":"På Romedal Almenning og Stange Almennings eiendommer er det flere koier som står åpne for allmenn benyttelse. Tømmerkoie oppført i 1942. Jakt- og fiskemuligheter. Koia har 4 senger, og dermed husly for \"ferdafolk\". Bord og intakt ovn er på ...","elevation":376,"name":"Sørensbua","source":"UT.no\/DNT"},"type":"Feature"},{"geometry":{"coordinates":[11.541536000000001,60.644539000000002],"type":"Point"},"id":"setr-ut-146740207","properties":{"description":"På Romedal Almenning og Stange Almennings eiendommer er det flere koier som står åpne for allmenn benyttelse. Sverkjedammen er ei gammel tømmerkoie på Romedal allmenning som ble gjenåpnet etter omfattende restaurering i 2014. Stange kommune...","elevation":501,"name":"Sverkjedammen","source":"UT.no\/DNT"},"type":"Feature"},{"geometry":{"coordinates":[11.577332,60.650112999999997],"type":"Point"},"id":"setr-ut-146740208","properties":{"description":"På Romedal Almenning og Stange Almennings eiendommer er det flere koier som står åpne for allmenn benyttelse. Dette er ei gammel tømmerkoie oppført allerede i 1928. Koia har brisker slik at det er mulig for 4 personer å ligge her. Bord og i...","elevation":548,"name":"Veltgransjøkoia","source":"UT.no\/DNT"},"type":"Feature"},{"geometry":{"coordinates":[6.7811870000000001,61.665129999999998],"type":"Point"},"id":"setr-ut-146887884","properties":{"description":"Flott bu laga med stein som står ved stien som går gjennom Oldeskaret. Flott utsikt til fjella rundt stien i Oldeskaret. Les om turen her.","elevation":1083,"name":"Jarbu","source":"UT.no\/DNT"},"type":"Feature"},{"geometry":{"coordinates":[6.439044,61.237895000000002],"type":"Point"},"id":"setr-ut-146888506","properties":{"description":"\"Dagbu\" er bygd ved Gulleplenipa som er ein flott fjelltopp i enden av ein lang og bratt motbakke på 1100 høgdemeter frå Esebotn. Frå toppen har ein spektakulær utsikt, spesielt utover Esefjorden og innover Sognefjorden. Sikringsbua er plas...","elevation":1081,"name":"Dagbu, sikrings-\/nødbu på Gulleplet","source":"UT.no\/DNT"},"type":"Feature"},{"geometry":{"coordinates":[6.0950290000000003,61.056451000000003],"type":"Point"},"id":"setr-ut-146888647","properties":{"description":"Fjellhytta ligg ca. 1000 moh og har i årtider fungert som ei nødbu på stølsvegen frå Ortnevik til Solrenningane.","elevation":1054,"name":"Fjellhytta på stølsvegen frå Ortnevik til fjellstølen Solrenningane","source":"UT.no\/DNT"},"type":"Feature"},{"geometry":{"coordinates":[9.1958219999999997,58.978321000000001],"type":"Point"},"id":"setr-ut-146888709","properties":{"description":"Dette turmålet ligger der turforslagene til Dyvikheia og Svanroskøllen starter. Den ligger langs Banen som er en Sykkel og gangveien mellom Neslandsvatn og Merkebekk.","elevation":72,"name":"Heldøla","source":"UT.no\/DNT"},"type":"Feature"},{"geometry":{"coordinates":[11.357754,60.662756000000002],"type":"Point"},"id":"setr-ut-146888830","properties":{"description":"Dette er ei gammel stenbu i Vallset. Turforslaget finner du her.","elevation":271,"name":"Stenbua i Vallset","source":"UT.no\/DNT"},"type":"Feature"},{"geometry":{"coordinates":[11.322049,60.616042],"type":"Point"},"id":"setr-ut-146888838","properties":{"description":"Flott, gammel tømmersmie. Turforslaget finner du her.","elevation":207,"name":"Bakstadsmia","source":"UT.no\/DNT"},"type":"Feature"},{"geometry":{"coordinates":[9.3194610000000004,59.55086],"type":"Point"},"id":"setr-ut-146889022","properties":{"description":"Kveldro er en liten husmannsplass omtrent midt i mellom Eikeskar og Lauvåsknølen.","elevation":405,"name":"Kveldro","source":"UT.no\/DNT"},"type":"Feature"},{"geometry":{"coordinates":[9.4060520000000007,62.700291],"type":"Point"},"id":"setr-ut-146889047","properties":{"description":"Båtnaustet til Gjevilvasshytta ikke langt fra Raudøra, en fin badeplass med nydelig sandstrand, perfekt for hele familien.","elevation":661,"name":"TT sitt båtnaust, Gjevilvasshytta","source":"UT.no\/DNT"},"type":"Feature"},{"geometry":{"coordinates":[12.092204000000001,62.976453999999997],"type":"Point"},"id":"setr-ut-146889048","properties":{"description":"Båtnaustet til Nedalshytta. Her finner du kanoer, fiskestenger, flytevester og andre aktiviteter som kan leies fra hytta.","elevation":733,"name":"Båtnaustet Nedalshytta","source":"UT.no\/DNT"},"type":"Feature"},{"geometry":{"coordinates":[11.494835,60.532282000000002],"type":"Point"},"id":"setr-ut-146889118","properties":{"description":"Fra 1922 ble det satt opp lembuer på almenningen. De fikk navnet patentbuer og ble laget på Tannes som var Westye Egebergs gård i Knapper i Nord-Odal. Disse ble kjørt ut med hest fra Knapper og plassert rundt om der det var behov. De besto ...","elevation":258,"name":"Gaukoskoia","source":"UT.no\/DNT"},"type":"Feature"},{"geometry":{"coordinates":[11.401680000000001,60.672899000000001],"type":"Point"},"id":"setr-ut-146889134","properties":{"description":"Nyrestaurert, åpen koie i Romedal allmenning. Koia følges opp av Vallset kulturstier. Her er det bord og benker, vedbod og utedo. Østover har du utsikt utover Romedal allmenning, mens det er mulig å skimte Harasjøen i sør.","elevation":380,"name":"Starbergskoia","source":"UT.no\/DNT"},"type":"Feature"},{"geometry":{"coordinates":[12.600474999999999,65.966944999999996],"type":"Point"},"id":"setr-ut-146889171","properties":{"description":"Nødly i nærheten av stien fra Breimo til Botnkrona. Bua er temmelig tilårskommen og ikke egnet til overnatting, med mindre man er i en nødssituasjon, da det er svært muggen luft innendørs.","elevation":396,"name":"Svarga","source":"UT.no\/DNT"},"type":"Feature"},{"geometry":{"coordinates":[6.6772520000000002,60.327078],"type":"Point"},"id":"setr-ut-146889491","properties":{"description":"Hovdakruno ligg på Hovden, eit utspring 470 meter oppe i lia, ein liten avstikkar frå stien opp på Hardangervidda.","elevation":457,"name":"Hovdakruno dagsturhytte","source":"UT.no\/DNT"},"type":"Feature"},{"geometry":{"coordinates":[6.5594919999999997,60.067731000000002],"type":"Point"},"id":"setr-ut-146889545","properties":{"description":"Ragdebu dagsturhytte ligger i Ullensvang kommune, i skogen over bustedsfeltet Ragde i Odda med utsyn mot by og fjord.","elevation":197,"name":"Ragdebu dagsturhytte","source":"UT.no\/DNT"},"type":"Feature"},{"geometry":{"coordinates":[6.2710850000000002,60.280273000000001],"type":"Point"},"id":"setr-ut-146889548","properties":{"description":"Teglbu dagsturhytte ligger i Ullensvang kommune, og er lokalisert på høydedraget Teglhaug øst for Jondal sentrum i retning Krossdalen.","elevation":154,"name":"Teglbu dagsturhytte","source":"UT.no\/DNT"},"type":"Feature"},{"geometry":{"coordinates":[5.7209539999999999,60.557223],"type":"Point"},"id":"setr-ut-146889549","properties":{"description":"Fjordsyn dagsturhytte ligger i Vaksdal Kommune på Tettaneset ved fyrlykten på Stanghelle. Nydelig utsikt både til Osterøy, Veafjorden og Sørefjorden. Her kan du komme både til fots og sjøveien.","elevation":20,"name":"Fjordsyn dagsturhytte i Vaksdal","source":"UT.no\/DNT"},"type":"Feature"},{"geometry":{"coordinates":[9.5096659999999993,62.863664],"type":"Point"},"id":"setr-ut-146889627","properties":{"description":"TT har et båtnaust ved Jølvatnet rett nedenfor hytta hvor vi oppbevarer kanoer og robår som det er mulig å leie mens hytta er betjent.","elevation":711,"name":"TT sitt båtnaust, Jøldalshytta","source":"UT.no\/DNT"},"type":"Feature"},{"geometry":{"coordinates":[9.5697729999999996,61.49006],"type":"Point"},"id":"setr-ut-146889663","properties":{"description":"Turbeskrivelse Turen til Kong Haakon den 7. hytte, også kjent som Lomdalshytta, er en vakker tur som passer for deg som ønsker en hyggelig dagstur. Ruta går gjennom variert skogsterreng med jevn stigning og er godt merket hele veien. Turen ...","elevation":1169,"name":"Kong Haakon den 7. hytte","source":"UT.no\/DNT"},"type":"Feature"},{"geometry":{"coordinates":[7.7567409999999999,63.039340000000003],"type":"Point"},"id":"setr-ut-146889937","properties":{"description":"Kraftlagshytta ble bygd på tidlig 1950- tallet av det som den gang het Nordmøre Interkommunale Kraftlag. Den ble deretter driftet av Kristiansund E-verk og nå er det Mellom AS som eier hytten. Hytta ligger midt i et vakkert turområde i Flat...","elevation":274,"name":"Kraftlagshytta","source":"UT.no\/DNT"},"type":"Feature"},{"geometry":{"coordinates":[10.30888,61.380634000000001],"type":"Point"},"id":"setr-ut-146890001","properties":{"description":"Tikkerud og Valhall Tikkerud («Veslkåken») ble brukt som skjulested for hjemmefronten våren 1945. Kåken var bygd av lekter og firkanter som ble saga på Eingjésagen. Materialene ble transportert til Rolldalen en kveld like før jul i 1944. og...","elevation":671,"name":"Tikkerud","source":"UT.no\/DNT"},"type":"Feature"},{"geometry":{"coordinates":[9.5235509999999994,59.001044999999998],"type":"Point"},"id":"setr-ut-146890551","properties":{"description":"Dette turmålet ligger langs turforslaget til Stormyrstua og Rundtur til Hørsfjell. Se vedlagte link for turbeskrivelse","elevation":183,"name":"Stormyrstua","source":"UT.no\/DNT"},"type":"Feature"},{"geometry":{"coordinates":[9.7230810000000005,59.748654000000002],"type":"Point"},"id":"setr-ut-146890811","properties":{"description":"Fra Kjennerudvannet rett nordover mot Kolbergsetra. Derfra følgaer man vei, så sti rett vestover til Svendsplassen. Nordvest for Skarragruvene. Sørvest for Kolbergsetra. Sti fra Kolbergsetra. Sti til Kolbergsetra fra Lurdalen. Bomvei fra Or...","elevation":331,"name":"Svendsplassen","source":"UT.no\/DNT"},"type":"Feature"}],"generator":"Trakke fetch_utno_poi.swift","timestamp":"2026-08-10T00:27:31Z","type":"FeatureCollection"}