{"attribution":"UT.no\/DNT","features":[{"geometry":{"coordinates":[10.476837,61.237389999999998],"type":"Point"},"id":"skilift-ut-14138291","properties":{"description":"Toppen av gondolen i Hafjell","elevation":605,"name":"Gondoltoppen","source":"UT.no\/DNT"},"type":"Feature"},{"geometry":{"coordinates":[10.491213999999999,61.243729000000002],"type":"Point"},"id":"skilift-ut-14138292","properties":{"description":"Ta løype 16 ned fra gondolen till stolheis 2","elevation":780,"name":"Stolheis 2 påstigning","source":"UT.no\/DNT"},"type":"Feature"},{"geometry":{"coordinates":[8.4285239999999995,60.385221999999999],"type":"Point"},"id":"skilift-ut-144775071","properties":{"description":"SKISENTER Dagali Fjellpark er et hyggelig alpinsenter for hele familien. Det har 5 nedfarter og et skitrekk. Lengste løype er 1,6 km lang. Skiutstyr kan leies i vår velutstyrte skiutleie. Vi tilbyr også skikurs og skiskole. Barn på Dagali F...","elevation":1114,"name":"Skisenter Dagali Fjellpark","source":"UT.no\/DNT"},"type":"Feature"},{"geometry":{"coordinates":[7.6479489999999997,62.597053000000002],"type":"Point"},"id":"skilift-ut-145042976","properties":{"elevation":318,"name":"Rauma Skisenter","source":"UT.no\/DNT"},"type":"Feature"},{"geometry":{"coordinates":[10.401971,63.265512000000001],"type":"Point"},"id":"skilift-ut-145284580","properties":{"description":"Vassfjellet Vinterpark er et av alpinanleggene i Trondheims nærområde. Deres nettside: vassfjelletvinterpark.no","elevation":197,"name":"Vassfjellet Vinterpark","source":"UT.no\/DNT"},"type":"Feature"},{"geometry":{"coordinates":[10.442034,63.401975999999998],"type":"Point"},"id":"skilift-ut-145289026","properties":{"description":"Steinan skitrekk driftes av Othilienborg IL og frivillige i nærområdet og er åpent i helgene og ettermiddag\/kveld i hverdagen.","elevation":112,"name":"Skitrekket ved Steinan","source":"UT.no\/DNT"},"type":"Feature"},{"geometry":{"coordinates":[10.085431,61.338650999999999],"type":"Point"},"id":"skilift-ut-145693527","properties":{"description":"Skeikampen er for alle, hele året! Her er det aktiviteter for store og små, mosjonister og konkurransejegere, enten du vil være i fred og ro eller sammen med andre.","elevation":785,"name":"Skeikampen","source":"UT.no\/DNT"},"type":"Feature"},{"geometry":{"coordinates":[10.110359000000001,61.44997],"type":"Point"},"id":"skilift-ut-146657238","properties":{"description":"Snøsikre Kvitfjell Alpinanlegg er skientusiastenes førstevalg. Kvitfjell ligger i Fåvang, Ringebu kommune i Innlandet fylke. Lokalisert kun 40 minutter nord for Lillehammer, med løyper i hele spekteret fra barneområder til svarte løyper med...","elevation":695,"name":"Kvitfjell Alpinanlegg","source":"UT.no\/DNT"},"type":"Feature"},{"geometry":{"coordinates":[6.0907530000000003,61.482187000000003],"type":"Point"},"id":"skilift-ut-146887851","properties":{"description":"Jølster Skisenter er regionsanlegg i Sunnfjord. Skisenteret har tre skiheisar og to varmestover. Skisenteret har flott utsikt over Jølstravatnet. Trekktraseane er mykje brukt som trimløyper i sommarhalvåret. Sjå lenke for meir informasjon o...","elevation":241,"name":"Jølster Skisenter","source":"UT.no\/DNT"},"type":"Feature"},{"geometry":{"coordinates":[6.0935030000000001,61.482675],"type":"Point"},"id":"skilift-ut-146887995","properties":{"description":"Jølster Løypelag har lagar flotte skiløyper for langrenn om vinteren. Løypenettet strekk seg frå Jølster Skisenter og Vassenden skule og opp i Gjesdalsdalen. Mogeleg å starte skituren frå både Vassenden skule, Jølster Skisenter og parkering...","elevation":241,"name":"Jølster Løypelag (langrennsløype)","source":"UT.no\/DNT"},"type":"Feature"}],"generator":"Trakke fetch_utno_poi.swift","timestamp":"2026-08-10T00:27:31Z","type":"FeatureCollection"}