{"attribution":"UT.no\/DNT","features":[{"geometry":{"coordinates":[5.2711030000000001,60.254942],"type":"Point"},"id":"sledding-ut-141372","properties":{"description":"Populær akebakke","elevation":24,"name":"Akebakken Milde","source":"UT.no\/DNT"},"type":"Feature"},{"geometry":{"coordinates":[11.734343000000001,65.092298],"type":"Point"},"id":"sledding-ut-141580","properties":{"description":"En av Norges største gravhauger. Sagnet sier at Kong Herlaug gikk i haug i stedet for å underkaste seg Harald Hårfagre.","elevation":9,"name":"Herlaugshaugen","source":"UT.no\/DNT"},"type":"Feature"},{"geometry":{"coordinates":[11.733784999999999,65.092140999999998],"type":"Point"},"id":"sledding-ut-141715","properties":{"description":"Herlaugshaugen er et av landets største monumenter fra vikingtid. Undersøkelser tyder på at haugen har inneholdt et vikingskip av anselig dimensjoner. Sagaen knytter gravhaugen til kong Herlaug, småkongen som i forbindelse med rikssamlingen...","elevation":10,"name":"Herlaugshaugen","source":"UT.no\/DNT"},"type":"Feature"},{"geometry":{"coordinates":[7.9951290000000004,60.670349999999999],"type":"Point"},"id":"sledding-ut-141755","properties":{"description":"Myrland skileikområde","elevation":879,"name":"Myrland","source":"UT.no\/DNT"},"type":"Feature"},{"geometry":{"coordinates":[11.434374999999999,60.445763999999997],"type":"Point"},"id":"sledding-ut-142323","properties":{"description":"Fritt plassert med utsikt over Langstråmyra mot toppen av ski- og akebakken til Bruvoll Vel er det fint å ta en rast. Det er bålplass her, og på fine vinterdager er det et yrende liv av både små og store, så se nedafor om flere bålplasser. ...","elevation":258,"name":"Gapahuk Langstråmyra","source":"UT.no\/DNT"},"type":"Feature"},{"geometry":{"coordinates":[17.398267000000001,68.441387000000006],"type":"Point"},"id":"sledding-ut-143152","properties":{"description":"Grillsted ved Jaklamyra","elevation":70,"name":"Jaklamyra","source":"UT.no\/DNT"},"type":"Feature"},{"geometry":{"coordinates":[8.4255899999999997,60.391019],"type":"Point"},"id":"sledding-ut-144773047","properties":{"description":"AKEBAKKE i DAGALI på 1850 m På Dagali Fjellpark finner du Norges lengste preparerte akebakke med skitrekk og kjelkeutleie . Kjelken kan komme opp i hastighet 70 km i timen ! Løypa er 1,8 km lang. Aldersgrensen for aking er fra 10 år, når fo...","elevation":976,"name":"Action akebakke ved Geilo","source":"UT.no\/DNT"},"type":"Feature"},{"geometry":{"coordinates":[10.351817,59.253231],"type":"Point"},"id":"sledding-ut-144988492","properties":{"elevation":45,"name":"Akebakke Vear","source":"UT.no\/DNT"},"type":"Feature"},{"geometry":{"coordinates":[11.473165,60.132434000000003],"type":"Point"},"id":"sledding-ut-145283505","properties":{"description":"Høieparken har sandvolleyball bane, discgolf, Tuftepark, gapahuk, bålplasser og fri natur.Det er flere benker og bord på området. Om vinteren er det en fin akebakke her.","elevation":126,"name":"Høieparken","source":"UT.no\/DNT"},"type":"Feature"},{"geometry":{"coordinates":[10.39188,63.353254999999997],"type":"Point"},"id":"sledding-ut-145284583","properties":{"description":"Populær akebakke på Tiller i Trondheim","elevation":133,"name":"Akebakken på Tiller","source":"UT.no\/DNT"},"type":"Feature"},{"geometry":{"coordinates":[10.435708999999999,63.446829999999999],"type":"Point"},"id":"sledding-ut-145289020","properties":{"description":"Flott akebakke ved Lade skole.","elevation":32,"name":"Akebakken ved Lade skole","source":"UT.no\/DNT"},"type":"Feature"},{"geometry":{"coordinates":[10.432297999999999,63.394416],"type":"Point"},"id":"sledding-ut-145289021","properties":{"description":"Flott akebakken og grønn lunge ved Risvollan.","elevation":109,"name":"Akebakken på Risvollan","source":"UT.no\/DNT"},"type":"Feature"},{"geometry":{"coordinates":[10.437212000000001,63.387529000000001],"type":"Point"},"id":"sledding-ut-145289022","properties":{"description":"Fin akebakke på Utleira i Trondheim.","elevation":123,"name":"Akebakken på Utleira","source":"UT.no\/DNT"},"type":"Feature"},{"geometry":{"coordinates":[10.524998,63.416910000000001],"type":"Point"},"id":"sledding-ut-145289023","properties":{"description":"Området har blant annet lekeplass, akebakke, skøytebane og skotthyllbane. Fra området går det også tursti opp i nærmarka.","elevation":62,"name":"Aktivitetsområde Olderdalen","source":"UT.no\/DNT"},"type":"Feature"},{"geometry":{"coordinates":[6.7681940000000003,62.335067000000002],"type":"Point"},"id":"sledding-ut-145292690","properties":{"description":"Akebakke sør for parkeringsplassen","elevation":342,"name":"Fjellsætra, Sykkylven","source":"UT.no\/DNT"},"type":"Feature"},{"geometry":{"coordinates":[7.9599029999999997,63.331046000000001],"type":"Point"},"id":"sledding-ut-146890224","properties":{"description":"Tidevannstrøm som må passeres på riktig tidspunkt. Når havnivået er mellom 0 -130 cm renner strømmen østover. Da får du strømmen med deg hvis du kommer fra Betten rorbuer. Over 130 cm over sjøkartnull, renner vannet vestover. Ved havnivå me...","elevation":1,"name":"Rangnesstraumen","source":"UT.no\/DNT"},"type":"Feature"}],"generator":"Trakke fetch_utno_poi.swift","timestamp":"2026-08-10T00:27:31Z","type":"FeatureCollection"}