{"type":"FeatureCollection","generator":"CCW OSM spring v1","timestamp":"2026-05-14T19:20:03.444Z","attribution":"OpenStreetMap contributors (ODbL)","features":[{"type":"Feature","id":"spring-osm-node-12047240069","geometry":{"type":"Point","coordinates":[25.336866,70.625521]},"properties":{"name":"Seidi","description":"\"Best Drinking Water on Earth\", claims a nearby sign.","source":"OpenStreetMap","osm_ref":"node-12047240069"}},{"type":"Feature","id":"spring-osm-node-13061294647","geometry":{"type":"Point","coordinates":[9.184347,61.425395]},"properties":{"name":"Small spring","description":"small spring with potable water (not taking liability)","source":"OpenStreetMap","osm_ref":"node-13061294647"}},{"type":"Feature","id":"spring-osm-node-857594722","geometry":{"type":"Point","coordinates":[11.067077,61.102496]},"properties":{"name":"Birkebeiner kilden","source":"OpenStreetMap","osm_ref":"node-857594722"}},{"type":"Feature","id":"spring-osm-node-1374254679","geometry":{"type":"Point","coordinates":[10.317716,60.051579]},"properties":{"name":"Vanninga","source":"OpenStreetMap","osm_ref":"node-1374254679"}},{"type":"Feature","id":"spring-osm-node-9122860063","geometry":{"type":"Point","coordinates":[10.456458,60.517742]},"properties":{"name":"Svælabruolla","source":"OpenStreetMap","osm_ref":"node-9122860063"}},{"type":"Feature","id":"spring-osm-node-4078458434","geometry":{"type":"Point","coordinates":[10.744353,59.770483]},"properties":{"name":"Majorskilden","source":"OpenStreetMap","osm_ref":"node-4078458434"}},{"type":"Feature","id":"spring-osm-node-9017210692","geometry":{"type":"Point","coordinates":[10.471057,61.052811]},"properties":{"name":"St. Olavskilden","source":"OpenStreetMap","osm_ref":"node-9017210692"}},{"type":"Feature","id":"spring-osm-node-1707672647","geometry":{"type":"Point","coordinates":[10.191171,59.760061]},"properties":{"name":"Jutultønna","source":"OpenStreetMap","osm_ref":"node-1707672647"}},{"type":"Feature","id":"spring-osm-node-2486175354","geometry":{"type":"Point","coordinates":[9.244719,61.999055]},"properties":{"name":"St. Olavskilden på Dovre","source":"OpenStreetMap","osm_ref":"node-2486175354"}},{"type":"Feature","id":"spring-osm-node-2808264501","geometry":{"type":"Point","coordinates":[10.816729,61.219453]},"properties":{"name":"Didrikskjelda","source":"OpenStreetMap","osm_ref":"node-2808264501"}},{"type":"Feature","id":"spring-osm-node-4128606842","geometry":{"type":"Point","coordinates":[10.76536,59.777894]},"properties":{"name":"Pipekvila","source":"OpenStreetMap","osm_ref":"node-4128606842"}},{"type":"Feature","id":"spring-osm-node-6821154706","geometry":{"type":"Point","coordinates":[10.193363,59.761556]},"properties":{"name":"Jennys kilde","source":"OpenStreetMap","osm_ref":"node-6821154706"}},{"type":"Feature","id":"spring-osm-node-11006119531","geometry":{"type":"Point","coordinates":[5.238594,59.383058]},"properties":{"name":"Olavskjelda","source":"OpenStreetMap","osm_ref":"node-11006119531"}},{"type":"Feature","id":"spring-osm-node-12800198358","geometry":{"type":"Point","coordinates":[11.236655,61.705553]},"properties":{"name":"Rosemaries kilde","source":"OpenStreetMap","osm_ref":"node-12800198358"}},{"type":"Feature","id":"spring-osm-node-550274675","geometry":{"type":"Point","coordinates":[10.051364,59.302748]},"properties":{"name":"Andrineolla","source":"OpenStreetMap","osm_ref":"node-550274675"}},{"type":"Feature","id":"spring-osm-node-2808264804","geometry":{"type":"Point","coordinates":[10.740912,61.561923]},"properties":{"name":"Saukjølla","source":"OpenStreetMap","osm_ref":"node-2808264804"}},{"type":"Feature","id":"spring-osm-node-11146162165","geometry":{"type":"Point","coordinates":[10.359005,60.165699]},"properties":{"name":"Tandbergolla","source":"OpenStreetMap","osm_ref":"node-11146162165"}},{"type":"Feature","id":"spring-osm-node-13665143866","geometry":{"type":"Point","coordinates":[6.778173,61.214013]},"properties":{"name":"Tomasbritakjelda","source":"OpenStreetMap","osm_ref":"node-13665143866"}},{"type":"Feature","id":"spring-osm-node-354823385","geometry":{"type":"Point","coordinates":[5.72866,58.970183]},"properties":{"name":"Groom-brønnen","source":"OpenStreetMap","osm_ref":"node-354823385"}},{"type":"Feature","id":"spring-osm-node-918974917","geometry":{"type":"Point","coordinates":[9.67514,62.454057]},"properties":{"name":"vannkilde","source":"OpenStreetMap","osm_ref":"node-918974917"}},{"type":"Feature","id":"spring-osm-node-1387974953","geometry":{"type":"Point","coordinates":[10.322975,63.421951]},"properties":{"name":"Kilden","source":"OpenStreetMap","osm_ref":"node-1387974953"}},{"type":"Feature","id":"spring-osm-node-1766484464","geometry":{"type":"Point","coordinates":[10.346137,60.058665]},"properties":{"name":"Olavsbrønnen","source":"OpenStreetMap","osm_ref":"node-1766484464"}},{"type":"Feature","id":"spring-osm-node-1779845371","geometry":{"type":"Point","coordinates":[7.169135,61.280582]},"properties":{"name":"Olavskjelda","source":"OpenStreetMap","osm_ref":"node-1779845371"}},{"type":"Feature","id":"spring-osm-node-2096967481","geometry":{"type":"Point","coordinates":[10.376641,60.009276]},"properties":{"name":"Olavskilden","source":"OpenStreetMap","osm_ref":"node-2096967481"}},{"type":"Feature","id":"spring-osm-node-2808264001","geometry":{"type":"Point","coordinates":[11.981725,61.28092]},"properties":{"name":"Bjellkjelda","source":"OpenStreetMap","osm_ref":"node-2808264001"}},{"type":"Feature","id":"spring-osm-node-2808264101","geometry":{"type":"Point","coordinates":[11.93926,61.176009]},"properties":{"name":"Bjørkkjelda","source":"OpenStreetMap","osm_ref":"node-2808264101"}},{"type":"Feature","id":"spring-osm-node-2808264201","geometry":{"type":"Point","coordinates":[12.381456,60.712596]},"properties":{"name":"Bjørnstadkilda","source":"OpenStreetMap","osm_ref":"node-2808264201"}},{"type":"Feature","id":"spring-osm-node-2808264301","geometry":{"type":"Point","coordinates":[11.993694,61.297663]},"properties":{"name":"Blankkjelda","source":"OpenStreetMap","osm_ref":"node-2808264301"}},{"type":"Feature","id":"spring-osm-node-2808264302","geometry":{"type":"Point","coordinates":[12.021404,61.47692]},"properties":{"name":"Bubekkbotninga","source":"OpenStreetMap","osm_ref":"node-2808264302"}},{"type":"Feature","id":"spring-osm-node-2808264303","geometry":{"type":"Point","coordinates":[12.27228,61.197172]},"properties":{"name":"Merrakjelda","source":"OpenStreetMap","osm_ref":"node-2808264303"}},{"type":"Feature","id":"spring-osm-node-2808264304","geometry":{"type":"Point","coordinates":[11.708084,60.424307]},"properties":{"name":"Olavskeia","source":"OpenStreetMap","osm_ref":"node-2808264304"}},{"type":"Feature","id":"spring-osm-node-2808264305","geometry":{"type":"Point","coordinates":[12.26684,60.691549]},"properties":{"name":"Steinkjelda","source":"OpenStreetMap","osm_ref":"node-2808264305"}},{"type":"Feature","id":"spring-osm-node-2808264401","geometry":{"type":"Point","coordinates":[12.030653,61.481776]},"properties":{"name":"Bubekkbøtninga","source":"OpenStreetMap","osm_ref":"node-2808264401"}},{"type":"Feature","id":"spring-osm-node-2808264402","geometry":{"type":"Point","coordinates":[11.764209,60.297982]},"properties":{"name":"Pilterudsila","source":"OpenStreetMap","osm_ref":"node-2808264402"}},{"type":"Feature","id":"spring-osm-node-2808264502","geometry":{"type":"Point","coordinates":[12.001154,61.283903]},"properties":{"name":"Hanstanskjelda","source":"OpenStreetMap","osm_ref":"node-2808264502"}},{"type":"Feature","id":"spring-osm-node-2808264503","geometry":{"type":"Point","coordinates":[12.225366,60.304447]},"properties":{"name":"Lonkans kjelder","source":"OpenStreetMap","osm_ref":"node-2808264503"}},{"type":"Feature","id":"spring-osm-node-2808264601","geometry":{"type":"Point","coordinates":[12.240557,60.659791]},"properties":{"name":"Doktorkjelda","source":"OpenStreetMap","osm_ref":"node-2808264601"}},{"type":"Feature","id":"spring-osm-node-2808264602","geometry":{"type":"Point","coordinates":[12.276008,60.693856]},"properties":{"name":"Elgkjelda","source":"OpenStreetMap","osm_ref":"node-2808264602"}},{"type":"Feature","id":"spring-osm-node-2808264603","geometry":{"type":"Point","coordinates":[12.614156,61.293776]},"properties":{"name":"Svart-Larskjeldene","source":"OpenStreetMap","osm_ref":"node-2808264603"}},{"type":"Feature","id":"spring-osm-node-2808264604","geometry":{"type":"Point","coordinates":[12.290958,60.848783]},"properties":{"name":"Trollkjelda","source":"OpenStreetMap","osm_ref":"node-2808264604"}},{"type":"Feature","id":"spring-osm-node-2808264701","geometry":{"type":"Point","coordinates":[12.307495,60.831472]},"properties":{"name":"Flissæterkjelda","source":"OpenStreetMap","osm_ref":"node-2808264701"}},{"type":"Feature","id":"spring-osm-node-2808264801","geometry":{"type":"Point","coordinates":[12.170075,61.246127]},"properties":{"name":"Grønkjelda","source":"OpenStreetMap","osm_ref":"node-2808264801"}},{"type":"Feature","id":"spring-osm-node-2808264802","geometry":{"type":"Point","coordinates":[12.253129,60.894765]},"properties":{"name":"Gullikjelda","source":"OpenStreetMap","osm_ref":"node-2808264802"}},{"type":"Feature","id":"spring-osm-node-2808264803","geometry":{"type":"Point","coordinates":[12.173493,61.215753]},"properties":{"name":"Kjelda","source":"OpenStreetMap","osm_ref":"node-2808264803"}},{"type":"Feature","id":"spring-osm-node-2808265001","geometry":{"type":"Point","coordinates":[12.288312,60.825696]},"properties":{"name":"Hedemarkingskjelda","source":"OpenStreetMap","osm_ref":"node-2808265001"}},{"type":"Feature","id":"spring-osm-node-2808265002","geometry":{"type":"Point","coordinates":[12.046878,60.877582]},"properties":{"name":"Kjeldmyrkjella","source":"OpenStreetMap","osm_ref":"node-2808265002"}},{"type":"Feature","id":"spring-osm-node-2808265101","geometry":{"type":"Point","coordinates":[11.582732,60.396973]},"properties":{"name":"Ilhøla","source":"OpenStreetMap","osm_ref":"node-2808265101"}},{"type":"Feature","id":"spring-osm-node-2808265102","geometry":{"type":"Point","coordinates":[12.759248,61.198111]},"properties":{"name":"Kjelda oppå åsen","source":"OpenStreetMap","osm_ref":"node-2808265102"}},{"type":"Feature","id":"spring-osm-node-2808265103","geometry":{"type":"Point","coordinates":[11.982967,61.285287]},"properties":{"name":"Mosekjelda","source":"OpenStreetMap","osm_ref":"node-2808265103"}},{"type":"Feature","id":"spring-osm-node-2808265201","geometry":{"type":"Point","coordinates":[11.151311,62.608694]},"properties":{"name":"Kaldvassåra","source":"OpenStreetMap","osm_ref":"node-2808265201"}},{"type":"Feature","id":"spring-osm-node-2808265202","geometry":{"type":"Point","coordinates":[12.017057,61.334249]},"properties":{"name":"Olderkjeldkoia","source":"OpenStreetMap","osm_ref":"node-2808265202"}},{"type":"Feature","id":"spring-osm-node-2808265203","geometry":{"type":"Point","coordinates":[12.13127,61.558349]},"properties":{"name":"Rognkjelda","source":"OpenStreetMap","osm_ref":"node-2808265203"}},{"type":"Feature","id":"spring-osm-node-2808265204","geometry":{"type":"Point","coordinates":[11.999248,61.772298]},"properties":{"name":"Sagbekkbørte","source":"OpenStreetMap","osm_ref":"node-2808265204"}},{"type":"Feature","id":"spring-osm-node-2808265401","geometry":{"type":"Point","coordinates":[12.756474,61.197589]},"properties":{"name":"Kjelda under åsen","source":"OpenStreetMap","osm_ref":"node-2808265401"}},{"type":"Feature","id":"spring-osm-node-2808265402","geometry":{"type":"Point","coordinates":[12.242292,61.206931]},"properties":{"name":"Olekjelda","source":"OpenStreetMap","osm_ref":"node-2808265402"}},{"type":"Feature","id":"spring-osm-node-2808265403","geometry":{"type":"Point","coordinates":[11.9992,61.771812]},"properties":{"name":"Sagbekkbørte","source":"OpenStreetMap","osm_ref":"node-2808265403"}},{"type":"Feature","id":"spring-osm-node-2808265501","geometry":{"type":"Point","coordinates":[11.584274,62.322142]},"properties":{"name":"Kjøllan","source":"OpenStreetMap","osm_ref":"node-2808265501"}},{"type":"Feature","id":"spring-osm-node-2808265502","geometry":{"type":"Point","coordinates":[12.131759,60.607848]},"properties":{"name":"Normannskjelda","source":"OpenStreetMap","osm_ref":"node-2808265502"}},{"type":"Feature","id":"spring-osm-node-2808265601","geometry":{"type":"Point","coordinates":[12.344772,61.273807]},"properties":{"name":"Lamkjelda","source":"OpenStreetMap","osm_ref":"node-2808265601"}},{"type":"Feature","id":"spring-osm-node-2808265602","geometry":{"type":"Point","coordinates":[11.806149,62.244766]},"properties":{"name":"Langrøstkjølla","source":"OpenStreetMap","osm_ref":"node-2808265602"}},{"type":"Feature","id":"spring-osm-node-2808265603","geometry":{"type":"Point","coordinates":[12.11636,61.559499]},"properties":{"name":"Medisinkjelda","source":"OpenStreetMap","osm_ref":"node-2808265603"}},{"type":"Feature","id":"spring-osm-node-2808265604","geometry":{"type":"Point","coordinates":[12.585357,61.24022]},"properties":{"name":"Småblestkjeldene","source":"OpenStreetMap","osm_ref":"node-2808265604"}},{"type":"Feature","id":"spring-osm-node-2808265801","geometry":{"type":"Point","coordinates":[11.99447,61.281365]},"properties":{"name":"Skjeftkjelda","source":"OpenStreetMap","osm_ref":"node-2808265801"}},{"type":"Feature","id":"spring-osm-node-3696438656","geometry":{"type":"Point","coordinates":[10.422372,61.201975]},"properties":{"name":"Dølkjøylla","source":"OpenStreetMap","osm_ref":"node-3696438656"}},{"type":"Feature","id":"spring-osm-node-3708572951","geometry":{"type":"Point","coordinates":[9.126342,62.104061]},"properties":{"name":"Vassholet","source":"OpenStreetMap","osm_ref":"node-3708572951"}},{"type":"Feature","id":"spring-osm-node-4922798030","geometry":{"type":"Point","coordinates":[11.24266,60.32628]},"properties":{"name":"Kilden","source":"OpenStreetMap","osm_ref":"node-4922798030"}},{"type":"Feature","id":"spring-osm-node-11162536989","geometry":{"type":"Point","coordinates":[8.725558,61.141278]},"properties":{"name":"Vasstrone","source":"OpenStreetMap","osm_ref":"node-11162536989"}},{"type":"Feature","id":"spring-osm-node-13454787205","geometry":{"type":"Point","coordinates":[12.302337,60.606627]},"properties":{"name":"Olavskilden","source":"OpenStreetMap","osm_ref":"node-13454787205"}},{"type":"Feature","id":"spring-osm-node-870947745","geometry":{"type":"Point","coordinates":[10.438566,59.977095]},"properties":{"name":"Simensølla","source":"OpenStreetMap","osm_ref":"node-870947745"}},{"type":"Feature","id":"spring-osm-node-1263961661","geometry":{"type":"Point","coordinates":[22.347142,69.993929]},"properties":{"name":"Bubbelen","source":"OpenStreetMap","osm_ref":"node-1263961661"}},{"type":"Feature","id":"spring-osm-node-1367020119","geometry":{"type":"Point","coordinates":[16.730903,68.420773]},"properties":{"name":"Hestkilda","source":"OpenStreetMap","osm_ref":"node-1367020119"}},{"type":"Feature","id":"spring-osm-node-2171769625","geometry":{"type":"Point","coordinates":[7.160336,61.265854]},"properties":{"name":"Hopakjelda","source":"OpenStreetMap","osm_ref":"node-2171769625"}},{"type":"Feature","id":"spring-osm-node-3133777991","geometry":{"type":"Point","coordinates":[10.362854,60.163673]},"properties":{"name":"Rognesteinolla","source":"OpenStreetMap","osm_ref":"node-3133777991"}},{"type":"Feature","id":"spring-osm-node-3661350913","geometry":{"type":"Point","coordinates":[11.472904,62.551054]},"properties":{"name":"Storkjølda","source":"OpenStreetMap","osm_ref":"node-3661350913"}},{"type":"Feature","id":"spring-osm-node-3779394318","geometry":{"type":"Point","coordinates":[10.507617,60.25141]},"properties":{"name":"Vanntroa","source":"OpenStreetMap","osm_ref":"node-3779394318"}},{"type":"Feature","id":"spring-osm-node-5456550380","geometry":{"type":"Point","coordinates":[11.163941,61.561964]},"properties":{"name":"Bjørns kilde","source":"OpenStreetMap","osm_ref":"node-5456550380"}},{"type":"Feature","id":"spring-osm-node-5961345265","geometry":{"type":"Point","coordinates":[11.640564,60.243921]},"properties":{"name":"Steinbekken","source":"OpenStreetMap","osm_ref":"node-5961345265"}},{"type":"Feature","id":"spring-osm-node-7035590000","geometry":{"type":"Point","coordinates":[5.383157,59.703133]},"properties":{"name":"Olavskjelda","source":"OpenStreetMap","osm_ref":"node-7035590000"}},{"type":"Feature","id":"spring-osm-node-8422951516","geometry":{"type":"Point","coordinates":[19.579642,69.658806]},"properties":{"name":"Oppkomstådra","source":"OpenStreetMap","osm_ref":"node-8422951516"}},{"type":"Feature","id":"spring-osm-node-12816722323","geometry":{"type":"Point","coordinates":[10.662072,59.81867]},"properties":{"name":"Kilden","source":"OpenStreetMap","osm_ref":"node-12816722323"}},{"type":"Feature","id":"spring-osm-node-836525983","geometry":{"type":"Point","coordinates":[10.795805,59.961781]},"properties":{"name":"Kilde","description":"unsure if spring or artificial","source":"OpenStreetMap","osm_ref":"node-836525983"}},{"type":"Feature","id":"spring-osm-node-10759172137","geometry":{"type":"Point","coordinates":[5.731582,58.967672]},"properties":{"name":"Kilde","description":"To illustrate where the inflow used to be, now its more like a fountain","source":"OpenStreetMap","osm_ref":"node-10759172137"}},{"type":"Feature","id":"spring-osm-node-13012112865","geometry":{"type":"Point","coordinates":[11.928193,62.434894]},"properties":{"name":"Kilde","description":"Nice and fresh","source":"OpenStreetMap","osm_ref":"node-13012112865"}},{"type":"Feature","id":"spring-osm-node-13012192593","geometry":{"type":"Point","coordinates":[12.123584,62.309066]},"properties":{"name":"Kilde","description":"Perfectly fresh and tasty","source":"OpenStreetMap","osm_ref":"node-13012192593"}},{"type":"Feature","id":"spring-osm-node-876729090","geometry":{"type":"Point","coordinates":[11.07299,59.142506]},"properties":{"name":"Kilde","source":"OpenStreetMap","osm_ref":"node-876729090"}},{"type":"Feature","id":"spring-osm-node-6297152465","geometry":{"type":"Point","coordinates":[8.922218,58.865434]},"properties":{"name":"Kilde","source":"OpenStreetMap","osm_ref":"node-6297152465"}},{"type":"Feature","id":"spring-osm-node-6697154774","geometry":{"type":"Point","coordinates":[6.162099,58.99063]},"properties":{"name":"Kilde","source":"OpenStreetMap","osm_ref":"node-6697154774"}},{"type":"Feature","id":"spring-osm-node-9983542301","geometry":{"type":"Point","coordinates":[14.217666,68.16512]},"properties":{"name":"Kilde","source":"OpenStreetMap","osm_ref":"node-9983542301"}},{"type":"Feature","id":"spring-osm-node-10035957831","geometry":{"type":"Point","coordinates":[12.001204,60.191409]},"properties":{"name":"Kilde","source":"OpenStreetMap","osm_ref":"node-10035957831"}},{"type":"Feature","id":"spring-osm-node-779830448","geometry":{"type":"Point","coordinates":[11.076171,59.244433]},"properties":{"name":"Kilde","source":"OpenStreetMap","osm_ref":"node-779830448"}},{"type":"Feature","id":"spring-osm-node-2023890137","geometry":{"type":"Point","coordinates":[6.987241,59.103167]},"properties":{"name":"Kilde","source":"OpenStreetMap","osm_ref":"node-2023890137"}},{"type":"Feature","id":"spring-osm-node-9439534177","geometry":{"type":"Point","coordinates":[10.597802,59.418768]},"properties":{"name":"Kilde","source":"OpenStreetMap","osm_ref":"node-9439534177"}},{"type":"Feature","id":"spring-osm-node-10130868843","geometry":{"type":"Point","coordinates":[9.319362,60.338321]},"properties":{"name":"Kilde","source":"OpenStreetMap","osm_ref":"node-10130868843"}},{"type":"Feature","id":"spring-osm-node-10926904305","geometry":{"type":"Point","coordinates":[13.147951,68.095614]},"properties":{"name":"Kilde","source":"OpenStreetMap","osm_ref":"node-10926904305"}},{"type":"Feature","id":"spring-osm-node-11313966619","geometry":{"type":"Point","coordinates":[5.731245,58.970162]},"properties":{"name":"Kilde","source":"OpenStreetMap","osm_ref":"node-11313966619"}},{"type":"Feature","id":"spring-osm-node-12007754540","geometry":{"type":"Point","coordinates":[8.832183,58.683743]},"properties":{"name":"Kilde","source":"OpenStreetMap","osm_ref":"node-12007754540"}},{"type":"Feature","id":"spring-osm-node-13261147710","geometry":{"type":"Point","coordinates":[9.219085,60.985925]},"properties":{"name":"Kilde","source":"OpenStreetMap","osm_ref":"node-13261147710"}},{"type":"Feature","id":"spring-osm-node-819554550","geometry":{"type":"Point","coordinates":[8.012461,61.468005]},"properties":{"name":"Kilde","source":"OpenStreetMap","osm_ref":"node-819554550"}},{"type":"Feature","id":"spring-osm-node-1490051608","geometry":{"type":"Point","coordinates":[10.321923,60.01899]},"properties":{"name":"Kilde","source":"OpenStreetMap","osm_ref":"node-1490051608"}},{"type":"Feature","id":"spring-osm-node-1924066979","geometry":{"type":"Point","coordinates":[15.810516,69.127527]},"properties":{"name":"Kilde","source":"OpenStreetMap","osm_ref":"node-1924066979"}},{"type":"Feature","id":"spring-osm-node-2093199631","geometry":{"type":"Point","coordinates":[6.906885,61.217338]},"properties":{"name":"Kilde","source":"OpenStreetMap","osm_ref":"node-2093199631"}},{"type":"Feature","id":"spring-osm-node-2306036359","geometry":{"type":"Point","coordinates":[10.570639,59.943821]},"properties":{"name":"Kilde","source":"OpenStreetMap","osm_ref":"node-2306036359"}},{"type":"Feature","id":"spring-osm-node-2384723385","geometry":{"type":"Point","coordinates":[10.514337,59.988235]},"properties":{"name":"Kilde","source":"OpenStreetMap","osm_ref":"node-2384723385"}},{"type":"Feature","id":"spring-osm-node-3451023215","geometry":{"type":"Point","coordinates":[10.478526,59.884493]},"properties":{"name":"Kilde","source":"OpenStreetMap","osm_ref":"node-3451023215"}},{"type":"Feature","id":"spring-osm-node-3584455981","geometry":{"type":"Point","coordinates":[10.406668,60.123394]},"properties":{"name":"Kilde","source":"OpenStreetMap","osm_ref":"node-3584455981"}},{"type":"Feature","id":"spring-osm-node-3731676127","geometry":{"type":"Point","coordinates":[12.332139,61.334228]},"properties":{"name":"Kilde","source":"OpenStreetMap","osm_ref":"node-3731676127"}},{"type":"Feature","id":"spring-osm-node-3738630384","geometry":{"type":"Point","coordinates":[11.521237,62.436399]},"properties":{"name":"Kilde","source":"OpenStreetMap","osm_ref":"node-3738630384"}},{"type":"Feature","id":"spring-osm-node-3743288180","geometry":{"type":"Point","coordinates":[11.51951,62.438107]},"properties":{"name":"Kilde","source":"OpenStreetMap","osm_ref":"node-3743288180"}},{"type":"Feature","id":"spring-osm-node-3808869569","geometry":{"type":"Point","coordinates":[11.483484,62.501984]},"properties":{"name":"Kilde","source":"OpenStreetMap","osm_ref":"node-3808869569"}},{"type":"Feature","id":"spring-osm-node-3814201363","geometry":{"type":"Point","coordinates":[11.514232,62.484213]},"properties":{"name":"Kilde","source":"OpenStreetMap","osm_ref":"node-3814201363"}},{"type":"Feature","id":"spring-osm-node-3814201386","geometry":{"type":"Point","coordinates":[11.518931,62.485408]},"properties":{"name":"Kilde","source":"OpenStreetMap","osm_ref":"node-3814201386"}},{"type":"Feature","id":"spring-osm-node-3915913730","geometry":{"type":"Point","coordinates":[11.357724,62.636343]},"properties":{"name":"Kilde","source":"OpenStreetMap","osm_ref":"node-3915913730"}},{"type":"Feature","id":"spring-osm-node-4247311136","geometry":{"type":"Point","coordinates":[11.013314,60.059888]},"properties":{"name":"Kilde","source":"OpenStreetMap","osm_ref":"node-4247311136"}},{"type":"Feature","id":"spring-osm-node-4292934689","geometry":{"type":"Point","coordinates":[10.431046,60.194615]},"properties":{"name":"Kilde","source":"OpenStreetMap","osm_ref":"node-4292934689"}},{"type":"Feature","id":"spring-osm-node-4365286965","geometry":{"type":"Point","coordinates":[11.162828,59.974233]},"properties":{"name":"Kilde","source":"OpenStreetMap","osm_ref":"node-4365286965"}},{"type":"Feature","id":"spring-osm-node-4372008324","geometry":{"type":"Point","coordinates":[11.596372,62.454003]},"properties":{"name":"Kilde","source":"OpenStreetMap","osm_ref":"node-4372008324"}},{"type":"Feature","id":"spring-osm-node-4372008348","geometry":{"type":"Point","coordinates":[11.601849,62.454975]},"properties":{"name":"Kilde","source":"OpenStreetMap","osm_ref":"node-4372008348"}},{"type":"Feature","id":"spring-osm-node-4405290591","geometry":{"type":"Point","coordinates":[6.20521,61.770042]},"properties":{"name":"Kilde","source":"OpenStreetMap","osm_ref":"node-4405290591"}},{"type":"Feature","id":"spring-osm-node-4407070085","geometry":{"type":"Point","coordinates":[11.698652,62.440932]},"properties":{"name":"Kilde","source":"OpenStreetMap","osm_ref":"node-4407070085"}},{"type":"Feature","id":"spring-osm-node-4423276895","geometry":{"type":"Point","coordinates":[11.368264,62.652073]},"properties":{"name":"Kilde","source":"OpenStreetMap","osm_ref":"node-4423276895"}},{"type":"Feature","id":"spring-osm-node-4431197876","geometry":{"type":"Point","coordinates":[11.62305,62.454381]},"properties":{"name":"Kilde","source":"OpenStreetMap","osm_ref":"node-4431197876"}},{"type":"Feature","id":"spring-osm-node-4451005635","geometry":{"type":"Point","coordinates":[11.572487,62.455646]},"properties":{"name":"Kilde","source":"OpenStreetMap","osm_ref":"node-4451005635"}},{"type":"Feature","id":"spring-osm-node-4470387810","geometry":{"type":"Point","coordinates":[10.397342,60.030253]},"properties":{"name":"Kilde","source":"OpenStreetMap","osm_ref":"node-4470387810"}},{"type":"Feature","id":"spring-osm-node-5613961693","geometry":{"type":"Point","coordinates":[10.418081,60.13136]},"properties":{"name":"Kilde","source":"OpenStreetMap","osm_ref":"node-5613961693"}},{"type":"Feature","id":"spring-osm-node-5627431751","geometry":{"type":"Point","coordinates":[12.84574,67.846324]},"properties":{"name":"Kilde","source":"OpenStreetMap","osm_ref":"node-5627431751"}},{"type":"Feature","id":"spring-osm-node-5781662560","geometry":{"type":"Point","coordinates":[6.007344,58.817906]},"properties":{"name":"Kilde","source":"OpenStreetMap","osm_ref":"node-5781662560"}},{"type":"Feature","id":"spring-osm-node-5801989630","geometry":{"type":"Point","coordinates":[11.583841,62.559374]},"properties":{"name":"Kilde","source":"OpenStreetMap","osm_ref":"node-5801989630"}},{"type":"Feature","id":"spring-osm-node-5801989631","geometry":{"type":"Point","coordinates":[11.673279,62.502809]},"properties":{"name":"Kilde","source":"OpenStreetMap","osm_ref":"node-5801989631"}},{"type":"Feature","id":"spring-osm-node-6345929893","geometry":{"type":"Point","coordinates":[11.613857,62.465609]},"properties":{"name":"Kilde","source":"OpenStreetMap","osm_ref":"node-6345929893"}},{"type":"Feature","id":"spring-osm-node-6470778339","geometry":{"type":"Point","coordinates":[11.465176,62.543654]},"properties":{"name":"Kilde","source":"OpenStreetMap","osm_ref":"node-6470778339"}},{"type":"Feature","id":"spring-osm-node-6667107311","geometry":{"type":"Point","coordinates":[11.611068,62.465861]},"properties":{"name":"Kilde","source":"OpenStreetMap","osm_ref":"node-6667107311"}},{"type":"Feature","id":"spring-osm-node-7245220707","geometry":{"type":"Point","coordinates":[7.411083,58.218768]},"properties":{"name":"Kilde","source":"OpenStreetMap","osm_ref":"node-7245220707"}},{"type":"Feature","id":"spring-osm-node-7274357173","geometry":{"type":"Point","coordinates":[11.966915,62.410744]},"properties":{"name":"Kilde","source":"OpenStreetMap","osm_ref":"node-7274357173"}},{"type":"Feature","id":"spring-osm-node-7777867127","geometry":{"type":"Point","coordinates":[11.661606,62.50877]},"properties":{"name":"Kilde","source":"OpenStreetMap","osm_ref":"node-7777867127"}},{"type":"Feature","id":"spring-osm-node-7845798176","geometry":{"type":"Point","coordinates":[11.436164,62.514271]},"properties":{"name":"Kilde","source":"OpenStreetMap","osm_ref":"node-7845798176"}},{"type":"Feature","id":"spring-osm-node-7893027994","geometry":{"type":"Point","coordinates":[11.469924,62.502422]},"properties":{"name":"Kilde","source":"OpenStreetMap","osm_ref":"node-7893027994"}},{"type":"Feature","id":"spring-osm-node-8092208177","geometry":{"type":"Point","coordinates":[11.911084,62.619465]},"properties":{"name":"Kilde","source":"OpenStreetMap","osm_ref":"node-8092208177"}},{"type":"Feature","id":"spring-osm-node-8117180184","geometry":{"type":"Point","coordinates":[11.394225,62.611519]},"properties":{"name":"Kilde","source":"OpenStreetMap","osm_ref":"node-8117180184"}},{"type":"Feature","id":"spring-osm-node-8815576334","geometry":{"type":"Point","coordinates":[11.473248,62.491436]},"properties":{"name":"Kilde","source":"OpenStreetMap","osm_ref":"node-8815576334"}},{"type":"Feature","id":"spring-osm-node-8827336804","geometry":{"type":"Point","coordinates":[11.54704,62.495096]},"properties":{"name":"Kilde","source":"OpenStreetMap","osm_ref":"node-8827336804"}},{"type":"Feature","id":"spring-osm-node-8955211886","geometry":{"type":"Point","coordinates":[11.471162,62.489557]},"properties":{"name":"Kilde","source":"OpenStreetMap","osm_ref":"node-8955211886"}},{"type":"Feature","id":"spring-osm-node-8981038049","geometry":{"type":"Point","coordinates":[11.331202,62.69817]},"properties":{"name":"Kilde","source":"OpenStreetMap","osm_ref":"node-8981038049"}},{"type":"Feature","id":"spring-osm-node-9064547162","geometry":{"type":"Point","coordinates":[11.328458,62.703259]},"properties":{"name":"Kilde","source":"OpenStreetMap","osm_ref":"node-9064547162"}},{"type":"Feature","id":"spring-osm-node-10200428159","geometry":{"type":"Point","coordinates":[11.535858,62.520434]},"properties":{"name":"Kilde","source":"OpenStreetMap","osm_ref":"node-10200428159"}},{"type":"Feature","id":"spring-osm-node-10200428163","geometry":{"type":"Point","coordinates":[11.533856,62.518694]},"properties":{"name":"Kilde","source":"OpenStreetMap","osm_ref":"node-10200428163"}},{"type":"Feature","id":"spring-osm-node-10543008570","geometry":{"type":"Point","coordinates":[9.159814,58.725311]},"properties":{"name":"Kilde","source":"OpenStreetMap","osm_ref":"node-10543008570"}},{"type":"Feature","id":"spring-osm-node-10963839342","geometry":{"type":"Point","coordinates":[11.445514,62.510423]},"properties":{"name":"Kilde","source":"OpenStreetMap","osm_ref":"node-10963839342"}},{"type":"Feature","id":"spring-osm-node-11079557469","geometry":{"type":"Point","coordinates":[11.740513,62.434588]},"properties":{"name":"Kilde","source":"OpenStreetMap","osm_ref":"node-11079557469"}},{"type":"Feature","id":"spring-osm-node-11079567399","geometry":{"type":"Point","coordinates":[11.74012,62.433842]},"properties":{"name":"Kilde","source":"OpenStreetMap","osm_ref":"node-11079567399"}},{"type":"Feature","id":"spring-osm-node-11079567565","geometry":{"type":"Point","coordinates":[11.704337,62.452044]},"properties":{"name":"Kilde","source":"OpenStreetMap","osm_ref":"node-11079567565"}},{"type":"Feature","id":"spring-osm-node-11144772084","geometry":{"type":"Point","coordinates":[11.588919,62.423911]},"properties":{"name":"Kilde","source":"OpenStreetMap","osm_ref":"node-11144772084"}},{"type":"Feature","id":"spring-osm-node-11166535693","geometry":{"type":"Point","coordinates":[24.690564,68.678956]},"properties":{"name":"Kilde","source":"OpenStreetMap","osm_ref":"node-11166535693"}},{"type":"Feature","id":"spring-osm-node-11170436570","geometry":{"type":"Point","coordinates":[11.466728,62.503563]},"properties":{"name":"Kilde","source":"OpenStreetMap","osm_ref":"node-11170436570"}},{"type":"Feature","id":"spring-osm-node-11170436777","geometry":{"type":"Point","coordinates":[11.647892,62.484383]},"properties":{"name":"Kilde","source":"OpenStreetMap","osm_ref":"node-11170436777"}},{"type":"Feature","id":"spring-osm-node-11232538501","geometry":{"type":"Point","coordinates":[11.274596,62.685593]},"properties":{"name":"Kilde","source":"OpenStreetMap","osm_ref":"node-11232538501"}},{"type":"Feature","id":"spring-osm-node-11244762519","geometry":{"type":"Point","coordinates":[11.288195,62.685597]},"properties":{"name":"Kilde","source":"OpenStreetMap","osm_ref":"node-11244762519"}},{"type":"Feature","id":"spring-osm-node-11347330031","geometry":{"type":"Point","coordinates":[11.586397,62.455963]},"properties":{"name":"Kilde","source":"OpenStreetMap","osm_ref":"node-11347330031"}},{"type":"Feature","id":"spring-osm-node-11999737319","geometry":{"type":"Point","coordinates":[7.923749,59.081768]},"properties":{"name":"Kilde","source":"OpenStreetMap","osm_ref":"node-11999737319"}},{"type":"Feature","id":"spring-osm-node-12092826761","geometry":{"type":"Point","coordinates":[13.762372,66.732897]},"properties":{"name":"Kilde","source":"OpenStreetMap","osm_ref":"node-12092826761"}},{"type":"Feature","id":"spring-osm-node-12149901108","geometry":{"type":"Point","coordinates":[7.709428,62.562293]},"properties":{"name":"Kilde","source":"OpenStreetMap","osm_ref":"node-12149901108"}},{"type":"Feature","id":"spring-osm-node-13012165114","geometry":{"type":"Point","coordinates":[12.109528,62.314227]},"properties":{"name":"Kilde","source":"OpenStreetMap","osm_ref":"node-13012165114"}},{"type":"Feature","id":"spring-osm-node-13012176738","geometry":{"type":"Point","coordinates":[12.134839,62.309502]},"properties":{"name":"Kilde","source":"OpenStreetMap","osm_ref":"node-13012176738"}},{"type":"Feature","id":"spring-osm-node-13012184102","geometry":{"type":"Point","coordinates":[12.091376,62.419962]},"properties":{"name":"Kilde","source":"OpenStreetMap","osm_ref":"node-13012184102"}},{"type":"Feature","id":"spring-osm-node-13012191359","geometry":{"type":"Point","coordinates":[12.094448,62.420314]},"properties":{"name":"Kilde","source":"OpenStreetMap","osm_ref":"node-13012191359"}},{"type":"Feature","id":"spring-osm-node-13032320621","geometry":{"type":"Point","coordinates":[13.25994,68.105013]},"properties":{"name":"Kilde","source":"OpenStreetMap","osm_ref":"node-13032320621"}},{"type":"Feature","id":"spring-osm-node-13059679708","geometry":{"type":"Point","coordinates":[11.231015,62.684514]},"properties":{"name":"Kilde","source":"OpenStreetMap","osm_ref":"node-13059679708"}},{"type":"Feature","id":"spring-osm-node-13109364003","geometry":{"type":"Point","coordinates":[11.271603,62.65472]},"properties":{"name":"Kilde","source":"OpenStreetMap","osm_ref":"node-13109364003"}},{"type":"Feature","id":"spring-osm-node-13410603180","geometry":{"type":"Point","coordinates":[11.364011,60.670223]},"properties":{"name":"Kilde","source":"OpenStreetMap","osm_ref":"node-13410603180"}}]}