{"attribution":"UT.no\/DNT","features":[{"geometry":{"coordinates":[5.2797070000000001,60.256351000000002],"type":"Point"},"id":"toilet-ut-141776","properties":{"description":"Åpent toalett","elevation":10,"name":"Toalett ved Sandholane","source":"UT.no\/DNT"},"type":"Feature"},{"geometry":{"coordinates":[5.2632750000000001,60.251325999999999],"type":"Point"},"id":"toilet-ut-141893","properties":{"description":"Publikumstoalett","elevation":18,"name":"Rundhaugen","source":"UT.no\/DNT"},"type":"Feature"},{"geometry":{"coordinates":[4.7147550000000003,60.782232999999998],"type":"Point"},"id":"toilet-ut-144993743","properties":{"description":"Det lille biblioteket i venterommet på ferjekaia er ikkje heilt som andre bibliotek. Biblioteket gjer god litteratur tilgjengeleg for alle og ein kvar. Opningstidene er romslege og plasseringa sentral. Treng du ei bok til ferjeturen eller t...","elevation":1,"name":"Ferjekaien - venterom\/ferjekaibibliotek","source":"UT.no\/DNT"},"type":"Feature"},{"geometry":{"coordinates":[5.3522949999999998,60.346328999999997],"type":"Point"},"id":"toilet-ut-145369030","properties":{"description":"3 HC-parkeringer utenfor Meny Fantoft. Kartlagt av Bergen og Hordaland Turlag våren 2024.","elevation":66,"name":"HC-parkering på Fantoft","source":"UT.no\/DNT"},"type":"Feature"},{"geometry":{"coordinates":[10.500427999999999,59.802390000000003],"type":"Point"},"id":"toilet-ut-145382114","properties":{"description":"Sommeråpent toalett og utedusj på Elnestangen.","elevation":5,"name":"Toalett og utedusj på Elnestangen","source":"UT.no\/DNT"},"type":"Feature"},{"geometry":{"coordinates":[10.610393999999999,59.816299999999998],"type":"Point"},"id":"toilet-ut-145382118","properties":{"name":"Toalett\/dusjanlegg på Persteilene","source":"UT.no\/DNT"},"type":"Feature"},{"geometry":{"coordinates":[10.713213,59.752312000000003],"type":"Point"},"id":"toilet-ut-145514652","properties":{"description":"Offentlig toalett på Brevikstranda i Frogn kommune. Oftest åpent i sommersesongen fra ca. 1. juni til ca. 31. august. Strand godt egnet for strandhugg med kajakk.","elevation":3,"name":"Brevik strand","source":"UT.no\/DNT"},"type":"Feature"},{"geometry":{"coordinates":[10.552645,59.718902999999997],"type":"Point"},"id":"toilet-ut-145519736","properties":{"description":"Eldre utedo og søppelkasse i nærhet til de mest populære strendene og teltplassene på nordsiden av Håøya.","elevation":5,"name":"Toalett ved strendene på nordsiden av Håøya","source":"UT.no\/DNT"},"type":"Feature"},{"geometry":{"coordinates":[11.019636,59.024016000000003],"type":"Point"},"id":"toilet-ut-146146788","properties":{"description":"Toalettet i Storesand Friluftshus finnes i bakre del av bygget. Be om kode til døra i kafeen. Det er laget en rampe med adkomst fra enden av bygget. Det skal være mulig å trille hit, men enkelte ganger kan det være mye sand i adkomsten elle...","elevation":7,"name":"Toalett Storesand","source":"UT.no\/DNT"},"type":"Feature"},{"geometry":{"coordinates":[11.083777,59.009725000000003],"type":"Point"},"id":"toilet-ut-146156337","properties":{"description":"Toalettanlegget er tilrettelagt, men der det kan være noen utfordringer med adkomst. For å komme til toalettet må man bevege seg over gress til en rampe som har 11 graders stigning over ca 4 meter. Rampa er 120 cm bred og har tredekke. Det ...","elevation":2,"name":"Toalett Stuevika","source":"UT.no\/DNT"},"type":"Feature"},{"geometry":{"coordinates":[8.0750600000000006,58.192399000000002],"type":"Point"},"id":"toilet-ut-146285663","properties":{"description":"Ett enkelt toalett, med naturlig lys ovenfra. Gulvplassen er 219 x 221. Det er fri plass på 90 cm på begge sider av toalettet, og 90 cm bredde i døra. Det er en slak rampe for å komme seg inn. Forann rampen er det parkeringplass. Står det e...","elevation":1,"name":"Toalett Hamresanden ","source":"UT.no\/DNT"},"type":"Feature"},{"geometry":{"coordinates":[8.0807300000000009,58.191437999999998],"type":"Point"},"id":"toilet-ut-146294716","properties":{"description":"Ett enkelt toalett, med naturlig lys ovenfra. Gulvplassen er 219 x 221. Det er fri plass på 90 cm på begge sider av toalettet, og 90 cm bredde i døra. Det er en slak rampe for å komme seg inn. Forann rampen er det parkeringplass. Bildene vi...","elevation":4,"name":"Toalett Hamresanden","source":"UT.no\/DNT"},"type":"Feature"},{"geometry":{"coordinates":[11.263888,59.99044],"type":"Point"},"id":"toilet-ut-146551628","properties":{"description":"Friluftstoalettet står like ved parkeringsplassen. For høy terskel inn (4 cm) og for smal inngang (80 cm) til å være godkjent HC-toalett. Toalettet har noen HC-tilpasninger inne som armlene. WC er delvis tilgjengelig (<90 cm mellom toalett ...","elevation":113,"name":"Toalett Bingsfoss","source":"UT.no\/DNT"},"type":"Feature"},{"geometry":{"coordinates":[5.322495,60.422831000000002],"type":"Point"},"id":"toilet-ut-146675094","properties":{"description":"Veien hit er stengt for alminnelig biltrafikk, men lovlig dersom man har HC-kort. Et flott område å besøke.","elevation":151,"name":"HC-parkering ved Munkebotsvatnet","source":"UT.no\/DNT"},"type":"Feature"},{"geometry":{"coordinates":[10.88232,59.972780999999998],"type":"Point"},"id":"toilet-ut-146889688","properties":{"description":"Ett enkelt tørrklosett, med naturlig lys ovenfra. Snusirkel foran toalett er 150. Høyden til toalettsete er 50 cm. Passeringsbredden gjennom døra er 90 cm. Døra slår ut, er manuell og er uten lås. Det er ikke vann på toalettet. Adkomst fra ...","elevation":243,"name":"Toalett ved Badedammen i Lillomarka","source":"UT.no\/DNT"},"type":"Feature"},{"geometry":{"coordinates":[11.560097000000001,59.431055999999998],"type":"Point"},"id":"toilet-ut-146889925","properties":{"description":"I området i sørenden av Frønesjøen er det er en stor og fin utedo for turgåere.","elevation":188,"name":"Toalett Frønesjøen","source":"UT.no\/DNT"},"type":"Feature"},{"geometry":{"coordinates":[10.862017,59.876440000000002],"type":"Point"},"id":"toilet-ut-146889992","properties":{"description":"Frittstående hus med HC-tilpasset vannklosett og automatisk lys. Toalettet er åpent fra april til oktober. Det går en grusvei med 5,8 grader stigning til toalettet. Foran inngangen er en 130 cm lang og 125 cm bred rampe med 5,4 grader stign...","elevation":170,"name":"Toalett på Bråten badeplass","source":"UT.no\/DNT"},"type":"Feature"},{"geometry":{"coordinates":[11.340595,59.563037000000001],"type":"Point"},"id":"toilet-ut-146889994","properties":{"description":"Ved Høytorp fort er det et toalettbygg med herre-, dame- og HC-toalett. Bygget er åpent mellom 8.00–20.00. Tilgjengelighet Toalettbygget har manuell åpning av døren. Inn til toalettbygget er det en 3,5 cm høy terskel, og 2 cm høy terskel in...","elevation":197,"name":"Toalett Høytorp fort","source":"UT.no\/DNT"},"type":"Feature"},{"geometry":{"coordinates":[10.773148000000001,59.833274000000003],"type":"Point"},"id":"toilet-ut-146890034","properties":{"description":"Toalettene er åpne i sommersesongen ca. 15. mai til 15. september. Handicaptoalettet holdes åpent vinterstid også. Det er 5 vannklosetter, 1 HC-toalett (vannklosett) med oppfylt krav til svingradius, og urinaler. Toalettene har elektrisk be...","elevation":5,"name":"Toalett i Hvervenbukta","source":"UT.no\/DNT"},"type":"Feature"},{"geometry":{"coordinates":[10.757802999999999,59.935889000000003],"type":"Point"},"id":"toilet-ut-146890053","properties":{"description":"Offentlig toalett på Myraløkka på Sagene. Toalettet ligger ved turvei langs Akerselva. Se også lenker til kart over offentlige toaletter i Oslo og Oslo kommunes nettsider for tur og friluftsliv.","elevation":54,"name":"Offentlig toalett - Myraløkka","source":"UT.no\/DNT"},"type":"Feature"},{"geometry":{"coordinates":[10.778646,59.966245999999998],"type":"Point"},"id":"toilet-ut-146890054","properties":{"description":"Offentlig toalett ved Brekkedammen ved Frysja. Toalettet ligger like ved Brekkedammen badeplass, og langs turvei langs Akerselva. Se også lenker til kart over offentlige toaletter i Oslo og Oslo kommunes nettsider for tur og friluftsliv.","elevation":146,"name":"Offentlig toalett - Brekkedammen","source":"UT.no\/DNT"},"type":"Feature"},{"geometry":{"coordinates":[10.764174000000001,59.923343000000003],"type":"Point"},"id":"toilet-ut-146890055","properties":{"description":"Offentlig toalett i Sofienbergparken på Grünerløkka. Se også lenker til kart over offentlige toaletter i Oslo og Oslo kommunes nettsider for tur og friluftsliv.","elevation":20,"name":"Offentlig toalett - Sofienbergparken","source":"UT.no\/DNT"},"type":"Feature"},{"geometry":{"coordinates":[10.699081,59.928897999999997],"type":"Point"},"id":"toilet-ut-146890056","properties":{"description":"Offentlig toalett i Frognerparken nord, mellom Monolitten og Monolitveien. Se også lenker til kart over offentlige toaletter i Oslo og Oslo kommunes nettsider for tur og friluftsliv.","elevation":50,"name":"Offentlig toalett - Frognerparken nord","source":"UT.no\/DNT"},"type":"Feature"},{"geometry":{"coordinates":[10.704383,59.924872999999998],"type":"Point"},"id":"toilet-ut-146890057","properties":{"description":"Offentlig toalett i Frognerparken. Se også lenker til kart over offentlige toaletter i Oslo og Oslo kommunes nettsider for tur og friluftsliv.","elevation":36,"name":"Offentlig toalett - Frognerparken","source":"UT.no\/DNT"},"type":"Feature"},{"geometry":{"coordinates":[10.750268999999999,59.910538000000003],"type":"Point"},"id":"toilet-ut-146890058","properties":{"description":"Offentlig toalett på Jernbanetorget \/ Christian Frederiks plass. Se også lenker til kart over offentlige toaletter i Oslo og Oslo kommunes nettsider for tur og friluftsliv.","elevation":2,"name":"Offentlig toalett - Jernbanetorget \/ Christian Frederiks plass","source":"UT.no\/DNT"},"type":"Feature"},{"geometry":{"coordinates":[10.753304,59.906661],"type":"Point"},"id":"toilet-ut-146890059","properties":{"description":"Offentlig toalett på Operastranda. Se også lenker til kart over offentlige toaletter i Oslo og Oslo kommunes nettsider for tur og friluftsliv.","name":"Offentlig toalett - Operastranda","source":"UT.no\/DNT"},"type":"Feature"},{"geometry":{"coordinates":[10.752132,59.901195000000001],"type":"Point"},"id":"toilet-ut-146890060","properties":{"description":"Offentlig toalett på Sørenga sjøbad. Se også lenker til kart over offentlige toaletter i Oslo og Oslo kommunes nettsider for tur og friluftsliv.","name":"Offentlig toalett - Sørenga sjøbad","source":"UT.no\/DNT"},"type":"Feature"},{"geometry":{"coordinates":[10.733261000000001,59.910584],"type":"Point"},"id":"toilet-ut-146890061","properties":{"description":"Offentlig toalett på Rådhusplassen \/ Rådhusbrygge 2. Se også lenker til kart over offentlige toalett i Oslo og Oslo kommunes nettsider for tur og friluftsliv.","name":"Offentlig toalett - Rådhusplassen \/ Rådhusbrygge 2","source":"UT.no\/DNT"},"type":"Feature"},{"geometry":{"coordinates":[10.745501000000001,59.912534999999998],"type":"Point"},"id":"toilet-ut-146890062","properties":{"description":"Offentlig toalett på Stortorvet. Se også lenker til kart over offentlige toaletter i Oslo og Oslo kommunes nettsider for tur og friluftsliv.","elevation":11,"name":"Offentlig toalett - Stortorvet","source":"UT.no\/DNT"},"type":"Feature"},{"geometry":{"coordinates":[10.737861000000001,59.913431000000003],"type":"Point"},"id":"toilet-ut-146890063","properties":{"description":"Offentlig toalett i Spikersuppa. Se også lenker til kart over offentlige toalett i Oslo og Oslo kommunes nettsider for tur og friluftsliv.","elevation":5,"name":"Offentlig toalett - Spikersuppa","source":"UT.no\/DNT"},"type":"Feature"},{"geometry":{"coordinates":[10.749003,59.914428999999998],"type":"Point"},"id":"toilet-ut-146890064","properties":{"description":"Offentlig toalett på Youngstorget. Se også lenker til kart over offentlige toaletter i Oslo og Oslo kommunes nettsider for tur og friluftsliv.","elevation":8,"name":"Offentlig toalett - Youngstorget","source":"UT.no\/DNT"},"type":"Feature"},{"geometry":{"coordinates":[10.783557999999999,59.854905000000002],"type":"Point"},"id":"toilet-ut-146890065","properties":{"description":"Offentlig toalett på Katten badeplass. Se også lenker til kart over offentlige toaletter i Oslo og Oslo kommunes nettsider for tur og friluftsliv.","elevation":7,"name":"Offentlig toalett - Katten badeplass","source":"UT.no\/DNT"},"type":"Feature"},{"geometry":{"coordinates":[10.781412,59.869405],"type":"Point"},"id":"toilet-ut-146890066","properties":{"description":"Offentlig toalett på Nordstrand bad. Se også lenker til kart over offentlige toaletter i Oslo og Oslo kommunes nettsider for tur og friluftsliv.","elevation":5,"name":"Offentlig toalett - Nordstrand bad","source":"UT.no\/DNT"},"type":"Feature"},{"geometry":{"coordinates":[10.675259,59.895572000000001],"type":"Point"},"id":"toilet-ut-146890067","properties":{"description":"Offentlig toalett på Huk badestrand. Se også lenker til kart over offentlige toaletter i Oslo og Oslo kommunes nettsider for tur og friluftsliv.","elevation":4,"name":"Offentlig toalett - Huk","source":"UT.no\/DNT"},"type":"Feature"},{"geometry":{"coordinates":[10.765243,59.880419000000003],"type":"Point"},"id":"toilet-ut-146890068","properties":{"description":"Offentlig toalett på Bekkelagsbadet. Se også lenker til kart over offentlige toalett i Oslo og Oslo kommunes nettsider for tur og friluftsliv.","name":"Offentlig toalett - Bekkelagsbadet","source":"UT.no\/DNT"},"type":"Feature"},{"geometry":{"coordinates":[10.738716,59.903661999999997],"type":"Point"},"id":"toilet-ut-146890069","properties":{"description":"Offentlig toalett på Vippetangkaia. Se også lenker til kart over offentlige toaletter i Oslo og Oslo kommunes nettsider for tur og friluftsliv.","elevation":1,"name":"Offentlig toalett - Vippetangkaia","source":"UT.no\/DNT"},"type":"Feature"},{"geometry":{"coordinates":[10.754227999999999,59.921354999999998],"type":"Point"},"id":"toilet-ut-146890070","properties":{"description":"Offentlig toalett på Nedre Foss ved Grünerbrua. Se også lenker til kart over offentlige toaletter i Oslo og Oslo kommunes nettsider for tur og friluftsliv.","elevation":6,"name":"Offentlig toalett - Nedre Foss \/ Grünerløkka","source":"UT.no\/DNT"},"type":"Feature"},{"geometry":{"coordinates":[10.777119000000001,59.909115],"type":"Point"},"id":"toilet-ut-146890075","properties":{"description":"Offentlig toalett i utkanten av Klosterenga park ved Åkebergveien. Toalettbygget har urinal, toalett og HC-toalett\/stellerom. I sommerhalvåret er det også drikkevann i vannkran på utsiden av toalettbygget. Se også lenker til kart over offen...","elevation":25,"name":"Offentlig toalett - Klosterenga","source":"UT.no\/DNT"},"type":"Feature"},{"geometry":{"coordinates":[10.835039,59.882091000000003],"type":"Point"},"id":"toilet-ut-146890077","properties":{"description":"Offentlig toalett ved Østensjøvannet, på parkeringsplass ved Østensjøveien. Se også lenker til kart over offentlige toaletter i Oslo og Oslo kommunes nettsider for tur og friluftsliv.","elevation":107,"name":"Offentlig toalett - Østensjøvannet","source":"UT.no\/DNT"},"type":"Feature"},{"geometry":{"coordinates":[10.730195999999999,59.969957000000001],"type":"Point"},"id":"toilet-ut-146890078","properties":{"description":"Offentlig toalett ved Sognsvann. Se også lenker til kart over offentlige toaletter i Oslo og Oslo kommunes nettsider for tur og friluftsliv.","elevation":185,"name":"Offentlig toalett - Sognsvann","source":"UT.no\/DNT"},"type":"Feature"},{"geometry":{"coordinates":[10.708128,59.925232999999999],"type":"Point"},"id":"toilet-ut-146890079","properties":{"description":"Offentlig tilgjengelige toalett i Vigeland besøkssenter rett ved hovedinngangen til Frognerparken. Toalettene er tilgjengelige i besøkssenterets åpningstider. Besøkssenteret har også kafé og suvenirbutikk. Se også lenker til kart over offen...","elevation":40,"name":"Offentlig toalett - Frognerparken \/ Vigeland besøkssenter","source":"UT.no\/DNT"},"type":"Feature"},{"geometry":{"coordinates":[10.819081000000001,59.947738000000001],"type":"Point"},"id":"toilet-ut-146890085","properties":{"description":"Offentlig toalett ved Årvolldammen. Se også lenker til kart over offentlige toaletter i Oslo og Oslo kommunes nettsider for tur og friluftsliv og Årvolldammen.","elevation":187,"name":"Offentlig toalett - Årvolldammen","source":"UT.no\/DNT"},"type":"Feature"},{"geometry":{"coordinates":[10.749482,59.817666000000003],"type":"Point"},"id":"toilet-ut-146890086","properties":{"description":"Offentlig toalett ved Ingierstrand bad. Se også lenker til kart over offentlige toalett i Oslo og Oslo kommunes nettsider for tur og friluftsliv.","elevation":7,"name":"Offentlig toalett - Ingierstrand bad","source":"UT.no\/DNT"},"type":"Feature"},{"geometry":{"coordinates":[5.6785079999999999,58.768313999999997],"type":"Point"},"id":"toilet-ut-146890088","properties":{"description":"HC-toalett i direkte tilknytning til Gunnarbergets parkeringsplass ved Jærens Kajakklubb. Toalettet er gratis, belyst og utstyrt med toalett og vask, og har rampe for enkel adkomst. For å låse opp døren ringer du telefonnummeret som er oppg...","elevation":26,"name":"Toalett ved Jæren Kajakklubb","source":"UT.no\/DNT"},"type":"Feature"},{"geometry":{"coordinates":[5.737323,59.009278999999999],"type":"Point"},"id":"toilet-ut-146890089","properties":{"description":"Toalettet ligger praktisk til på Lundsneset, rett ved starten av Nyneset. Det er universelt utformet og koster 5 kroner som betales med kort.","elevation":4,"name":"Toalett ved Nyneset","source":"UT.no\/DNT"},"type":"Feature"},{"geometry":{"coordinates":[10.740410000000001,59.924782999999998],"type":"Point"},"id":"toilet-ut-146890101","properties":{"description":"Offentlig toalett på St. Hanshaugen, rett ved Knud Knudsens plass. Se også lenker til kart over offentlige toaletter i Oslo og Oslo kommunes nettsider om St. Hanshaugen og temaside for tur og friluftsliv.","elevation":52,"name":"Offentlig toalett - St. Hanshaugen","source":"UT.no\/DNT"},"type":"Feature"},{"geometry":{"coordinates":[5.8282600000000002,58.765118999999999],"type":"Point"},"id":"toilet-ut-146890105","properties":{"description":"Toalettet har enkel standard og er gratis, men ikke universelt utformet. Adkomst via rampe (140 cm bred, 95 cm lang). Døren er tung og åpnes utover. Snusirkel inne på ca. 130 cm, ingen armstøtter, og bygget er ikke belyst.","elevation":132,"name":"Toalett ved dagsturhytta Røyskatten","source":"UT.no\/DNT"},"type":"Feature"},{"geometry":{"coordinates":[11.17056,60.301012999999998],"type":"Point"},"id":"toilet-ut-146890109","properties":{"description":"Toalettet et åpent i museets åpningstid","elevation":177,"name":"HC toalett Eidsvoll 1814","source":"UT.no\/DNT"},"type":"Feature"},{"geometry":{"coordinates":[11.237485,60.423800999999997],"type":"Point"},"id":"toilet-ut-146890137","properties":{"description":"Toalett ved Støavegen og Mjøsa, nær Støjordet badestrand. Se detaljert tilgjengelighetsdata for dette stedet på Norgeskart.no .","elevation":130,"name":"Toalett ved Støavegen og Mjøsa","source":"UT.no\/DNT"},"type":"Feature"},{"geometry":{"coordinates":[11.237301,60.424422],"type":"Point"},"id":"toilet-ut-146890139","properties":{"description":"Toalett ved Støjordet, langs øststiden av Mjøsa. Inngang bredde 102cm. Terskel høyde 24cm. Diameter innvendig 210cm. Se detaljert tilgjengelighetsdata for stedet i Norgeskart.no .","elevation":127,"name":"Toalett ved Støjordet og Mjøsa","source":"UT.no\/DNT"},"type":"Feature"},{"geometry":{"coordinates":[11.239328,60.470523999999997],"type":"Point"},"id":"toilet-ut-146890141","properties":{"description":"Toalettet står ved Morskogen nedlagte jernbanestasjon og hytta DNT Morskogen vokterbolig . Inngang fri bredde 100cm. Terskel høyde 8cm. Diameter innvendig 150cm. Se detaljert Tilgjengelighetsinformasjon om stedet på Norgeskart.no . Kartlagt...","elevation":128,"name":"Toalett ved Morskogen stasjon","source":"UT.no\/DNT"},"type":"Feature"},{"geometry":{"coordinates":[5.5755429999999997,58.983229000000001],"type":"Point"},"id":"toilet-ut-146890146","properties":{"description":"Universelt utformet toalett ligger ca. 250 meter fra parkeringen ved Vistnestunet, langs veien mot Vistneshyttå. Toalettet er gratis og tilgjengelig via jevn grussti med et kort parti gress før plattingen foran døren. Det er en enkel type u...","elevation":10,"name":"Toalett ved Vistnestunet","source":"UT.no\/DNT"},"type":"Feature"},{"geometry":{"coordinates":[10.950829000000001,60.092241999999999],"type":"Point"},"id":"toilet-ut-146890147","properties":{"description":"Toalett ved demningen ved utløpet på Buvatnet. Inngang bredde90cm. Terskel høyde 1.5cm. Diameter innvendig 150cm.","elevation":261,"name":"Toalett ved Buvatnet","source":"UT.no\/DNT"},"type":"Feature"},{"geometry":{"coordinates":[11.334434999999999,59.633881000000002],"type":"Point"},"id":"toilet-ut-146890149","properties":{"description":"Det er et toalett ved parkeringen til Gravstjern, som er åpent i sesong. Tilgjengelighet Det er heller foran inngangen med 7 cm høyde (55 cm inntrinn og 120 cm bredde), og fra hellene og opp er det ca. 4,5 cm. Døren åpnes manuelt utover. In...","elevation":228,"name":"Toalett Gravstjern","source":"UT.no\/DNT"},"type":"Feature"},{"geometry":{"coordinates":[10.75089,59.865093999999999],"type":"Point"},"id":"toilet-ut-146890156","properties":{"description":"Mellom kaféen og campingplassen er et enkelt toalettbygg merket \"Stabburet\", med to rom. Til høyre er et HC-merket toalett med tørrklosett. Der er vaskeservant og lysinnslipp gjennom vindu høyt på veggen. Det er også et moderne toalettbygg ...","elevation":3,"name":"Toalett på Solvik","source":"UT.no\/DNT"},"type":"Feature"},{"geometry":{"coordinates":[10.784442,59.908785000000002],"type":"Point"},"id":"toilet-ut-146890176","properties":{"description":"Offentlig toalett i Jordalparken. Toalettet er plassert ved Jordalgata sør for Jordal skatepark. Se også lenker til kart over offentlige toaletter i Oslo og Oslo kommunes nettsider for tur og friluftsliv.","elevation":38,"name":"Offentlig toalett - Jordalparken","source":"UT.no\/DNT"},"type":"Feature"},{"geometry":{"coordinates":[10.637524000000001,59.970078999999998],"type":"Point"},"id":"toilet-ut-146890177","properties":{"description":"Offentlig toalett ved Bogstadvannet badeplass. Se også lenker til kart over offentlige toaletter i Oslo, og Oslo kommunes nettsider for tur og friluftsliv og Bogstadvannet.","elevation":151,"name":"Offentlig toalett - Bogstadvannet badeplass","source":"UT.no\/DNT"},"type":"Feature"},{"geometry":{"coordinates":[10.899380000000001,59.968108000000001],"type":"Point"},"id":"toilet-ut-146890178","properties":{"description":"Offentlig toalett ved Svarttjern badeplass. Se også lenker til kart over offentlige toaletter i Oslo og Oslo kommunes nettsider for tur og friluftsliv og Svarttjern.","elevation":269,"name":"Offentlig toalett - Svarttjern","source":"UT.no\/DNT"},"type":"Feature"},{"geometry":{"coordinates":[5.7793760000000001,58.723852999999998],"type":"Point"},"id":"toilet-ut-146890259","properties":{"description":"HC-Toalett ved parkeringsplass ved Melsbuvatnet.","elevation":111,"name":"Toalett ved Melsbuvatnet","source":"UT.no\/DNT"},"type":"Feature"},{"geometry":{"coordinates":[5.7825740000000003,58.724072999999997],"type":"Point"},"id":"toilet-ut-146890282","properties":{"description":"HC-toalett med manuell slagdør utover med bredde på 100 cm., Inngangen har terskel på 1 cm., og inne er det en diameter på 200 cm.","elevation":112,"name":"Toalett ved Melsbu dagsturhytte","source":"UT.no\/DNT"},"type":"Feature"}],"generator":"Trakke fetch_utno_poi.swift","timestamp":"2026-08-10T00:27:31Z","type":"FeatureCollection"}